ID,LATITUDE,LONGITUDE,SCHOOLNAME,ADDRESS,CITY,STATE
1,30.16869976,-93.23596041,A. A. Nelson Elementary School,1001 Country Club Road,Lake Charles,LA
2,29.90241157,-90.35185991,A. A. Songy Sr. Kindergarten Center,523 East Heather Drive,Luling,LA
3,32.46678339,-93.72195147,A. C. Steere Elementary School,4009 Youree Drive,Shreveport,LA
4,32.52568625,-92.65145223,A. E. Phillips Laboratory School,Hergot Street-LA Tech Campus,Ruston,LA
5,32.52328561,-92.718852,A. J. Brown Elementary School,300 Ralph Jones Drive,Grambling,LA
6,30.02251101,-90.26226022,A.C. Alexander Elementary School,600 West Esplanade Avenue,Kenner,LA
7,29.97141409,-90.10405502,A.D. Crossman Elementary School,4407 South Carrollton Avenue,New Orleans,LA
8,32.69609409,-92.0725539,A.L. Smith School,206 High Avenue,Sterlington,LA
9,29.9706353,-90.06049717,A.P. Tureaud Elementary School,2021 Pauger Street,New Orleans,LA
10,29.98280882,-92.10636053,Abbeville High School,1305 Wildcat Dr,Abbeville,LA
11,30.47830679,-90.0285568,Abita Springs Elementary School,22410 Level Street,Abita Springs,LA
12,30.47860679,-90.03755674,Abita Springs Middle School,72079 Maple Street,Abita Springs,LA
13,29.92641224,-90.10346088,Academy of the Sacred Heart (Girls) (C),4521 St. Charles Avenue,New Orleans,LA
14,30.43010194,-92.04416432,Academy of the Sacred Heart (Girls) (C),1821 Academy Road,Grand Coteau,LA
15,30.23090225,-92.38266053,Acadia Parish Alternative School,2122 North Parkerson Avenue,Crowley,LA
16,31.28748956,-92.41065841,Acadian Elementary School,310 Richmond Drive,Alexandria,LA
17,29.58401382,-90.71355897,Acadian Elementary School,1020 Saadi Street,Houma,LA
18,30.28400481,-92.00666325,Acadian Middle School,4201 Moss Street,Lafayette,LA
19,30.20700527,-92.09206206,Acadiana High School,315 Rue du Belier,Lafayette,LA
20,30.53719969,-92.05796514,Acadiana Preparatory School,1592 E Prudhomme St.,Opelousas,LA
21,29.91992831,-90.0920089,Agnes L. Bauduit Elementary School,3649 Laurel Street,New Orleans,LA
22,32.55528368,-93.71025164,Airline High School,2801 Airline Drive,Bossier City,LA
23,29.98956152,-90.20407572,Airline Park Elementary School,6201 Camphor Street,Metairie,LA
24,30.4998072,-90.58695473,Albany High School,29710 Mulberry Street,Albany,LA
25,30.50060717,-90.58345472,Albany Lower Elementary School,30051 West School Street,Albany,LA
26,30.49960722,-90.58975473,Albany Middle School,29675 Reeves Lane,Albany,LA
27,30.50000718,-90.58275473,Albany Upper Elementary School,29777 South Montpelier Drive,Albany,LA
28,29.95711136,-90.30836019,Albert Cammon Middle School,234 Pirate Drive,St. Rose,LA
29,29.96280423,-90.07898108,Albert Wicker Elementary School,2011 Bienville Street,New Orleans,LA
30,29.93566716,-90.11340788,Alcee Fortier High School,5624 Freret Street,New Orleans,LA
31,32.49698326,-93.73525169,Alexander Learning Center,1545 Coty Street,Shreveport,LA
32,31.30518964,-92.50125776,Alexandria Country Day School,5603 Bayou Rapides Road,Alexandria,LA
33,31.30098961,-92.47615794,Alexandria Middle Magnet School,122 Maryland Avenue,Alexandria,LA
34,31.26968974,-92.48965811,Alexandria Senior High School,800 Ola Lane,Alexandria,LA
35,30.01171423,-90.22937451,Alfred Bonnabel High School,2801 Bruin Drive,Kenner,LA
36,30.17609975,-93.25436064,Alfred M. Barbe High School,2200 West McNeese,Lake Charles,LA
37,29.91831272,-89.9996612,Alice Harte Elementary Charter School,5300 Berkley Drive,New Orleans,LA
38,30.01371139,-90.19326061,Alice M.Birney Elementary School,4829 Hastings Street,Metairie,LA
39,30.24900527,-92.02036283,Alice N. Boucher Elementary School,400 Patterson Street,Lafayette,LA
40,29.8131119,-90.46295945,Allemands Elementary School,1471 WPA Road (Hwy. 632),Des Allemands,LA
41,30.56709542,-92.7917568,Allen Correctional Center,3751 Lauderdale Woodyard Road,Kinder,LA
42,30.81679292,-92.65795705,Allen Parish Alternative School,124 South 13th Street,Oakdale,LA
43,31.29658959,-92.45055812,Alma Redwine Elementary School,2121 Mason Street,Alexandria,LA
44,30.33461024,-89.76166137,Alton Elementary School,38276 North Fifth Avenue,Slidell,LA
45,32.48478332,-93.72525158,American Child Day Care Center,426 East Washington,Shreveport,LA
#46,29.89861229,-90.11266076,Ames Elementary School,500 Pine Street,Marrero,LA
47,30.54440859,-90.96835423,Amite Christian School,7100 Amite Church Road,Denham Springs,LA
48,30.72390541,-90.50185192,Amite Elementary School,301 Vernon Avenue,Amite,LA
49,30.72240544,-90.50665195,Amite High School,403 South Laurel Street,Amite,LA
50,31.25458952,-93.34804991,Anacoco Elementary School,4726 Port Arthur Avenue,Anacoco,LA
51,31.25478952,-93.34824991,Anacoco High School,4740 Port Arthur Avenue,Anacoco,LA
52,30.01001034,-91.83746053,Anderson Middle School,1059 Anderson Street,New Iberia,LA
53,29.94595818,-90.10267494,Andrew H. Wilson Elementary School,3617 General Pershing Street,New Orleans,LA
54,29.93655034,-90.07298901,Andrew Jackson Elementary School,1400 Camp Street,New Orleans,LA
55,29.95001274,-89.98346153,Andrew Jackson Elementary School,201 8th Street,Chalmette,LA
56,29.95004474,-89.98348653,Andrew Jackson Fundamental High School,201 8th Street,Chalmette,LA
57,29.73731355,-90.80505906,Andrew Price TAPPS,1849 West Park,Schriever,LA
58,30.96829985,-89.81125,Angie Junior High School,64433 Dixon Street,Angie,LA
#59,30.7773025,-89.86785289,Annunciation (C),511 Avenue C,Bogalusa,LA
60,32.55528367,-93.72555173,Apollo Elementary School,2400 Viking Drive,Bossier City,LA
61,29.97021261,-89.99746141,Arabi Elementary School,1 Mustang Drive,Arabi,LA
62,32.55758351,-92.90055102,Arcadia High School,967  Daniel Street,Arcadia,LA
63,29.91081254,-90.04516102,Archbishop Blenk School (Girls) (C),17 Gretna Boulevard,Gretna,LA
64,30.00551131,-90.2250606,Archbishop Chapelle High School (Girls) (C),8800 Veterans Blvd.,Metairie,LA
65,30.52630633,-90.11305566,Archbishop Hannan High School(C),75376 River Road,St. Benedict,LA
66,30.52630633,-90.11305566,Archbishop Hannan Junior High School (C),75376 River Road,St. Benedict,LA
67,29.98951174,-90.15986088,Archbishop Rummel Jr. High School (Boys)(C),1901 Severn Avenue,Metairie,LA
68,29.98951174,-90.15986088,Archbishop Rummel Sr. High School (Boys) (C),1901 Severn Avenue,Metairie,LA
69,29.89301237,-90.10006079,Archbishop Shaw Junior High School (C),1000 Barataria Boulevard,Marrero,LA
70,29.89301237,-90.10006079,Archbishop Shaw Sr. High School (C),1000 Barataria Boulevard,Marrero,LA
71,29.86881271,-90.03136092,Arden Cahill Academy,3101 Wall Boulevard,Gretna,LA
72,30.38570956,-91.17075481,Arlington Preparatory Academy,931 Dean Lee Drive,Baton Rouge,LA
73,30.24530288,-92.27426113,Armstrong Middle School,700 Martin Luther King Drive,Rayne,LA
74,30.39730362,-91.93606375,Arnaudville Elementary School,120 West Railroad Ave.,Arnaudville,LA
75,32.45988342,-93.71885142,Arthur Circle Elementary School,261 Arthur Avenue,Shreveport,LA
76,31.29128958,-92.43285826,Arthur F. Smith Middle Magnet School,3100 Jones Street,Alexandria,LA
77,30.21960576,-92.0175626,Ascension Day School (E),1030 Johnston Street,Lafayette,LA
78,30.10221199,-90.98525714,Ascension Diocesan Regional School (C),311 St. Vincent Street,Donaldsonville,LA
79,30.08171042,-90.48215851,Ascension of Our Lord School (C),1809 Greenwood Drive,LaPlace,LA
80,30.1404115,-90.9487569,Ascension Parish Alternative School,38608 Hwy 22,Darrow,LA
81,30.20210608,-92.01296248,Ashton Grace Montessori,131 South Audubon Blvd.,Lafayette,LA
82,31.71259045,-91.95935175,ASPIRE,180 Creek Bend Road,Jonesville,LA
83,29.96441128,-91.77576006,Assembly Christian School (AG),4219 East Admiral Doyle,New Iberia,LA
84,29.94141371,-91.02265821,Assumption High School,4880 Highway 308,Napoleonville,LA
85,32.6182821,-93.00645048,Athens High School,15520 Highway 9,Athens,LA
86,32.4355834,-93.75865154,Atkins Technology Elementary School,7611 St.Vincent Avenue,Shreveport,LA
87,31.80649089,-92.73275206,Atlanta School,118 School Road,Atlanta,LA
88,30.00921132,-90.21676058,Atonement Lutheran School,6500 Riverside Drive,Metairie,LA
89,29.9341121,-90.12946082,Audubon Charter School,428 Broadway Street,New Orleans,LA
90,30.44660923,-91.06575459,Audubon Elementary School,10730 Goodwood Blvd,Baton Rouge,LA
91,30.051312,-89.97826123,Auntie B. Preschool and Kindergarten,8001 Lafourche Street,New Orleans,LA
92,30.01823601,-90.05623006,Avery Alexander School,5800 St. Roch Avenue,New Orleans,LA
93,29.90321108,-91.91075992,Avery Island Elementary School,Hwy 329 Avery Island Road,Avery Island,LA
94,30.97439262,-92.03426275,Avoyelles Correctional Center,1630 Prison Road,Cottonport,LA
95,31.03459306,-91.97346141,Avoyelles High School,287 Main Street,Moreauville,LA
96,31.05679116,-92.12086125,Avoyelles Parish Alternative Site (APAS),4137 E School Street,Hesmer,LA
97,31.08089124,-92.04696119,Avoyelles Public Charter School,201 Longfellow Rd,Mansura,LA
98,30.8279062,-91.3801543,Bains Elementary School,9792 Bains Road,St. Francisville,LA
99,30.8279062,-91.3801543,Bains Lower Elementary School,9794 Bains Road,St. Francisville,LA
100,30.58360808,-91.1340541,Baker Alternative School,6009 Groom road,Baker,LA
101,30.58380801,-91.1599541,Baker Heights Elementary School,3750 Harding Street,Baker,LA
102,30.58820797,-91.16705409,Baker High School,3200 Groom Road,Baker,LA
103,30.58400808,-91.1349541,Baker Middle School,5903  Groom Road,Baker,LA
104,30.580908,-91.1757541,Bakerfield Elementary School,2550 South Street,Baker,LA
105,29.8357136,-91.54445802,Baldwin Elementary School,504 Main Street,Baldwin,LA
106,31.41708921,-92.40515736,Ball Elementary School,89 Camp Livingston Road,Ball,LA
107,29.99921063,-91.81736037,Bank Avenue Elementary School,500 Bank Avenue,New Iberia,LA
108,30.51450851,-91.16845417,Banks Elementary School,2401 72nd Avenue,Baton Rouge,LA
109,30.01345829,-90.01097329,Barbara Jordan Elementary School,4348 Reynes Street,New Orleans,LA
110,30.23279951,-93.21536021,Barbe Elementary School,400 Penn Street,Lake Charles,LA
111,32.48309269,-92.10935308,Barkdull Faulk Elementary School,2110 Jackson Street,Monroe,LA
112,32.48618326,-93.75225173,Barret Elementary School,2600 Barret Street,Shreveport,LA
113,30.48669652,-92.59555923,Basile High School,2835 2nd Street,Basile,LA
114,32.31699546,-91.71005233,Baskin School,1926 Hwy 857,Baskin,LA
115,32.78839517,-91.91815408,Bastrop High School,402 Highland Avenue,Bastrop,LA
116,30.44410909,-91.1595545,Baton Rouge High School,2825 Government St,Baton Rouge,LA
117,30.45830915,-91.06285453,Baton Rouge Lutheran School,10925 Florida Boulevard,Baton Rouge,LA
118,30.50020867,-91.14425421,Baton Rouge Marine Institute  Inc.,5555 Beechwood Dr,Baton Rouge,LA
119,30.51810857,-91.1304542,Baton Rouge Preparatory Academy,5959 Cadillac Street,Baton Rouge,LA
120,30.42770924,-91.1520546,Baton Rouge Visual and Performing Arts Center,2040 So Acadian Thwy,Baton Rouge,LA
121,29.62411518,-90.91005905,Bayou Black Elementary School,4449 Bayou Black Drive,Houma,LA
122,29.60181336,-90.63885902,Bayou Blue Elementary School,1916 Bayou Blue Road,Houma,LA
123,29.64171331,-90.68035906,Bayou Blue Middle School,196 Mazerac Street,Houma,LA
124,29.76861225,-90.5598593,Bayou Boeuf Elementary School,4138 Hwy 307,Thibodaux,LA
125,30.8141925,-92.35076171,Bayou Chicot Elementary School,4576 U.S. Highway 167 North,Ville Platte,LA
126,30.31530896,-89.94465893,Bayou Lacombe Middle School,27527 St. Joseph,Lacombe,LA
127,29.74021238,-90.55635931,Bayou Lafourche Marine Institute,942 Hwy 90 East,Raceland,LA
128,29.71011588,-91.07725881,Bayou L'Ourse Primary School,216 Lark Drive,Morgan City,LA
129,29.687116,-91.26335849,Bayou Vista Elementary School,1155 Delmar Street,Morgan City,LA
130,30.28761073,-89.80686151,Bayou Woods Elementary School,35614 Liberty Drive,Slidell,LA
131,30.40740308,-91.96996416,Beau Chene High School,7076 Hwy. 93,Arnaudville,LA
132,30.84109159,-93.27195271,Beauregard Alternative School,506 Martin Luther King Drive,DeRidder,LA
133,32.92629616,-91.88695387,Beekman Junior High School,15190 A. M. Baker Road,Bastrop,LA
134,30.47830681,-90.09355636,Beginnings-A Montessori School,502 North Florida,Covington,LA
135,30.46670912,-91.0478545,Belaire High School,12121 Tams Drive,Baton Rouge,LA
136,30.46770893,-91.14525439,Belfair Montessori School,4451 Fairfields Ave,Baton Rouge,LA
137,29.87961268,-90.03176096,Believer's Life Christian Academy (AG),501 Lapalco Blvd.,Gretna,LA
138,30.11170118,-92.92515617,Bell City High School,7161 Highway 14 East,Bell City,LA
139,32.48658339,-93.67885133,Bellaire Elementary School,1310 Bellaire Boulevard,Bossier City,LA
140,29.82591289,-90.01396083,Belle Chasse Academy,100 Fifth Street NAS JRB,Belle Chasse,LA
141,29.85551291,-89.98536113,Belle Chasse High School,8346 Highway 23,Belle Chasse,LA
142,29.85546991,-89.98532813,Belle Chasse High School,8346 Highway 23,Belle Chasse,LA
143,29.7201132,-89.99826037,Belle Chasse Middle School,13476 Highway 23,Belle Chasse,LA
144,29.89841283,-89.98336133,Belle Chasse Primary School,539 F. Edward Hebert Blvd.,Belle Chasse,LA
145,30.00981097,-91.7477603,Belle Place Middle School,4110 Loreauville Road,New Iberia,LA
146,30.04641267,-91.04545763,Belle Rose Middle School,7177 Highway 1,Belle Rose,LA
147,30.04801265,-91.04175761,Belle Rose Primary School,7100 Highway 308,Belle Rose,LA
148,30.51510887,-90.99275432,Bellingrath Hills Elementary School,6612 Audusson,Greenwell Springs,LA
149,29.93981206,-90.13306082,Benjamin Banneker Elementary School,421 Burdette Street,New Orleans,LA
150,29.9231122,-90.11446083,Benjamin Franklin Elem. Math-Science Magnet,1116 Jefferson Ave.,New Orleans,LA
151,30.02401189,-90.06576095,Benjamin Franklin High School,2001 Leon C. Simon Drive,New Orleans,LA
152,30.7384031,-89.89835344,Ben's Ford Christian School (B),59253 Mt. Pleasant Road #2,Bogalusa,LA
153,32.69618473,-93.7194519,Benton Elementary School,562 Highway 162,Benton,LA
154,32.66518453,-93.74745206,Benton High School,6136 Highway 3,Benton,LA
155,32.66528453,-93.74745206,Benton Middle School,6140 Highway 3,Benton,LA
156,30.4729089,-91.13925437,Berean Seventh-day Adventist Academy,5100 Osborne Avenue,Baton Rouge,LA
157,32.47149289,-92.08895301,Berg Jones Elementary School,3000 Berg Jones Lane,Monroe,LA
158,30.44700909,-91.1470545,Bernard Terrace Elementary School,241 Edison Street,Baton Rouge,LA
159,32.81578426,-92.66495067,Bernice High School,119 8th Street,Bernice,LA
160,29.69541606,-91.2191586,Berwick Elementary School,400 Texas Street,Berwick,LA
161,29.71481613,-91.24135871,Berwick High School,700 Patti Drive,Berwick,LA
162,29.71021613,-91.24645867,Berwick Junior High School,3955 Hwy. 182,Berwick,LA
163,30.57360817,-91.12885412,Bethany Christian School,13855 Plank Road,Baker,LA
164,32.49828653,-92.64285229,Bethel Christian School,2901 Winona Drive,Ruston,LA
165,30.25039937,-92.65515909,Bethel Christian School (B),15147 Highway 102,Jennings,LA
166,31.58599826,-91.49975185,Bethel Missionary School,204 Airport Road,Vidalia,LA
167,32.46428311,-93.81225197,Bethune Middle School,4331 Henry Street,Shreveport,LA
168,32.36288492,-92.98995047,Bienville Educational Center,8684 Hwy 507,Bienville,LA
169,30.010465,-90.07780608,Bienville Elementary School,1456 Gardena Street,New Orleans,LA
170,32.35708509,-92.97765051,Bienville High School,325 Main Street  Hwy 507,Bienville,LA
171,30.01531245,-89.98276157,Bishop McManus School,8801 Chef Menteur Hwy.,New Orleans,LA
172,30.23009949,-93.20976016,Bishop Noland Episcopal Day School,715 Kirkman Street,Lake Charles,LA
173,30.01231127,-90.21956053,Bissonet Plaza Elementary School,6818 Kawanee Avenue,Metairie,LA
174,32.58138361,-93.88755319,Blanchard Elementary School,402 Birch Avenue,Shreveport,LA
175,31.62799229,-91.81645189,Block High School,300 Division Street,Jonesville,LA
176,30.77970246,-89.86605285,Bogalusa High School,100 M.J. Israel Drive,Bogalusa,LA
177,30.77000252,-89.85445308,Bogalusa Middle School,1403 North Avenue,Bogalusa,LA
178,32.51799246,-92.14305323,Boley Elementary School,2213 Cypress Street,West Monroe,LA
179,31.2945896,-92.45515811,Bolton High School,2101 Vance Avenue,Alexandria,LA
180,32.91839611,-91.67395366,Bonita Elementary School,12850 Henry Street,Bonita,LA
181,30.29051108,-89.76716212,Bonne Ecole Elementary School,900 Rue Verand,Slidell,LA
182,29.94967423,-90.088774,Booker T. Washington Career and Technical Ct,1201 South Roman Street,New Orleans,LA
183,29.33581802,-89.40656106,Boothville-Venice Elementary School,1 Oiler Drive,Boothville,LA
184,32.52198341,-93.73745175,Bossier Elementary School,322 Colquitt Street,Bossier City,LA
185,32.51778339,-93.73145171,Bossier High School,777 Bearkat Drive,Bossier City,LA
186,32.54488351,-93.77625207,Bossier Parish Technical School,2010 North Market Street,Shreveport,LA
187,29.38841342,-90.61765897,Boudreaux Canal/Little Caillou School,208 Dr. Hugh St. Martin Road,Chauvin,LA
188,29.55571342,-90.60115895,Bourg Elementary School,4413 St. Andrew Street,Bourg,LA
189,29.90331153,-90.38115979,Boutte Christian Academy (AG),13271 Highway 90,Boutte,LA
190,30.29321113,-89.7389625,Boyet Junior High School,59295 Rebel Drive,Slidell,LA
191,30.34920136,-92.24706204,Branch Elementary School,8362 Branch Highway,Branch,LA
192,30.26860603,-91.90456308,Breaux Bridge Elementary School,702 West Bridge Street,Breaux Bridge,LA
193,30.25380669,-91.85846305,Breaux Bridge High School,1015 Breaux Bridge High School Rd.,Breaux Bridge,LA
194,30.27490595,-91.90136309,Breaux Bridge Junior High School,100 Martin Street,Breaux Bridge,LA
195,30.27900597,-91.89286309,Breaux Bridge Primary School,1020 East Bridge Street,Breaux Bridge,LA
196,32.50258326,-93.73905172,Brentwood Behavioral Alt. School,1006 Highland Avenue,Shreveport,LA
197,30.18849967,-93.20065996,Brentwood Elementary School,3825 Brentwood Avenue,Lake Charles,LA
198,32.8312993,-91.18615397,Briarfield Academy,301 Riddle Lane,Lake Providence,LA
199,29.92991192,-90.17216066,Bridge City Elementary School,1805 Bridge City Avenue,Bridge City,LA
200,29.98231165,-90.18496077,Bridgedale Elementary School,808 Zinnia Street,Metairie,LA
201,30.465609,-91.11315444,Brighter Horizon School of Baton Rouge,1896 Wooddale Boulevard,Baton Rouge,LA
202,30.40600954,-91.04565484,Brighton School,12108 Parkmeadow Avenue,Baton Rouge,LA
203,30.44360923,-91.07905459,Broadmoor Elementary School,9650 Goodwood Blvd,Baton Rouge,LA
204,29.63291363,-90.74315902,Broadmoor Elementary School,1010 Broadmoor Avenue,Houma,LA
205,30.17300611,-92.060662,Broadmoor Elementary School,609 Broadmoor Boulevard,Lafayette,LA
206,32.46348338,-93.73185151,Broadmoor Middle Laboratory School,441 Atlantic Street,Shreveport,LA
207,30.44300925,-91.06665461,Broadmoor Middle School,1225 Sharp Road,Baton Rouge,LA
208,30.44360923,-91.0755546,Broadmoor Senior High School,10100 Goodwood Blvd.,Baton Rouge,LA
209,30.49090878,-91.12825428,Brookstown Elementary School,4375 East Brookstown,Baton Rouge,LA
210,30.00311219,-90.05916124,Brother Martin Junior High School (Boys) (C),4401 Elysian Fields Ave.,New Orleans,LA
211,30.00311219,-90.05916124,Brother Martin Sr. High School (Boys) (C),4401 Elysian Fields Ave.,New Orleans,LA
212,30.12930761,-91.96506189,Broussard Middle School,1325 South Morgan Avenue,Broussard,LA
213,32.99598581,-93.46425107,Brown Middle School,804 4th St. SW,Springhill,LA
214,30.5541083,-91.13455414,Brownfields Baptist Academy,11988 Plank Road,Baton Rouge,LA
215,30.55140833,-91.13055415,Brownfields Elementary School,11615 Ellen Drive,Baton Rouge,LA
216,33.01498591,-93.46715102,Browning Elementary School,505 Herrington Dr,Springhill,LA
217,30.38940936,-91.25635481,Brusly Elementary School,400 South LaBauve Ave.,Brusly,LA
218,30.39300942,-91.23855469,Brusly High School,630 Frontage Road,Brusly,LA
219,30.39040945,-91.23285471,Brusly Middle School,601 North Kirkland,Brusly,LA
220,30.42510923,-91.17225459,Buchanan Elementary School,1222 East Buchanan,Baton Rouge,LA
221,31.3666893,-92.18995816,Buckeye Elementary School,642 Highway 1207,Deville,LA
222,31.3648893,-92.18505815,Buckeye High School,715 Highway 1207,Deville,LA
223,29.97541147,-90.2264606,Bunche Academy for High School Preparation,8101 Simon Street,Metairie,LA
224,30.94949171,-92.18326217,Bunkie Elementary School,311 Pershing Avenue,Bunkie,LA
225,30.95349172,-92.17796216,Bunkie High School,435 Evergreen Street,Bunkie,LA
226,30.95739168,-92.17836211,Bunkie Middle School,205 South Cottonwood Street,Bunkie,LA
227,29.35391693,-89.52556065,Buras High School,1 Wildcat Drive,Buras,LA
228,29.36781645,-89.56985998,Buras Middle School,34158 Hwy. 11 North,Buras,LA
229,32.52378343,-93.73185172,Butler Educational Complex,649 Wyche Street,Bossier City,LA
230,30.75960267,-89.86185322,Byrd Avenue Elementary School,1600 Byrd Avenue,Bogalusa,LA
231,30.45049801,-93.42725639,C. Paul Phelps Correctional Center,14925 Hwy 27,DeQuincy,LA
232,30.21650592,-92.00576265,C.A.P.S Continuing Academic Program School,516 East Pinhook St,Lafayette,LA
233,32.4801833,-93.74595167,C.E. Byrd High School,3201 Line Avenue,Shreveport,LA
234,29.94533477,-89.97834959,C.F. Rowley School,49 Madison Avenue,Chalmette,LA
235,29.98121213,-90.08826111,Cabrini High School (Girls) (C),1400 Moss Street,New Orleans,LA
236,32.45378329,-93.77155169,Caddo Career & Tech Center,5950 Union Avenue,Shreveport,LA
237,32.4638833,-93.76315169,Caddo Heights Elementary School,1702 Corbitt Street,Shreveport,LA
238,32.5541835,-93.81425241,Caddo Learning Center,2550 Thomas E. Howard Drive,Shreveport,LA
239,32.44788332,-93.76955165,Caddo Middle Career and Technology School,6310 Clift Street,Shreveport,LA
240,32.49628328,-93.7202516,Caddo Parish Magnet High School,1601 Viking Drive,Shreveport,LA
241,32.43428346,-93.74345145,Caddo Parish Middle Magnet School,7635 Cornelious Drive,Shreveport,LA
242,29.96021254,-90.01606129,Caffin Avenue Christian Academy (SDA),1019 Caffin Avenue,New Orleans,LA
243,30.24229919,-93.17635995,Calcasieu Career Center,2903 Opelousas Street,Lake Charles,LA
244,29.71951373,-90.81215905,Caldwell Middle School,445 Hwy. 311,Schriever,LA
245,32.05989152,-92.09885116,Caldwell Parish High School,163 Spartan Drive,Columbia,LA
246,32.06069154,-92.09675116,Caldwell Parish Junior High School,114 Trojan Drive,Columbia,LA
247,32.50578969,-92.36135299,Calhoun Elementary School,237 Calhoun Road,Calhoun,LA
248,32.52029024,-92.32705305,Calhoun Middle School,191 Highway 80,Calhoun,LA
249,32.40318348,-93.76315141,Calvary Baptist Academy,9333 Linwood Avenue,Shreveport,LA
250,29.92971254,-90.03316112,Calvary Baptist School,2401 General DeGaulle Drive,New Orleans,LA
251,30.36270982,-91.07775505,Calvary Christian School,9611 Seigen Lane,Baton Rouge,LA
252,31.96799038,-92.77525129,Calvin High School,223 Second Street,Calvin,LA
253,29.78611552,-91.10645875,Cameron Elementary School,753 Oak Grove Hwy,Grand Chenier,LA
254,29.9061124,-91.6682588,Canal Street Elementary School,800 Canal Street,Jeanerette,LA
255,30.41270233,-92.03496424,Cankton Elementary School,602 Main Street,Cankton,LA
256,30.46280898,-91.13815442,Capitol Middle School,5100 Greenwell Springs Rd.,Baton Rouge,LA
257,30.45750897,-91.16475442,Capitol Pre-College Academy for Boys,1000 North 23rd,Baton Rouge,LA
258,30.45750897,-91.16475442,Capitol Pre-College Academy for Girls,1000 North 23rd,Baton Rouge,LA
259,32.44828349,-93.71075132,Captain Shreve High School,6115 East Kings Highway,Shreveport,LA
260,32.75779493,-91.92515413,Career Center,1607 M.L. King South,Bastrop,LA
261,32.52439325,-92.0707533,Career Development Center,300 Sherrouse Avenue,Monroe,LA
262,30.31760379,-92.05106324,Carencro Catholic Elementary School(C),200 West St.Peter Street,Carencro,LA
263,30.31560392,-92.04186329,Carencro Heights Elementary School,601 Tee Ma Road,Carencro,LA
264,30.2879044,-92.04166304,Carencro High School,721 West Butcher Switch Road,Lafayette,LA
265,30.30370405,-92.04946313,Carencro Middle School,4301 North University,Carencro,LA
266,30.28741076,-89.80386156,Carolyn Park Middle School,35708 Liberty Drive,Slidell,LA
267,32.90158585,-93.69875321,Carrie Martin Elementary School,600 South Perrin Street,Plain Dealing,LA
268,32.51439304,-92.08685325,Carroll High School,2939 Renwick Street,Monroe,LA
269,32.51459302,-92.08845325,Carroll Junior High School,2913 Renwick Street,Monroe,LA
270,31.09259039,-92.40345962,Carter C. Raymond Middle School,2510 St. Charles,Lecompte,LA
271,29.93958926,-90.09009797,Carter G. Woodson Middle School,2514 Third Street,New Orleans,LA
272,32.76279494,-91.90245408,Carver Elementary School,1510 Elm Street,Bastrop,LA
273,30.84459157,-93.27185272,Carver Elementary School,205 Martin Luther King Drive,DeRidder,LA
274,32.50039292,-92.0915532,Carver Elementary School,1700 Orange Street,Monroe,LA
275,29.99329335,-90.03855932,Carver Middle School,3019 Higgins Boulevard,New Orleans,LA
276,32.25168563,-93.16534877,Castor High School,140 Front Street,Castor,LA
277,30.21550825,-91.70966178,Catahoula Elementary School,1016-A Catahoula School Hwy.,St. Martinville,LA
278,29.96031231,-90.06546112,Cathedral Academy (St. Louis Cathedral)(C),820 Dauphine Street,New Orleans,LA
279,30.22460563,-92.02286261,Cathedral Carmel School (C),848 St.John Street,Lafayette,LA
280,29.90431187,-90.20856047,Catherine Strehle Elementary School,178 Millie Drive,Avondale,LA
281,30.69490632,-91.43585548,Catholic Elementary School of Pointe Coupee(C),304 Napoleon Street,New Roads,LA
282,30.69590632,-91.43715548,Catholic High of Pointe Coupee (C),504 Fourth Street,New Roads,LA
283,30.44030913,-91.15695453,Catholic High School (Boys) (C),855 Hearthstone Drive,Baton Rouge,LA
284,29.99031063,-91.83156035,Catholic High School (C),1301 DeLaSalle Drive,New Iberia,LA
285,30.44030913,-91.15695453,Catholic Junior High School (Boys) (C),855 Hearthstone Drive,Baton Rouge,LA
286,30.33690553,-91.84516294,Cecilia High School,2397 Cecilia Sr. High School Hwy.,Cecilia,LA
287,30.33690549,-91.84846296,Cecilia Junior High School,1038 School Road Ext.,Cecilia,LA
288,30.33870543,-91.85216298,Cecilia Primary School,1021 Alcide Bonin Road,Cecilia,LA
289,32.55618636,-92.62105227,Cedar Creek School,2400 Cedar Creek Drive,Ruston,LA
290,30.42470938,-91.06795471,Cedarcrest-Southmoor Elementary School,10187 Twin Cedars,Baton Rouge,LA
291,30.39720759,-90.11415683,Cedarwood School,607 Heavens Drive,Mandeville,LA
292,29.9683273,-90.06111516,Center for Real World Options,1815 St. Claude,New Orleans,LA
293,29.99001062,-91.83436035,Center Street Elementary School,1520 Center Street,New Iberia,LA
294,29.76081488,-91.43855864,Centerville High School,9225 Highway 182 West,Centerville,LA
295,29.71271608,-91.20775872,Central Catholic School (C),2100 Cedar Street  Unit 1,Morgan City,LA
296,32.48008286,-93.23684982,Central Elementary School,5701 Hwy 531,Dubberly,LA
297,32.48318979,-92.3537529,Central Elementary School,1163 Highway 151 S,Calhoun,LA
298,30.27191025,-90.90435598,Central Elementary School,14101 Roddy Road,Gonzales,LA
299,32.50078319,-93.76365187,Central Elementary School,1627 Weinstock Street,Shreveport,LA
300,32.50168315,-93.78125199,Central Free Methodist School,2755 Ashton Street,Shreveport,LA
301,30.54100867,-91.01955423,Central High School,10200 E Brookside,Baton Rouge,LA
302,31.32729192,-91.88675624,Central High School,244 Larto Bayou Road,Jonesville,LA
303,29.69431257,-90.55475922,Central Lafourche High School,4820 Hwy 1,Raceland,LA
304,31.32378949,-92.43635798,Central Louisiana State Hospital,242 W Shamrock Street Unit 8B,Pineville,LA
305,30.55340854,-91.03625419,Central Middle School,11526 Sullivan Road,Baton Rouge,LA
306,30.48989754,-92.40606129,Central Middle School,602 S. Martin Luther King Drive,Eunice,LA
307,32.50888334,-93.71525161,Central Park Elementary School,900 Central Park Boulevard,Bossier City,LA
308,30.56600839,-91.06045415,Central Private School,12801 Centerra Court,Baker,LA
309,30.24010303,-92.26786115,Central Rayne Kindergarten School,507 North Polk Street,Rayne,LA
310,32.08908485,-93.80874783,Central School Corporation,1035 East 2nd Street,Grand Cane,LA
311,29.78001343,-90.81815896,Chackbay Elementary School,301 School Lane,Thibodaux,LA
312,30.31150902,-89.94255899,Chahta-Ima Elementary School,27488 Pichon Road,Lacombe,LA
313,29.93901292,-89.95426188,Chalmette High School,1100 East Judge Perez Dr.,Chalmette,LA
314,29.94728778,-89.97671162,Chalmette Middle School,75 East Chalmette Circle,Chalmette,LA
315,30.53540737,-91.30535539,Chamberlin Elementary School,6024 Section Road,Port Allen,LA
316,30.48400682,-90.33645511,Champ Cooper Elementary School,42530 Highway 445,Ponchatoula,LA
317,30.42370922,-91.18475459,Charity Christian Academy,650 West McKinley Street,Baton Rouge,LA
318,29.96866234,-90.05424818,Charles J. Colton Middle School,2300 St. Claude Avenue,New Orleans,LA
319,30.18090499,-92.17116148,Charles M. Burke Elementary School,2845 Ridge Rd.,Duson,LA
320,32.52168343,-93.72045165,Charlotte Ann Mitchell Educational Center,1518 Cox Street,Bossier City,LA
321,30.56879681,-92.31256249,Chataignier Elementary School,5762 Vine Street,Chataignier,LA
322,30.03331092,-90.25436012,Chateau Estates Elementary School,4121 Medoc Drive,Kenner,LA
323,31.26538973,-92.47635822,Cherokee Elementary School,5700 Prescott Road,Alexandria,LA
324,32.54228353,-93.75945193,Cherokee Park Elementary School,2010 East Algonquin Trail,Shreveport,LA
325,32.79659516,-91.882754,Cherry Ridge Elementary School,6281 Cherry Ridge Road,Bastrop,LA
326,30.84840466,-90.45495012,Chesbrough Elementary School,68495 Highway 1054,Kentwood,LA
327,30.43220914,-91.18925453,Children's Charter School,900 Mcclung Street,Baton Rouge,LA
328,32.50839262,-92.12305322,Children's House Montessori School,902 Walnut Street,Monroe,LA
329,29.88481319,-91.53185754,Chitimacha Tribal School,3613 Chitimacha Trail,Jeanerette,LA
330,32.52838776,-92.49835274,Choudrant Elementary School,160 Walker Road,Choudrant,LA
331,32.52928762,-92.51155269,Choudrant High School,2555 Hwy. 80,Choudrant,LA
332,30.47300686,-90.09525639,Christ Episcopal School,120 S New Hampshire,Covington,LA
333,29.90651263,-90.02576107,Christ the King School (C),2106 Deerfield Road,Terrytown,LA
334,32.4067971,-91.17325271,Christian Acres Alternative School,200 Loop Road,Tallulah,LA
335,29.98811209,-90.09226111,Christian Brothers School (Boys) (C),8 Friederichs Avenue,New Orleans,LA
336,30.39970949,-91.12965478,Christian Life Academy,2037 Quail Drive,Baton Rouge,LA
337,30.40090085,-92.21006272,Church Point Elementary School,415 East Lougarre Street,Church Point,LA
338,30.40050085,-92.21076271,Church Point High School,305 East Lougarre Street,Church Point,LA
339,30.40950056,-92.22606265,Church Point Middle School,340 Martin Luther King Drive,Church Point,LA
340,32.81248163,-93.0558504,Claiborne Academy,6741 Hwy. 79,Haynesville,LA
341,32.79478166,-93.06735037,Claiborne Alternative School Setting (CLASS),626 Bonner Street,Homer,LA
342,32.52009205,-92.18305322,Claiborne Christian School (CG),320 Laird Street,West Monroe,LA
343,30.50450864,-91.14355421,Claiborne Elementary School,4700 Denham Street,Baton Rouge,LA
344,32.47808321,-93.77485183,Claiborne Fundamental Elementary School,2345 Claiborne Avenue,Shreveport,LA
345,32.53169198,-92.19625324,Claiborne School,1011 Wallace Dean Road,West Monroe,LA
346,32.4894928,-92.10045313,Clara Hall Accelerated School,1000 Plum Street,Monroe,LA
347,29.93431288,-89.96146176,Classique Montessori School,715 E St. Bernard Hwy.,Chalmette,LA
348,30.31231077,-89.75356192,Clearwood Junior High School,130 Clearwood Drive,Slidell,LA
349,30.85880606,-91.02235393,Clinton Elementary School,10701 Reiley Street,Clinton,LA
350,30.85860607,-91.0115539,Clinton High School,10410 Plank Road,Clinton,LA
351,30.87320591,-91.01555395,Clinton Middle School,12126 Liberty Street,Clinton,LA
352,31.54549424,-92.92214964,Cloutierville Elementary School,155 Schoolhouse Rd.,Cloutierville,LA
353,30.45890886,-91.21745436,Cohn Elementary School,806 North 14th Street,Port Allen,LA
354,31.5143922,-92.71085276,Colfax Elementary School,250 Third Street,Colfax,LA
355,30.19219969,-93.22316024,College Oaks Elementary School,3618 Ernest Street,Lake Charles,LA
356,32.68739483,-91.87265381,Collinston Elementary School,4619 Keller Drive,Collinston,LA
357,32.08759171,-92.0909512,Columbia Elementary School,205 Church Street,Columbia,LA
358,30.26399915,-93.19185985,Combre/Fondel Elementary School,2115 Fitzenrieter Rd.,Lake Charles,LA
359,30.4997089,-91.04745431,Comite Christian Academy (B),12250 Greenwell Springs Road,Baton Rouge,LA
360,30.48890894,-90.96085448,Community Christian Academy,400 River Road North,Denham Springs,LA
361,30.46730887,-91.17365436,Community School For Apprenticeship Learning,1555 Madison Ave,Baton Rouge,LA
362,31.6196965,-91.56445177,Concordia Education Center,160 Kindergarten Road,Ferriday,LA
363,29.89401227,-90.12246072,Concordia Lutheran School,6700 B Westbank Expressway,Marrero,LA
364,29.85011251,-90.10136065,Congetta Trippe Janet Elementary School,2500 Bent Tree Lane,Marrero,LA
365,29.89671236,-90.0983608,Conquering Word Christian Academy,812 Ave. F,Marrero,LA
366,31.78508708,-93.69754525,Converse High School,400 Wildcat Drive,Converse,LA
367,32.08308341,-93.96084798,Cool Springs School,1199 Cool Springs Road,Logansport,LA
368,32.54888366,-93.66445137,Cope Middle School,4814 Shed Road,Bossier City,LA
369,30.63420757,-91.19045405,Copper Mill Elementary School,1300 Independence Blvd.,Zachary,LA
370,30.05000928,-91.90376106,Coteau Elementary School,2414 Coteau Road,New Iberia,LA
371,29.65701347,-90.74395905,Coteau-Bayou Blue Elementary School,2550 Coteau Road,Houma,LA
372,32.81958429,-93.39665027,Cotton Valley High School,6245 Hwy. 150,Cotton Valley,LA
373,30.98199242,-92.05316249,Cottonport Elementary School,950 Lemoine Street,Cottonport,LA
374,30.44860908,-91.1435545,Country Day School of Baton Rouge,4455 North Boulevard,Baton Rouge,LA
375,30.47500684,-90.1053563,Covington Elementary School,325 South Jackson Street,Covington,LA
376,30.49500666,-90.13375596,Covington High School,73030 Lion Drive,Covington,LA
377,30.47660683,-90.10255631,Covington Montessori School,116 N. Monroe Street,Covington,LA
378,30.48480675,-90.10175625,Covington Pathways School,801 North Tyler Street,Covington,LA
379,32.55788351,-92.90025102,Crawford Elementary School,935 Daniel Street,Arcadia,LA
380,30.37620936,-89.7683605,Creekside Junior High,65434 Highway 41,Pearl River,LA
381,30.00031155,-90.1895608,Crescent City Christian High School,4828 Utica Street,Metairie,LA
382,30.27741043,-91.25535533,Crescent Elementary School,62575 Bayou Road,Plaquemine,LA
383,30.54360822,-91.19635413,Crestworth Elementary School,11200 Avenue F,Baton Rouge,LA
384,30.55490822,-91.16485413,Crestworth Middle School,2555 Desoto Drive,Baton Rouge,LA
385,30.52309992,-92.07236489,Creswell Elementary School,1218 East Leo Street,Opelousas,LA
386,32.4834833,-93.74165166,Creswell Elementary School,2901 Creswell Avenue,Shreveport,LA
387,32.49969253,-92.12745319,Crosley Elementary School,700 Natchitoches Street,West Monroe,LA
388,30.25990157,-92.39706052,Crowley High School,263 Hensgens Road,Crowley,LA
389,30.22000251,-92.37686053,Crowley Kindergarten School,1119 North Parkerson Avenue,Crowley,LA
390,30.22060247,-92.38126051,Crowley Middle School,401 West Northern Avenue,Crowley,LA
391,32.24109551,-91.59175209,Crowville School,139 School Road,Crowville,LA
392,30.51840658,-90.45965455,Crystal Academy,411 Crystal Street,Hammond,LA
393,32.44528364,-93.65065095,Curtis Elementary School,5600 Barksdale Boulevard,Bossier City,LA
394,29.53401291,-90.33815909,Cut Off Elementary School,177 West 55th Street,Cut Off,LA
395,30.27561138,-89.71846311,Cypress Cove Elementary School,540 South Military Road,Slidell,LA
396,30.35900988,-91.02485514,Cypress Heights Academy (C),10420 Barringer Foreman Road,Baton Rouge,LA
397,32.54039374,-92.03095338,Cypress Point Elementary School,6701 Mosswood Drive,Monroe,LA
398,32.51848617,-92.66505219,Cypress Springs Elementary School,1040 Saratoga Street,Ruston,LA
399,30.24249961,-93.38066198,D. S. Perkins Elementary School,565 N Crocker Street,Sulphur,LA
400,30.44820723,-90.43135527,D.C. Reeves Elementary School,18026 Sisters Road,Ponchatoula,LA
401,31.29818962,-92.47645796,D.F. Huddle Elementary School,505 Texas Avenue,Alexandria,LA
402,30.47570885,-91.15345434,Dalton Elementary School,3605 Ontario,Baton Rouge,LA
403,30.02521034,-91.80776063,Daspit Road Elementary School,1103 Daspit Road,New Iberia,LA
404,32.90258165,-93.01955047,David Wade Correctional Center,670 Bell Hill Road,Homer,LA
405,29.9278122,-90.11156086,De La Salle Senior High School (C),5300 St. Charles Avenue,New Orleans,LA
406,29.9278122,-90.11156086,De LaSalle Junior High School (C),5300 St.Charles Avenue,New Orleans,LA
407,29.98691155,-90.19976073,Deckbar School,1201 Elise Avenue,Metairie,LA
408,29.95120999,-91.99406042,Delcambre Elementary School,706 Martin Luther King Drive,Delcambre,LA
409,29.94841002,-91.99456041,Delcambre High School,601 West Main Street,Delcambre,LA
410,32.42689651,-91.49705313,Delhi Charter School,6940 Hwy 17,Delhi,LA
411,32.45929667,-91.4923533,Delhi Elementary School,509 Main Street,Delhi,LA
412,32.45869667,-91.4923533,Delhi High School,413 Main Street,Delhi,LA
413,32.46189671,-91.48465332,Delhi Middle School,106 Toombs Street,Delhi,LA
414,30.49750865,-91.16095421,Delmont Elementary School,5300 Douglas Street,Baton Rouge,LA
415,32.76129477,-91.80585386,Delta High School,7661 Mer Rouge/Collinston Road,Mer Rouge,LA
416,30.48700893,-90.9562545,Denham Springs Elementary School,306 North Range Avenue,Denham Springs,LA
417,30.49490888,-90.95625445,Denham Springs Freshman High School,940 Range Avenue NE,Denham Springs,LA
418,30.49630887,-90.95625444,Denham Springs High School,1000 North Range Avenue,Denham Springs,LA
419,30.48890888,-90.94335451,Denham Springs Junior High School,401 Hatchell Lane,Denham Springs,LA
420,30.76840268,-89.88675296,Denhamtown Elementary School,1101 Avenue M,Bogalusa,LA
421,30.451998,-93.42845635,DeQuincy Elementary School,304 McNeese Street,DeQuincy,LA
422,30.45319799,-93.44425629,DeQuincy High School,207 N Overton,DeQuincy,LA
423,30.45079801,-93.45035637,DeQuincy Middle School,1603 W Fourth St,DeQuincy,LA
424,30.85619099,-93.30595237,DeRidder High School,723 O`Neal Street,DeRidder,LA
425,30.85099108,-93.3017524,DeRidder Junior High School,415 Frusha Drive,DeRidder,LA
426,30.48590882,-91.12805431,Desire Street Academy,3852 East Brookstowns Dr.,Baton Rouge,LA
427,32.02218627,-93.71084653,DeSoto Alternative School,2269 Whaley Street,Mansfield,LA
428,32.02218627,-93.71084653,DeSoto Career Academy,2269 Whaley Street,Mansfield,LA
429,29.96511122,-90.38435982,Destrehan High School,1 Wildcat Ln,Destrehan,LA
430,30.56220747,-91.28855489,Devall Middle School,11851 North River Road,Port Allen,LA
431,29.88361233,-90.1177607,Disciples of Christ Preschool and Academy (B),6520 Second Zion Avenue,Marrero,LA
432,30.8034063,-91.20725413,Dixon Correctional Institute,5568 Hwy. 68,Jackson,LA
433,32.07598936,-92.6585514,Dodson High School,305 Jones Street,Dodson,LA
434,30.01031056,-91.80656047,Dodson Street Elementary School,420 Dodson Street,New Iberia,LA
435,30.16829977,-93.2214602,Dolby Elementary School,817 Jefferson Drive,Lake Charles,LA
436,30.0974121,-91.00095715,Donaldsonville High School,100 Tiger Drive,Donaldsonville,LA
437,30.0806121,-90.96295738,Donaldsonville Primary School,38210 Hwy 3089,Donaldsonville,LA
438,32.60908391,-93.87455323,Donnie Bickham Middle School,7240 Old Mooringsport Road,Shreveport,LA
439,30.17721147,-91.16475631,Dorseyville Elementary School,31505 Hwy. 1 South,White Castle,LA
440,32.5644894,-92.39365291,Downsville High School,4787 Highway 151,Downsville,LA
441,30.50020814,-90.75305471,Doyle Elementary School,29285 South Range Road,Livingston,LA
442,30.50100809,-90.74435471,Doyle High School,20480 Circle Drive,Livingston,LA
443,32.53558334,-93.41205025,Doyline High School,804 College St.,Doyline,LA
444,29.96520942,-92.04816047,Dozier Elementary School,12725 North Road,Erath,LA
445,29.96621243,-90.03696123,Dr. Charles Richard Drew Elementary School,3819 St. Claude Avenue,New Orleans,LA
446,29.94291224,-90.09146097,Dr. M.L.K. Charter School for Science & Tech.,2503 Willow Street,New Orleans,LA
447,29.96641454,-90.01394932,Dr. M.L.K. Elem. School for Science & Tech.,1617 Caffin Avenue,New Orleans,LA
448,32.54219162,-92.23755323,Drew Elementary School,1132 Highway 15,West Monroe,LA
449,31.5787894,-92.52965532,Dry Prong Junior High School,800 Grove Street,Dry Prong,LA
450,30.4456092,-90.95575475,DSM Kindergarten,8091 Vincent Road,Denham Springs,LA
451,32.69338498,-92.65185193,Dubach High School,7710 Fellowship Rd,Dubach,LA
452,30.44540906,-91.16915449,Dufrocq Montessori School,330 South 19th St,Baton Rouge,LA
453,29.49031455,-90.74825895,Dularge Elementary School,1327 Bayou Dularge Road,Theriot,LA
454,29.53071426,-90.7291589,Dularge Middle School,Box 61 Bayou Dularge Road,Houma,LA
455,30.26911042,-90.96985578,Duplessis Primary School,38101 Hwy 621,Gonzales,LA
456,30.23860387,-92.18156169,Duson Elementary School,301 Fourth Street,Duson,LA
457,30.2635105,-90.98885575,Dutchtown High School,13165 Hwy 73,Geismar,LA
458,30.26241051,-90.98895576,Dutchtown Middle School,13078 Hwy 73,Geismar,LA
459,30.26221051,-90.98895576,Dutchtown Primary School,13046 Hwy 73,Geismar,LA
460,29.90561275,-89.99866117,Dwight D. Eisenhower Elementary School,3700 Tall Pines Drive,New Orleans,LA
461,30.49270667,-90.09715623,E. E. Lyon Elementary School,1615 North Florida Street,Covington,LA
462,30.24189963,-93.36166176,E. K. Key Elementary School,1201 E Burton Street,Sulphur,LA
463,32.62838295,-93.28304992,E. S. Richardson Elementary School,515 W Todd,Minden,LA
464,32.4913833,-93.72065158,E.B. Williams Stoner Hill Elem Lab School,2127 C. E. Galloway Boulevard,Shreveport,LA
465,29.79391327,-90.81085892,E.D. White Catholic High School (C),555 Cardinal Drive,Thibodaux,LA
466,30.26271062,-91.21685541,E.J. Gay Middle School,57955 St. Louis Rd.,Plaquemine,LA
467,30.12200878,-91.83256171,Early Learning Center,307 Church Street,St. Martinville,LA
468,30.22571064,-90.91555628,East Ascension High School,612 E Worthey Road,Gonzales,LA
469,30.75569326,-93.02315373,East Beauregard Elementary School,5368 Highway 113,DeRidder,LA
470,30.75569326,-93.02315373,East Beauregard High School,5364 Highway 113,DeRidder,LA
471,30.50219738,-92.40116139,East Elementary School,550 Mathilda Ave.,Eunice,LA
472,30.86230603,-91.01195391,East Feliciana Parish Enrichment Academy,12752 Silliman Street,Clinton,LA
473,29.57261397,-90.72775895,East Houma Elementary School,222 Connely Street,Houma,LA
474,30.2734105,-91.11935549,East Iberville Elementary/High School,3285 Highway 75,St. Gabriel,LA
475,29.97761169,-90.18076077,East Jefferson High School,400 Phlox Street,Metairie,LA
476,31.1524903,-93.2619513,East Leesville Elementary School,203 Belview Road,Leesville,LA
477,31.76739388,-93.09084846,East Natchitoches Elementary and Middle School,1001 East Fifth Street,Natchitoches,LA
478,32.78069508,-91.90285406,East Side Elementary School,115 McCreight Street,Bastrop,LA
479,30.07311054,-90.52235846,East St. John Elementary School,400 Ory Drive,LaPlace,LA
480,30.07881053,-90.53105839,East St. John High School,1 Wildcat Drive,Reserve,LA
481,29.59251365,-90.68925899,East Street School,609 East Street,Houma,LA
482,29.79231331,-90.81395892,East Thibodaux Middle School,802 East Seventh Street,Thibodaux,LA
483,30.83520616,-91.13955409,Eastern LA Mental Health Sys/Jackson,Hwy. 10,Jackson,LA
484,30.57830844,-90.99425412,Eastern LA Mental Health/Greenwell Sprgs,23260 Greenwell Springs Rd.,Greenwell Springs,LA
485,30.83520616,-91.13955409,Eastern LA Mental System Forensic Div/Jackson,Hwy. 10,Jackson,LA
486,30.49910872,-90.91825448,Eastside Elementary School,9735 Lockhart Road,Denham Springs,LA
487,29.96140876,-92.1415603,Eaton Park Elementary School,1502 Sylvester Street,Abbeville,LA
488,31.62898608,-93.75444534,Ebarb School,5340 Hwy. 482,Noble,LA
489,29.92491215,-90.12486081,Ecole Bilingue de la Nouvelle-Orleans,938 Calhoun Street,New Orleans,LA
490,30.01511133,-90.20246056,Ecole Classique,5236 Glendale Street,Metairie,LA
491,32.43078347,-93.74315143,Eden Gardens Fundamental Elementary School,626 Eden Boulevard,Shreveport,LA
492,30.46310894,-91.1552544,Eden Park Elementary School,1650 N Acad Thwy E,Baton Rouge,LA
493,30.17670601,-92.065162,Edgar Martin Middle School,401 Broadmoor Boulevard,Lafayette,LA
494,30.03961199,-89.99926103,Edgelake Preparatory Academy,7945 Edgelake Court,New Orleans,LA
495,29.92081269,-90.00446119,Edna Karr Secondary School,3332 Huntlee Drive,New Orleans,LA
496,29.86291323,-91.57205803,Edward Boudreaux Middle School,18333 Hwy 182 West,Baldwin,LA
497,29.94381204,-90.13306084,Edward Hynes Charter School,719 South Carrollton Avenue,New Orleans,LA
498,30.2367011,-92.50575988,Egan Elementary School,2166 Egan Highway,Egan,LA
499,32.43058345,-93.75025147,Eighty-first Street ECE Center,8108 Fairfield Avenue,Shreveport,LA
500,30.03961259,-89.92406223,Einstein Charter School,5100 Cannes Street,New Orleans,LA
501,30.25921059,-91.06855564,Elayn Hunt Correctional Center,6925 Hwy. 74,St. Gabriel,LA
502,29.94241215,-90.1117609,Eleanor McMain Secondary School,5712 South Claiborne Avenue,New Orleans,LA
503,29.97636141,-90.03397528,Elementary District Learning Center,3811 North Galvez Street,New Orleans,LA
504,30.8656928,-92.79205523,Elizabeth High School,440 Live Oak Street,Elizabeth,LA
505,29.88991244,-90.08526082,Ella C. Pittman Elementary School,3800 Thirteenth Street,Harvey,LA
506,29.97601179,-90.16046084,Ella Dolhonde Elementary School,219 Severn Avenue,Metairie,LA
507,29.56231378,-90.67705895,Ellender Memorial High School,3012 Patriot Drive,Houma,LA
508,29.83891251,-90.11066059,Ellender Middle School,4501 East Ames Boulevard,Marrero,LA
509,32.35318448,-93.55674976,Elm Grove Middle School,1541 Old Highway 71,Elm Grove,LA
510,30.48509631,-92.70525808,Elton Elementary School,614 Powell Road,Elton,LA
511,30.4791964,-92.69355822,Elton High School,903 Second Street,Elton,LA
512,29.5746138,-90.69675896,Elysian Fields Middle School,700 Hibernia Place,Houma,LA
513,30.50970663,-90.46005467,Emmanuel SDA School,702 North Cherry Street,Hammond,LA
514,30.75700481,-90.26335126,Enon Elementary School,14058 Highway 16,Franklinton,LA
515,30.01641241,-89.9863615,Ephesus Adventist Junior Academy,4500 Gawain Drive,New Orleans,LA
516,30.00961046,-91.82176049,Epiphany Day School (E),303 West Main Street,New Iberia,LA
517,30.42340943,-91.03665476,Episcopal High School,3200 Woodland Ridge Blvd.,Baton Rouge,LA
518,30.0867087,-91.90866143,Episcopal School of Acadiana/Alternative,1557 Smede Road,Broussard,LA
519,32.60429721,-91.45385355,Epps High School,4044 Circle Drive,Epps,LA
520,29.95260966,-92.03566039,Erath High School,808 South Broadway,Erath,LA
521,29.95270966,-92.03566039,Erath Middle School,800 South Broadway,Erath,LA
522,30.10930752,-92.01566169,Ernest Gallet Elementary School,2901 E Milton Ave,Youngsville,LA
523,30.01743933,-89.99432437,"Ernest N. ""Dutch"" Morial School",7701 Grant Street,New Orleans,LA
524,29.85271247,-90.10976063,Estelle Elementary School,2800 Barataria Boulevard,Marrero,LA
525,30.18740247,-92.46436004,Estherwood Elementary School,214 Jefferson Avenue,Estherwood,LA
526,30.24889931,-93.19726012,Eternity Christian Academy & Learning Inst.,933 N Shattuck Street,Lake Charles,LA
527,29.97311119,-90.37795986,Ethel Schoeffner Elementary School,140 Plantation Road,Destrehan,LA
528,30.49079735,-92.42536108,Eunice Career & Technical Education Center,421 South 10th Street,Eunice,LA
529,30.49129735,-92.42436109,Eunice Elementary School,451 South 9th Street,Eunice,LA
530,30.4909972,-92.4409609,Eunice High School,301 Bobcat Drive,Eunice,LA
531,30.49049738,-92.42256111,Eunice Junior High School,751 West Oak Street,Eunice,LA
532,32.43598291,-93.87425212,Evangel Christian Academy (AG),7425 Broadacres Road,Shreveport,LA
533,30.69629411,-92.35466204,Evangeline Central School,4587 Vidrine Highway,Ville Platte,LA
534,30.26559996,-92.56975955,Evangeline Elementary School,1448 Old Evangeline Highway,Evangeline,LA
535,30.28690473,-92.00936326,Evangeline Elementary School,610 East Butcher Switch Road,Lafayette,LA
536,30.98358774,-93.50235105,Evans High School,Highway 111,Evans,LA
537,29.65791366,-90.76865904,Evergreen Junior High School,5000 West Main Street,Houma,LA
538,31.29538959,-92.44755814,Ewell S. Aiken Optional School,1323 Vance Avenue,Alexandria,LA
539,30.06351207,-89.95066153,Excel Academy,7570 Anne Marie Ct.,New Orleans,LA
540,32.35649248,-92.1088522,Excelsior Preparatory Boys School,3220 Hwy. 165,Monroe,LA
541,30.17599974,-93.20586,F. K. White Middle School,1000 E McNeese,Lake Charles,LA
542,30.00460011,-90.07090617,F.W. Gregory Junior High School,1700 Pratt Drive,New Orleans,LA
543,32.47848316,-93.79025192,Fair Park High School,3222 Greenwood Road,Shreveport,LA
544,32.44928339,-93.75015155,Fairfield Magnet School,6215 Fairfield Avenue,Shreveport,LA
545,30.18289968,-93.17975968,Fairview Elementary School,3955 Gerstner Mem. Drive,Lake Charles,LA
546,30.8078931,-92.94135417,Fairview High School,4239 Highway 377,Grant,LA
547,31.93819111,-93.15214854,Fairview-Alpha Elementary & Junior High School,1439 Highway 71,Campti,LA
548,30.21931064,-90.89165641,Faith Academy,10469 Airline Highway,Gonzales,LA
549,29.88981233,-90.11216074,Faith Academy,6216 Sixth Avenue,Marrero,LA
550,29.93821173,-90.20576057,Faith Lutheran School,300 Colonial Club Drive,Harahan,LA
551,30.68700621,-91.45305577,False River Academy,201 Major Parkway,New Roads,LA
552,30.38390965,-91.09465491,Family Christian Academy,8919 World Ministry Ave. Bldg. 92,Baton Rouge,LA
553,30.56579878,-92.07926513,Family Worship Christian Academy,386 Compress Road,Opelousas,LA
554,30.03188454,-89.94288501,Fannie C. Williams Middle School,11755 Dwyer Boulevard,New Orleans,LA
555,32.81619079,-92.3567527,Farmerville Elementary School,7195 Highway 33,Farmerville,LA
556,32.77798973,-92.40735254,Farmerville High School,300 Anthony Street,Farmerville,LA
557,32.7792897,-92.40855252,Farmerville Junior High School,606 Bernice Street,Farmerville,LA
558,30.86600598,-91.01785393,Felicianas Alternative School,11325 Liberty Street,Clinton,LA
559,31.61788921,-92.20545522,Fellowship Elementary School,1650 Hwy. 773,Trout,LA
560,30.36539717,-92.92065796,Fenton Elementary School,509 First Street,Fenton,LA
561,31.63709645,-91.55455172,Ferriday High School,801 E. E. Wallace Boulevard,Ferriday,LA
562,31.62989644,-91.56075174,Ferriday Junior High School,201 Martin Luther King,Ferriday,LA
563,31.63859658,-91.54605173,Ferriday Lower Elementary School,110 Bateman Drive,Ferriday,LA
564,31.63049643,-91.56075174,Ferriday Upper Elementary School,151 Martin Luther King,Ferriday,LA
565,30.05111069,-90.53165864,Fifth Ward Elementary School,158 Panther Drive,Reserve,LA
566,30.04651212,-90.89905778,Fifth Ward Elementary School,8184 Villavaso Street,St. James,LA
567,30.61290502,-89.9273554,Fifth Ward Junior High School,81419 Highway 21,Bush,LA
568,30.22150571,-92.0198626,First Baptist Christian School,201 West Convent,Lafayette,LA
569,30.2469116,-89.7943624,First Baptist Christian School,4141 Pontchartrain Dr.,Slidell,LA
570,32.46988335,-93.73875158,First Baptist Church School,533 Ockley Drive,Shreveport,LA
571,30.18140584,-92.07616198,Fisher Early Childhood Development Center,230 Ridge Road,Lafayette,LA
572,29.73701282,-90.1254602,Fisher Middle/High School,2529 Jean Lafitte Boulevard,Lafitte,LA
573,32.95189796,-91.44925375,Fiske Union School,11670 Hwy 585,Oak Grove,LA
574,29.96767815,-90.09291205,Fisk-Howard Elementary School,211 South Lopez Street,New Orleans,LA
575,29.95310018,-90.09676199,Florence J. Chester Elementary School,3929 Erato Street,New Orleans,LA
576,30.28281112,-89.77776209,Florida Avenue Elementary School,342 Florida Avenue,Slidell,LA
577,30.49290669,-90.15195585,Florida Parishes Juvenile Detention Cntr.,28528 Highway 190,Covington,LA
578,31.43848931,-93.45904787,Florien Elementary School,504 Schoolhouse Drive,Florien,LA
579,31.43858932,-93.45904787,Florien High School,500 Highschool Drive,Florien,LA
580,30.63680544,-90.19035345,Folsom Elementary School,82144 Highway 25,Folsom,LA
581,30.63770549,-90.20715333,Folsom Junior High School,83055 Hay Hollow Road,Folsom,LA
582,30.40670751,-90.04135721,Fontainebleau High School,100 Bulldog Drive,Mandeville,LA
583,30.40500752,-90.04145722,Fontainebleau Junior High School,100 Hurricane Alley,Mandeville,LA
584,32.26278271,-93.93385092,Forcht Wade Correctional Center,7990 Caddo Drive,Keithville,LA
585,30.51420864,-91.11465422,Forest Heights Elementary School,7447 Sumrall Drive,Baton Rouge,LA
586,31.04689083,-92.53145875,Forest Hill Elementary School,15 Hwy 497,Forest Hill,LA
587,32.39418338,-93.79005148,Forest Hill Elementary School,2005 Francais Drive,Shreveport,LA
588,32.79159794,-91.41105371,Forest School,158 Clover Street,Forest,LA
589,29.86810833,-92.27015922,Forked Island/E. Broussard Elem School,19635 Columbus Road,Abbeville,LA
590,32.04149366,-91.81635092,Fort Necessity School,10630 Highway 562,Fort Necessity,LA
591,30.05728,-89.9693733,Frances Gaudet Elementary School,12000 Hayne Boulevard,New Orleans,LA
592,32.15889486,-91.70525156,Franklin Academy,2110 Loop Road,Winnsboro,LA
593,32.16339494,-91.68805164,Franklin Alternative School,5915 Highway 4,Winnsboro,LA
594,29.78591423,-91.5044583,Franklin Junior High School,525 Morris Street,Franklin,LA
595,32.14989474,-91.72905148,Franklin Parish High School,1600 Glover Drive,Winnsboro,LA
596,29.80321407,-91.50215811,Franklin Senior High School,1401 Cynthia Street,Franklin,LA
597,30.84760361,-90.15834991,Franklinton Elementary School,902 Cleveland Street,Franklinton,LA
598,30.85880332,-90.12594987,Franklinton High School,1 Demon Circle,Franklinton,LA
599,30.8510036,-90.15964983,Franklinton Junior High School,617 Main Street,Franklinton,LA
600,30.85440347,-90.14464985,Franklinton Primary School,610 T.W. Barker Drive,Franklinton,LA
601,30.23419962,-93.37726194,Frasch Elementary School,540 S Huntington,Sulphur,LA
602,29.96591243,-90.03696123,Fredrick A. Douglass High School,3820 St. Claude Avenue,New Orleans,LA
603,30.30360977,-90.80045609,French Settlement Elementary School,15810 LA Highway 16,French Settlement,LA
604,30.30490976,-90.80135608,French Settlement High School,15875 LA Highway 16,French Settlement,LA
605,30.50220878,-90.94175443,Freshwater Elementary School,1025 Cockerham Road,Denham Springs,LA
606,30.39840889,-90.74535551,Frost School,19672 LA Highway 42,Livingston,LA
607,29.99342435,-90.03787932,G. W. Carver High School,3059 Higgins Boulevard,New Orleans,LA
608,30.2446105,-90.9252561,G. W. Carver Primary School,518 West Oak St.,Gonzales,LA
609,30.01121113,-90.25426042,G.T. Woods Elementary School,1037 31st Street,Kenner,LA
610,29.83491359,-91.54735804,G.W. Hamilton Elementary School,105 Hatcherson,Baldwin,LA
611,30.37620977,-91.01775505,Gables Academy,15333 Jefferson Highway,Baton Rouge,LA
612,29.44221291,-90.30205888,Galliano Elementary School,148 W. 158TH Street,Galliano,LA
613,30.31390995,-90.90435571,Galvez Middle School,42018 Hwy 933,Prairieville,LA
614,30.30700996,-90.88465581,Galvez Primary School,16093 Henderson Bayou Road,Prairieville,LA
615,30.04851101,-90.6252584,Garyville/Mt. Airy Math & Science Magnet Schl.,240 Hwy 54,Garyville,LA
616,31.02589039,-93.26965277,Gates School,15112 Lake Charles Hwy.,Leesville,LA
617,30.00713317,-90.05249421,Gentilly Terrace Elementary School,4720 Painters Street,New Orleans,LA
618,29.90061256,-90.04726098,George Cox Elementary School,2630 Belle Chasse Highway,Gretna,LA
619,31.76889386,-93.10504835,George L. Parks Elementary and Middle School,800 Koonce Street,Natchitoches,LA
620,29.97441114,-90.41235969,George Washington Carver Early Learning Center,337 Gum Street,Hahnville,LA
621,32.54019198,-92.20145325,George Welch Elementary School,199 Caldwell Road,West Monroe,LA
622,31.7605891,-92.38255413,Georgetown High School,4528 Highway 500,Georgetown,LA
623,29.88821271,-90.01956103,Geraldine Boudreaux Elementary School,950 Behrman Highway,Terrytown,LA
624,30.22290581,-92.00716269,Gethsemane Christian Academy,317 Twelfth Street,Lafayette,LA
625,32.53708276,-93.06145033,Gibsland-Coleman High School,10th Street,Gibsland,LA
626,29.68591571,-90.98795894,Gibson Elementary School,6357 S. Bayou Black Drive,Gibson,LA
627,32.04919462,-91.66155113,Gilbert School,174 First Street,Gilbert,LA
628,30.37359831,-93.19505798,Gillis Elementary School,916 Topsy Road,Lake Charles,LA
629,30.4088094,-91.14365471,Glasgow Middle School,1676 Glasgow Ave,Baton Rouge,LA
630,30.51570857,-91.1380542,Glen Oaks Middle School,5300 Monarch Street,Baton Rouge,LA
631,30.50370873,-91.10775424,Glen Oaks Park Elementary School,5656 Lanier Drive,Baton Rouge,LA
632,30.51230863,-91.12175422,Glen Oaks Senior High School,6650 Cedar Grove Dr,Baton Rouge,LA
633,32.55068597,-92.65875216,Glen View Elementary School,1601 Bittersweet,Ruston,LA
634,32.64198303,-93.29444994,Glenbrook School,1674 Country Club Circle,Minden,LA
635,30.50319715,-92.42446112,Glendale Elementary School,900 West Dean Street,Eunice,LA
636,30.97629141,-92.5778583,Glenmora Elementary School,1518 7th Avenue,Glenmora,LA
637,30.96829151,-92.5853582,Glenmora High School,1414 7th Street,Glenmora,LA
638,30.27171127,-89.78416218,Glynn H. Brock Elementary School,259 Brakefield Street,Slidell,LA
639,30.48880883,-91.11375431,God's Way Christian Academy (B),7513 Prescott Road,Baton Rouge,LA
640,29.40911289,-90.27725885,Golden Meadow Lower Elementary School,118 Alcide Street,Golden Meadow,LA
641,29.38831288,-90.26385884,Golden Meadow Middle School,630 South Bayou Drive,Golden Meadow,LA
642,29.40531289,-90.27635885,Golden Meadow Upper Elementary School,124 North Third Street,Golden Meadow,LA
643,32.01949013,-92.90975074,Goldonna Elementary and Junior High School,248 Ash Street,Goldonna,LA
644,30.21831076,-90.93735627,Gonzales Middle School,1502 West Orice Roth Street,Gonzales,LA
645,30.23581057,-90.92075618,Gonzales Primary School,521 North Burnside Avenue,Gonzales,LA
646,32.54149232,-92.16935328,Good Hope Middle School,400 Good Hope Road,West Monroe,LA
647,30.53560086,-91.961365,Good Shepherd Montessori School,483 Cheramie Road,Port Barre,LA
648,29.9515123,-90.07266106,Good Shepherd Nativity Mission School (C),353 Baronne St.,New Orleans,LA
649,31.69198939,-92.1513537,Goodpine Middle School,12642 Hwy 84 West,Jena,LA
650,32.78359672,-91.54825352,Goodwill Elementary School,1638 Hwy 2,Oak Grove,LA
651,30.72840571,-90.55575197,Gordon-Richardson Christian Academy,10390 Highway 1045,Amite,LA
652,32.49268327,-93.74055169,Grace Christian Academy/Alternative,520 Olive St.,Shreveport,LA
653,31.27488971,-92.48235811,Grace Christian School (P),4900 Jackson Street,Alexandria,LA
654,32.51489264,-92.12435324,Grace Episcopal School,1400 North Fourth Street,Monroe,LA
655,30.01361152,-90.16746071,Grace King High School,4301 Grace King Place,Metairie,LA
656,32.52148568,-92.71335202,Grambling State Univ. Laboratory High School,407 Central,Grambling,LA
657,32.52148568,-92.71335202,Grambling State University Middle School,407 South Central,Grambling,LA
658,30.0506112,-90.6897582,Gramercy Elementary School,601 E Second Street,Gramercy,LA
659,29.36751395,-90.72105974,Grand Caillou Elementary School,6741 Grand Caillou Road,Dulac,LA
660,29.49921417,-90.67955887,Grand Caillou Middle School,3933 Grand Caillou Road,Houma,LA
661,30.42130208,-92.04556423,Grand Coteau Elementary School,238 Church Street,Grand Coteau,LA
662,29.23301163,-89.9978587,Grand Isle High School,149 Ludwig Lane,Grand Isle,LA
663,30.01610086,-93.18775909,Grand Lake High School,1039 Hwy 384 Grand Lake,Lake Charles,LA
664,29.92071189,-91.75055972,Grand Marais Elementary School,3319 College Road,Jeanerette,LA
665,30.68619525,-92.14776501,Grand Prairie Elementary School,669 Hwy. 363,Washington,LA
666,31.74358978,-92.57415388,Grant Academy,17771 Highway 167,Dry Prong,LA
667,31.74368978,-92.57415388,Grant High School,17779 Highway 167,Dry Prong,LA
668,30.39590937,-90.89905519,Gray's Creek Elementary School,11400 La Hwy 1033,Denham Springs,LA
669,31.99209131,-92.08215109,Grayson Elementary School,5237 Highway 126 East,Grayson,LA
670,30.4786089,-91.11755436,Greater Mt. Olive Christian Academy (B),3155 Victoria Dr.,Baton Rouge,LA
671,32.5541835,-93.81425241,Green Oaks High School,2550 Thomas E. Howard Drive,Shreveport,LA
672,29.99161142,-90.22176066,Green Park Elementary School,1409 North Upland Street,Metairie,LA
673,30.09580788,-91.99756162,Green T. Lindon Elementary School,603 Avenue B,Youngsville,LA
674,32.54128358,-93.70825161,Greenacres Middle School,2220 Airline Drive,Bossier City,LA
675,30.49480892,-91.04935434,Greenbrier Elementary School,12203 Canterbury Dr.,Baton Rouge,LA
676,30.02561102,-90.24466027,Greenlawn Terrace Elementary School,1500 38th Street,Kenner,LA
677,30.46370897,-91.13965442,Greenville Elementary School,1645 North Foster Dr,Baton Rouge,LA
678,29.63341543,-90.94065904,Greenwood Middle School,5001 Bayou Black Drive,Houma,LA
679,29.89541256,-90.05076095,Gretna Middle School,910 Gretna Boulevard,Gretna,LA
680,29.91561247,-90.05886099,Gretna No. 2 Academy for Advanced Studies,701 Amelia Street,Gretna,LA
681,30.53839929,-92.09906473,Grolee Elementary School,1540 West Grolee Street,Opelousas,LA
682,30.02590556,-92.50435965,Gueydan High School,901 Main Street,Gueydan,LA
683,29.67481365,-90.77825905,H. L. Bourgeois High School,1 Reservation Court,Gray,LA
684,30.01898845,-89.97571264,H.C. Schaumburg Elementary School,9501 Grant Street,New Orleans,LA
685,29.98279965,-93.37396192,Hackberry High School,1390 School Street,Hackberry,LA
686,31.27858962,-92.42945838,Hadnot-Hayes Elementary School,4020 Aaron Street,Alexandria,LA
687,29.88861157,-90.40745967,Hahnville High School,200 Tiger Drive,Boutte,LA
688,30.21779951,-93.20106005,Hamilton Christian Academy,1415 Eighth Street,Lake Charles,LA
689,32.50338326,-93.74495176,Hamilton Terrace Learning Center,1105 Louisiana Avenue,Shreveport,LA
690,30.51710697,-90.56495452,Hammond Developmental Center,45439 Live Oak,Hammond,LA
691,30.51320659,-90.38115473,Hammond Eastside Primary School,45050 River Road,Hammond,LA
692,30.51310659,-90.38115473,Hammond Eastside Upper Elementary School,45046 River Road,Hammond,LA
693,30.51500658,-90.38115471,Hammond High School,45168 River Road,Hammond,LA
694,30.49870671,-90.46985479,Hammond Junior High School,111 JW Davis Drive,Hammond,LA
695,30.48280688,-90.4827549,Hammond Westside Primary School,2500 Westpark Avenue,Hammond,LA
696,30.48280689,-90.48635489,Hammond Westside Upper Elementary School,2600 Westpark Avenue,Hammond,LA
697,29.79511413,-91.50735821,Hanson Memorial School (C),903 Anderson Street,Franklin,LA
698,29.93761178,-90.19596061,Harahan Elementary School,6723 Jefferson Highway,Harahan,LA
699,29.94295424,-90.09144297,Harney Elementary School,2503 Willow Street,New Orleans,LA
700,30.02081126,-90.20506048,Harold Keller Elementary School,5301 Irving Street,Metairie,LA
701,29.94481248,-90.03676116,Harriet Tubman Elementary School,2013 General Meyer Avenue,New Orleans,LA
702,31.76379214,-91.83365058,Harrisonburg Elementary School,505 Bushley Street,Harrisonburg,LA
703,31.77169233,-91.82205053,Harrisonburg High School,800 Bushley Street,Harrisonburg,LA
704,29.9512113,-90.37245987,Harry M. Hurst Middle School,170 Road Runner Lane,Destrehan,LA
705,29.86141245,-90.10636067,Harry S. Truman Middle School,5417 Ehret Road,Marrero,LA
706,29.98141221,-90.07326116,Harvest Christian Academy,1730 N Broad St. Apt. C,New Orleans,LA
707,29.90311239,-90.08626086,Harvey Kindergarten Center,3400 Sixth Street,Harvey,LA
708,30.35009799,-92.67295875,Hathaway High School,4040 Pine Island Highway,Jennings,LA
709,29.69561578,-91.30635851,Hattie A. Watts Elementary School,1307 Third Street,Patterson,LA
710,32.5334837,-93.49965043,Haughton High School,210 East McKinley Street,Haughton,LA
711,32.52758367,-93.51535052,Haughton Middle School,395 South Elm Street,Haughton,LA
712,31.3664893,-92.18965816,Hayden R. Lawrence Middle School,646 Highway 1207,Deville,LA
713,29.98731186,-90.13896095,Haynes Middle School for Advanced Studies,1416 Metairie Road,Metairie,LA
714,32.90878231,-93.08855044,Haynesville Elementary School,9777 Highway 79,Haynesville,LA
715,32.91198236,-93.09275044,Haynesville Jr./Sr. High School,9930 Highway 79,Haynesville,LA
716,29.94431167,-90.21306057,Hazel Park/Hilda Knoff School,8809 Jefferson Highway,River Ridge,LA
717,29.87321261,-90.05516086,Helen Cox High School,2200 Lapalco Boulevard,Harvey,LA
718,29.99337035,-90.03815632,Helen S. Edwards Elementary School,3039 Higgins Boulevard,New Orleans,LA
719,29.90181189,-90.20616047,Henry Ford Middle School,435 South Jamie Boulevard,Avondale,LA
720,30.19159966,-93.20596004,Henry Heights Elementary School,3600 Louisiana Avenue,Lake Charles,LA
721,32.78469518,-91.93635413,Henry V. Adams Elementary School,804 Kammell Street,Bastrop,LA
722,29.93295617,-90.11418786,Henry W. Allen Elementary School,5625 Loyola Avenue,New Orleans,LA
723,30.00281139,-90.21466068,Heritage Academy,2900 Wytchwood Drive,Metairie,LA
724,32.80338559,-93.86985444,Herndon Magnet School,11845 Gamm Road,Belcher,LA
725,31.18059264,-92.98075221,Hicks High School,1296 Hicks School Road,Leesville,LA
726,32.74508295,-92.72945162,Hico Elementary School,2253 Hwy. 545,Dubach,LA
727,29.96957623,-90.07546311,High School District Learning Center,1010 North Galvez Street,New Orleans,LA
728,30.0101106,-91.80026045,Highland Baptist Christian School,708 Angers Street,New Iberia,LA
729,30.39080954,-91.1508548,Highland Elementary School,280 Sunset Blvd,Baton Rouge,LA
730,30.49099759,-92.39886138,Highland Elementary School,1341 Duck Avenue,Eunice,LA
731,32.52429233,-92.15895324,Highland Elementary School,1501 Wellerman Road,West Monroe,LA
732,32.55458618,-92.63805222,Hillcrest Elementary School,301 East Kentucky Avenue,Ruston,LA
733,32.47318305,-93.8244521,Hillsdale Elementary School,3860 Hutchinson Street,Shreveport,LA
734,30.50500764,-90.66985467,Holden High School,30120 Hwy 441,Holden,LA
735,32.46839628,-91.62775317,Holly Ridge Elementary School,2306 Hwy. 183,Rayville,LA
736,29.71271608,-91.20775872,Holy Cross Elementary School (C),2100 Cedar Street  Unit 2,Morgan City,LA
737,29.9596125,-90.02416126,Holy Cross Junior High School (Boys) (C),4950 Dauphine Street,New Orleans,LA
738,29.9596125,-90.02416126,Holy Cross Senior High School (Boys) (C),4950 Dauphine Street,New Orleans,LA
739,30.23220551,-92.02286267,Holy Family Catholic School (C),200 St. John Street,Lafayette,LA
740,30.45480892,-91.2055544,Holy Family School (C),335 North Jefferson Avenue,Port Allen,LA
741,29.93271227,-90.09206094,Holy Ghost Elementary School (C),2035 Toledano Street,New Orleans,LA
742,30.50770664,-90.46335469,Holy Ghost School (C),507 North Oak Street,Hammond,LA
743,29.93581213,-90.11946086,Holy Name of Jesus School (C),6325 Cromwell Place,New Orleans,LA
744,29.95081241,-90.04986114,Holy Name of Mary School (C),502 Olivier Street,New Orleans,LA
745,29.98151214,-90.08626111,Holy Rosary Academy  (C),3368 Esplanade Ave.,New Orleans,LA
746,29.98151214,-90.08626111,Holy Rosary High School,3368 Esplanade Avenue,New Orleans,LA
747,29.50871298,-90.32965902,Holy Rosary School (C),12925 East Main,Larose,LA
748,31.29538965,-92.49465789,Holy Savior Menard Central High School (C),4603 Coliseum Boulevard,Alexandria,LA
749,29.64351272,-90.53735913,Holy Savior School (C),201 Church Street,Lockport,LA
750,29.90801242,-90.07436092,Homedale School,500 Maple Street,Harvey,LA
751,32.79488166,-93.06745037,Homer Elementary School,624 Bonner Street,Homer,LA
752,32.79198162,-93.06415037,Homer High School,1008 North Main,Homer,LA
753,32.79508167,-93.06805037,Homer Junior High School,612 Bonner Street,Homer,LA
754,29.58941374,-90.70375898,Honduras Elementary School,530 Grand Caillou Road,Houma,LA
755,30.27781134,-89.71856307,Honey Island Elementary School,500 South Military Road,Slidell,LA
756,29.89111238,-90.09956078,Hope Haven Center,1101 Barataria Blvd.,Marrero,LA
757,32.80418349,-93.28835004,Hope Youth Ranch Alternative Center,114 Hope Ranch Rd,Minden,LA
758,30.00501044,-91.83436047,Hopkins Street Elementary School,1200 Hopkins Street,New Iberia,LA
759,31.32578939,-93.39474909,Hornbeck High School,2363 Stillwell Avenue,Hornbeck,LA
760,31.25988973,-92.46345834,Horseshoe Drive Elementary School,2905 Horseshoe Drive,Alexandria,LA
761,30.44270921,-91.09165459,Hosanna Christian Academy (AG),8850 Goodwood Boulevard,Baton Rouge,LA
762,32.88558605,-93.87495518,Hosston Alternative School,14905 Oak Street,Hosston,LA
763,29.58171393,-90.73275896,Houma Christian High School,109 Valhi Blvd.,Houma,LA
764,29.59661387,-90.74105898,Houma Junior High School,315 St. Charles,Houma,LA
765,32.51878642,-92.63865228,Howard School,901 S Vienna,Ruston,LA
766,32.98988572,-93.45775103,Howell Elementary School,1301 4th SE,Springhill,LA
767,30.47930887,-91.12885434,Howell Park Elementary School,6125 Winbourne,Baton Rouge,LA
768,32.44568297,-93.85785211,Huntington High School,6801 Rasberry Lane,Shreveport,LA
769,31.64979613,-91.56395167,Huntington School,300 Lynwood Drive,Ferriday,LA
770,30.45109571,-93.64565627,Hyatt High School,6249 Highway 109,Fields,LA
771,32.51428634,-92.65065225,I.A. Lewis Elementary School,1000 Mitchell Avenue,Ruston,LA
772,29.97261077,-91.83906025,Iberia Middle School,613 Weeks Island Road,New Iberia,LA
773,30.27831048,-91.24275529,Iberville Elementary School,58650 Iron Farm Road,Plaquemine,LA
774,30.28881038,-91.23735524,Iberville Parish Optional Education Center,58060 Plaquemine Street,Plaquemine,LA
775,29.90191235,-90.09686082,Immaculata High School (Girls) (C),537 Avenue D,Marrero,LA
776,30.21979959,-93.21906022,Immaculate Conception Cathedral School (C),1536 Ryan Street,Lake Charles,LA
777,29.90081236,-90.09576082,Immaculate Conception School (C),601 Avenue C,Marrero,LA
778,30.2257058,-92.00356274,Immaculate Heart of Mary School (C),800 Twelfth Street,Lafayette,LA
779,30.63440591,-90.49725304,Independence Elementary School,221 Tiger Avenue,Independence,LA
780,30.6346059,-90.49585304,Independence High School,270 Tiger Avenue,Independence,LA
781,30.63840592,-90.506453,Independence Middle School,300 West Second Street,Independence,LA
782,30.13300524,-92.24246095,Indian Bayou Elementary School,1603 LA Highway 700,Rayne,LA
783,32.51358327,-93.77195195,Ingersoll Elementary School,401 North Holzman Street,Shreveport,LA
784,29.93651234,-90.07296101,International School of Louisiana,1400 Camp Street,New Orleans,LA
785,30.33479937,-92.50076003,Iota Elementary School,470 West Kennedy Street,Iota,LA
786,30.32629958,-92.49326007,Iota High School,456 South Fifth Street,Iota,LA
787,30.32589959,-92.49346007,Iota Middle School,426 South Fifth Street,Iota,LA
788,30.24599794,-93.01695891,Iowa High School,401 Miller Ave,Iowa,LA
789,29.93151218,-90.11206087,Isidore Newman School,1903 Jefferson Avenue,New Orleans,LA
790,29.96275918,-90.08996704,Israel Meyer Augustine Middle School,425 South Broad Street,New Orleans,LA
791,30.47850883,-91.15175432,Istrouma Senior High School,3730 Winbourne,Baton Rouge,LA
792,29.78791418,-91.5116583,J. A. Hernandez Elementary School,1400 Willow Street,Franklin,LA
793,32.60148288,-93.27764993,J. A. Phillips Middle School,811 Durwood Dr,Minden,LA
794,32.63538289,-93.2686499,J. E. Harper Elementary School,618 Germantown Rd,Minden,LA
795,30.23679813,-93.01205867,J. I. Watson Middle School,201 E First St,Iowa,LA
796,30.44450905,-91.18045448,J. K. Haynes Elementary Charter School,356 East Boulevard,Baton Rouge,LA
797,32.6045829,-93.28184994,J. L. Jones Elementary School,620 District Dr,Minden,LA
798,31.3775893,-92.39185776,J. Levy Dabadie Correctional Center,1453 15th Street,Pineville,LA
799,32.50898321,-93.780052,J. S. Clark Middle School,351 Hearne Avenue,Shreveport,LA
800,30.24360497,-92.06006252,J. Wallace James Elementary School,1500 W  Willow St.,Scott,LA
801,29.8777116,-90.42905958,J.B. Martin Middle School,434 South Street,Paradis,LA
802,31.28948966,-92.482858,J.B. Nachman Elementary School,4102 Wakefield Blvd,Alexandria,LA
803,30.00431178,-90.13686094,J.C. Ellis Elementary School,801 Brockenbraugh Court,Metairie,LA
804,30.00881154,-90.17296075,J.D. Meisler Middle School,3700 Cleary Avenue,Metairie,LA
805,29.87045222,-89.88806728,J.F. Gauthier School,2214 Bobolink Dr,Poydras,LA
806,29.97480876,-92.12526044,J.H. Williams Middle School,1105 Prairie Avenue,Abbeville,LA
807,31.3369894,-92.38345814,J.I. Barron Sr. Elementary School,3655 Holloway Road,Pineville,LA
808,30.02081102,-90.27366019,J.J. Audubon Elementary School,200 West Loyola Drive,Kenner,LA
809,29.66431595,-91.10255872,J.S. Aucoin Elementary School,739 Julia Street,Amelia,LA
810,32.50939278,-92.10895323,J.S. Clark Elementary School,1207 Washington Street,Monroe,LA
811,31.31288951,-92.42805811,J.S. Slocum Learning Center,901 Crepe Myrtle Street,Pineville,LA
812,30.24550553,-92.00006294,J.W. Faulk Elementary School,711 East Willow Street,Lafayette,LA
813,32.55829348,-92.06465342,Jack Hayes Elementary School,3631 Old Sterlington Road,Monroe,LA
814,32.54608305,-93.97375366,Jack P. Timmons Elementary School,1410 Greenwood-Mooringsport Road,Shreveport,LA
815,30.83270613,-91.18195416,Jackson Elementary School,3505 Highway 10,Jackson,LA
816,30.83280613,-91.18195416,Jackson High School,3501 Highway 10,Jackson,LA
817,30.83280613,-91.18195416,Jackson Middle School,3503 Highway 10,Jackson,LA
818,30.2500996,-93.38056199,Jake Drost School for Exceptional Children,1100 N Crocker St,Sulphur,LA
819,29.97290889,-92.10946045,James A. Herod Elementary School,120 Odea Street,Abbeville,LA
820,29.93590529,-90.08415197,James M. Singleton Charter Middle School,1924 Philip Street,New Orleans,LA
821,29.9368123,-90.08326098,James M. Singleton Charter School,2220 Oretha Castle Haley Boulevard,New Orleans,LA
822,30.69039432,-92.29396291,James Stephens Montessori School,1500 Martin Luther King,Ville Platte,LA
823,29.95571201,-90.13016088,James Weldon Johnson School,1800 Monroe Street,New Orleans,LA
824,30.01981391,-90.07327798,Jean Gordon School,6101 Chatham Drive,New Orleans,LA
825,29.92331219,-91.67835893,Jeanerette Elementary School,600 Ira Street,Jeanerette,LA
826,29.91501228,-91.67465888,Jeanerette Middle School,609 South Pellerin Street,Jeanerette,LA
827,29.94491186,-91.70365927,Jeanerette Senior High School,8217 East Old Spanish Trail,Jeanerette,LA
828,29.96781182,-90.16116081,Jefferson Community School (Charter School),3528 Monford Street,Jefferson,LA
829,29.9588118,-90.17306074,Jefferson Elementary School,4440 Jefferson Highway,Jefferson,LA
830,30.40190954,-91.07375483,Jefferson Terrace Elementary School,9902 Cal Road,Baton Rouge,LA
831,29.89141244,-90.08336083,Jefferson Wetlands Marine Institute,1149 MacArthur Avenue,Harvey,LA
832,30.464409,-91.11785444,Jehovah-Jireh Christian Academy,1771 North Lobdell Blvd.,Baton Rouge,LA
833,31.68258951,-92.12175353,Jena Elementary School,1941 East Oak Street,Jena,LA
834,31.69198947,-92.12985349,Jena High School,243 East High School Drive,Jena,LA
835,31.69528949,-92.12345338,Jena Junior High School,114 E. Southern Ave.,Jena,LA
836,30.22559993,-92.64475899,Jennings Elementary School,620 Florence Street,Jennings,LA
837,30.24349954,-92.65075907,Jennings High School,2310 N Sherman Street,Jennings,LA
838,30.02280569,-92.50005971,Jesse Owens Elementary School,203 Thirteenth Street,Gueydan,LA
839,30.23879934,-93.19286005,Jessie D. Clifton Elementary School,100 N Prater St,Lake Charles,LA
840,29.97251208,-90.10356103,Jesuit Junior High School (Boys) (C),4133 Banks Street,New Orleans,LA
841,29.97251208,-90.10356103,Jesuit Senior High School (Boys) (C),4133 Banks Street,New Orleans,LA
842,32.5463929,-92.11555334,Jesus Good Shepherd School (C),900 Good Shepherd Lane,Monroe,LA
843,30.87100458,-90.47004986,Jewel M. Sumner High School,15841 Highway 440,Kentwood,LA
844,29.98339831,-90.05105424,John A. Shaw Elementary School,2518 Arts Street,New Orleans,LA
845,29.99581135,-90.23266064,John Clancy Elementary School,2100 Main Street,Kenner,LA
846,29.96271155,-90.22216059,John Curtis Christian School,10125 Jefferson Highway,River Ridge,LA
847,29.98111209,-90.09766107,John Dibert Elementary School,4217 Orleans Avenue,New Orleans,LA
848,29.88281244,-90.09106078,John Ehret High School,4300 Patriot Street,Marrero,LA
849,30.21299943,-93.17615979,John F. Kennedy Elementary School,2001 Russell Street,Lake Charles,LA
850,29.98410912,-90.08959811,John F. Kennedy Senior High School,5700 Wisner Boulevard,New Orleans,LA
851,30.23159942,-93.19826007,John J. Johnson II  Elementary School,1618 Mill Street,Lake Charles,LA
852,30.05941058,-90.50965863,John L. Ory Communications Magnet Elementary,182 West Fifth Street,LaPlace,LA
853,29.97441221,-90.07596113,John McDonogh Senior High School,2426 Esplanade Avenue,New Orleans,LA
854,30.02661118,-90.20966038,John Q. Adams Middle School,5525 Henican Place,Metairie,LA
855,32.54888366,-93.66455137,Johnny Gray Jones Youth Shltr & Detention Cntr,4815 Shed Road,Bossier City,LA
856,29.77039695,-93.42906368,Johnson Bayou High School,6304 Gulf Beach Highway,Cameron,LA
857,30.00401048,-91.82996045,Johnston Street Elementary School,400 Johnston Street,New Iberia,LA
858,32.24688801,-92.71705104,Jonesboro-Hodge High School,225 Pershing Highway,Jonesboro,LA
859,32.23168817,-92.70765108,Jonesboro-Hodge Middle School,440 Old Winnfield Highway,Jonesboro,LA
860,31.62689214,-91.82885198,Jonesville Elementary School,1219 Cora Drive,Jonesville,LA
861,31.62439223,-91.82185196,Jonesville Junior High School,802 E H Johnson Street,Jonesville,LA
862,29.96491228,-90.06886112,Joseph A. Craig School,1423 St. Philip Street,New Orleans,LA
863,29.88921232,-90.11386073,Joseph A. Cuillier Sr. Career Center,1429-B Ames Boulevard,Marrero,LA
864,29.93790909,-89.92337529,Joseph J. Davies Elementary School,4101 Mistrot Drive,Meraux,LA
865,29.96921226,-90.07026113,Joseph S. Clark Senior High School,1301 North Derbigny Street,New Orleans,LA
866,30.00141132,-90.23146064,Joseph S. Maggiore Sr. Elementary School,2504 Maine Avenue,Metairie,LA
867,29.93231193,-90.16706069,Joshua Butler Elementary School,300 Fourth Street,Westwego,LA
868,30.1844052,-92.14176165,Judice Middle School,2645 South Fieldspan Road,Duson,LA
869,32.4885831,-93.79955204,Judson Fundamental Elementary School,3809 Judson Street,Shreveport,LA
870,29.71181608,-91.21395871,Julia B. Maitland School,1907 Federal Avenue,Morgan City,LA
871,29.91761379,-89.98500538,Julius Rosenwald Accelerated School,6501 Berkley Drive,New Orleans,LA
872,29.96171215,-90.09726101,Juvenile Alternative Center,3100 Perdido Street,New Orleans,LA
873,29.52201401,-90.67515889,Juvenile Detention Center Alternative School,3181 Grand Caillou Road,Houma,LA
874,29.94451231,-90.07496103,Juvenile Education & Training,1023 Baronne Street,New Orleans,LA
875,30.85409106,-93.30175241,K.R. Hanchey Elementary School,611 Frusha Drive,DeRidder,LA
876,30.00720726,-92.29886038,Kaplan Elementary School,608 North Eleazar Avenue,Kaplan,LA
877,29.9940076,-92.27106039,Kaplan High School,200 East Pirate Lane,Kaplan,LA
878,29.92651251,-90.04286108,Kate Middleton Elementary School,1407 Virgil Street,Gretna,LA
879,30.14170748,-91.958062,Katharine Drexel Elementary School,409 St. DePorres Avenue,Broussard,LA
880,30.48380676,-90.13085606,Kehoe-France Northshore,25 Patricia Drive,Covington,LA
881,29.98241158,-90.19826072,Kehoe-France School,720 Elise Avenue,Metairie,LA
882,32.30608337,-93.82845108,Keithville Elementary/Middle School,12201 Mansfield Road,Keithville,LA
883,31.97939061,-92.17405132,Kelly Elementary School,3351 Highway 506 West,Kelly,LA
884,30.38190963,-91.13195488,Kenilworth Middle School,7600 Boone Drive,Baton Rouge,LA
885,30.93760436,-90.51414922,Kentwood High School,603 9th Street,Kentwood,LA
886,32.99839905,-91.31935371,Kilbourne High School,229 West La. Avenue,Kilbourne,LA
887,30.4874963,-92.84485731,Kinder Elementary School,412 N 12th Street,Kinder,LA
888,30.48209636,-92.8597573,Kinder High School,145 Hwy 383,Kinder,LA
889,30.4874963,-92.84485731,Kinder Middle School,412 N 12th Street,Kinder,LA
890,29.95031205,-90.12626088,KIPP PHILLIPS Academy,1607 South Carollton Avenue,New Orleans,LA
891,32.53919237,-92.16355328,Kiroli Elementary School,700 Kiroli Road,West Monroe,LA
892,29.8703125,-90.08526076,Knights Academy and High School,2059 Bonn Street,Harvey,LA
893,30.53820409,-91.75546127,Krotz Springs Elementary School,445 Division Street,Krotz Springs,LA
894,29.96501246,-90.03126125,L and T Preparatory Academy (Bywater Campus),1111 Poland Avenue,New Orleans,LA
895,30.23350482,-92.09306223,L. Leo Judice Elementary School,5801 Camern Street,Scott,LA
896,29.94298047,-90.04078214,L.B. Landry High School,1200 L.B. Landry Avenue,New Orleans,LA
897,29.89951238,-90.09256083,L.H. Marrero Middle School,4100 Seventh Street,Marrero,LA
898,30.19300595,-92.04326224,L.J. Alleman Middle School,600 Roselawn Boulevard,Lafayette,LA
899,30.34150817,-90.01545781,L.P. Monteleone Junior High School,63000 Blue Marlin Drive,Mandeville,LA
900,31.77849371,-93.09614846,L.P. Vaughn Elementary and Middle School,1500 Gold Street,Natchitoches,LA
901,31.29518961,-92.46285806,L.S. Rugg Elementary School,1319 Bush Avenue,Alexandria,LA
902,29.88401228,-90.12826067,L.W. Higgins High School,7201 Lapalco Boulevard,Marrero,LA
903,29.85491245,-90.11366063,L.W. Ruppel Elementary School,2820 Mt. Kennedy Drive,Marrero,LA
904,30.41350937,-91.1364547,La Printaniere Montessori,5064 Perkins Road,Baton Rouge,LA
905,29.8429143,-90.95785856,Labadieville Middle School,2747 Highway 1,Labadieville,LA
906,29.84991431,-90.96555853,Labadieville Primary School,3045 Highway 1,Labadieville,LA
907,30.46670912,-91.0463545,LaBelle Aire Elementary School,12255 Tams Drive,Baton Rouge,LA
908,29.45511349,-90.59075884,Lacache Middle School,5266 Hwy. 56,Chauvin,LA
909,30.23589827,-92.92245852,Lacassine High School,409 Algonia Avenue,Lacassine,LA
910,29.93929892,-89.95406789,Lacoste Elementary School,1101 East Judge Perez Dr,Chalmette,LA
911,31.21018955,-92.15155976,Lafargue Elementary School,3366 Highway 107,Effie,LA
912,29.95821207,-90.11766093,Lafayette Academy of New Orleans,2727 South Carrollton Avenue,New Orleans,LA
913,30.21620593,-92.00586264,Lafayette Alternative Program for Students,516 East Pinhook St,Lafayette,LA
914,30.21620593,-92.00586264,Lafayette Charter High School,516 East Pinhook St,Lafayette,LA
915,30.21620593,-92.00586264,Lafayette Charter High School,516 East Pinhook St,Lafayette,LA
916,30.20720559,-92.05676227,Lafayette High School,3000 West Congress Street,Lafayette,LA
917,30.15770642,-92.05396191,Lafayette Lutheran School,301 W Farrel Road,Lafayette,LA
918,30.22460559,-92.02726258,Lafayette Middle School,1301 West University Avenue,Lafayette,LA
919,29.77111379,-90.84605894,Lafourche Parish Juvenile Justice Facility,2525 Veterans Blvd.,Thibodaux,LA
920,29.79221409,-91.52345829,LaGrange Elementary School,2129 Chatsworth Road,Franklin,LA
921,30.19509964,-93.20566004,LaGrange High School,3420 Louisiana Ave,Lake Charles,LA
922,30.01886091,-90.07544498,Lake Area Middle School,6026 Paris Avenue,New Orleans,LA
923,30.08410214,-92.67675775,Lake Arthur Elementary School,500 North Mill Street,Lake Arthur,LA
924,30.09580201,-92.6702579,Lake Arthur High School,4374 Tiger Lane,Lake Arthur,LA
925,30.21979951,-93.20416009,Lake Charles/Boston High School,1509 Enterprise Blvd,Lake Charles,LA
926,30.27631014,-90.87055606,Lake Elementary School,14185 Hwy 431,St. Amant,LA
927,30.057312,-89.9693613,Lake Forest Elementary Charter School,12000 Hayne Boulevard,New Orleans,LA
928,30.38340774,-90.04485735,Lake Harbor Middle School,1700 Viola Street,Mandeville,LA
929,30.08391042,-90.44985863,Lake Pontchartrain Elementary School,3328 Hwy 51,LaPlace,LA
930,32.79619927,-91.18435399,Lake Providence Junior High School,1205 Gould Street,Lake Providence,LA
931,32.80109927,-91.17745397,Lake Providence Senior High School,700 Martin Luther King Drive,Lake Providence,LA
932,30.41150951,-91.04425481,Lake Sherwood School,12158 Coursey Boulevard,Baton Rouge,LA
933,32.49538311,-93.79285203,Lakeshore Elementary School,1807 San Jacinto Street,Shreveport,LA
934,32.53449362,-92.03985335,Lakeshore School,550 Balboa Street,Monroe,LA
935,32.51488285,-93.30215004,Lakeside Junior-Senior High School,9090 Hwy 371,Sibley,LA
936,31.91879152,-93.09784902,Lakeview Junior-Senior High School,7305 Hwy. 9,Campti,LA
937,29.90241157,-90.35195991,Lakewood Elementary School,501 East Heather Drive,Luling,LA
938,29.92571215,-90.12446081,Lancaster Academy,1040 Calhoun Street,New Orleans,LA
939,29.98777415,-90.08019215,Langston Hughes Elementary School,3519 Trafalgar Street,New Orleans,LA
940,30.4938088,-91.10755429,Lanier Elementary School,4705 Lanier Drive,Baton Rouge,LA
941,30.08031043,-90.49155849,LaPlace Elementary School,393 Greenwood Drive,LaPlace,LA
942,29.57011283,-90.39725913,Larose Lower Elementary School,175 Richardel Drive,Lockport,LA
943,29.500313,-90.329459,Larose Upper Elementary School,13360 West Main Street,Cut Off,LA
944,29.500413,-90.329459,Larose-Cut Off Middle School,13356 West Main Street,Cut Off,LA
945,30.43470925,-91.10385462,LaSalle Elementary School,8000 Lasalle,Baton Rouge,LA
946,31.89478976,-92.23535228,LaSalle High School,3820 Main Street Hwy.165,Olla,LA
947,31.8692895,-92.29385273,LaSalle Junior High School,5960 Tannehill Drive,Urania,LA
948,29.92731236,-90.07486098,Laurel Elementary School,820 Jackson Avenue,New Orleans,LA
949,29.97733151,-90.01437835,Lawless High School,5300 Law Street,New Orleans,LA
950,29.93377424,-90.09812992,Lawrence D. Crocker Elementary School,2300 General Taylor Street,New Orleans,LA
951,30.51489892,-92.2029636,Lawtell Elementary School,1010 School Rd.,Lawtell,LA
952,31.26638966,-92.43175847,Learn Effective Attitudes and Discipline,4645 Lincoln Road,Alexandria,LA
953,30.2500996,-93.38056199,LeBlanc Middle School,1100 N Crocker,Sulphur,LA
954,30.27649798,-93.05465894,LeBleu Settlement Elementary School,6509 Hwy 3059,Lake Charles,LA
955,30.58070568,-90.07565506,Lee Road Junior High School,79131 Highway 40,Covington,LA
956,29.9965107,-91.81186034,Lee Street Alternative School,500 Lee Street,New Iberia,LA
957,31.14309026,-93.26745139,Leesville Developmental Center,401 W. Texas Hwy.,Leesville,LA
958,31.14759034,-93.25815138,Leesville High School,502 Berry Avenue,Leesville,LA
959,31.14739034,-93.25815138,Leesville Junior High School,480 Berry Avenue,Leesville,LA
960,29.60481371,-90.718159,Legion Park Middle School,710 Williams Avenue,Houma,LA
961,32.46589211,-92.16155294,Lenwil Elementary School,112 Arrant Road,West Monroe,LA
962,29.73701282,-90.1254602,Leo E. Kerner  Jr. Elementary School,4924 City Park Drive,Lafitte,LA
963,30.05141072,-90.54105861,Leon Godchaux Alternative Program,1880 Highway 44,Reserve,LA
964,30.50590062,-92.04396501,Leonville Elementary School,3774 Hwy. 31,Leonville,LA
965,31.33498944,-92.42055797,Lessie Moore Elementary School,207 Griffith Street,Pineville,LA
966,30.52170839,-90.86315441,Levi Milton Elementary School,31450 Walker North Road,Walker,LA
967,30.4491092,-90.96185472,Lewis Vincent Elementary School,7686 Vincent Road,Denham Springs,LA
968,32.53639285,-92.11545331,Lexington Elementary School,1900 Lexington Avenue,Monroe,LA
969,29.98201222,-90.06966117,Life of Christ Christian Academy/Alternative,1851 North Dorgenois St.,New Orleans,LA
970,29.96001257,-90.0108613,Light City Christian Academy,6117 St. Claude Avenue,New Orleans,LA
971,29.96160921,-92.08156039,Lighthouse Christian High School,6526 Chiasson Road,Abbeville,LA
972,32.51368636,-92.64905225,Lincoln Center,1435 Mayberry,Ruston,LA
973,29.88921232,-90.11386073,Lincoln Elementary School,1429 Ames Boulevard,Marrero,LA
974,29.88918232,-90.11386873,Lincoln Elementary School,1429 Ames Boulevard,Marrero,LA
975,32.51189321,-92.06885325,Lincoln Elementary School,4200 Elm Street,Monroe,LA
976,32.51228638,-92.64755226,Lincoln Parish Career Academy,1428 Arlington Street,Ruston,LA
977,32.54048338,-93.81575237,Linear Middle School,1845 Linear Street,Shreveport,LA
978,32.44188336,-93.76305159,Linwood Middle School,401 West Seventieth Street,Shreveport,LA
979,29.6211137,-90.74005901,Lisa Park Elementary School,6639 Lisa Park Avenue,Houma,LA
980,30.22959967,-93.31926128,Little Learners Montessori School,73 Center Circle,Sulphur,LA
981,30.29341113,-89.73786251,Little Oak Middle School,59241 Rebel Drive,Slidell,LA
982,30.04681704,-89.98063424,Little Woods Elementary School,10200 Curran Boulevard,New Orleans,LA
983,29.89091267,-90.02646101,Livaudais Middle School,925 Lamar Avenue,Terrytown,LA
984,30.57750832,-90.95265409,Live Oak Elementary School,35194 Old Hwy 16,Watson,LA
985,30.28400438,-92.05026294,Live Oak Elementary School,3020 N University Ave,Lafayette,LA
986,29.92331233,-90.08536093,Live Oak Elementary School,3128 Constance Street,New Orleans,LA
987,30.57590833,-90.9531541,Live Oak High School,35086 Old La Hwy 16,Watson,LA
988,29.95541151,-90.23786051,Live Oak Manor Elementary School,220 Acadia Drive,Westwego,LA
989,30.56980835,-90.94725412,Live Oak Middle School,8444 Cecil Drive,Watson,LA
990,30.01351038,-91.82546054,Live Oak School Pre-Kindergarten Center,809 West Main Street,New Iberia,LA
991,30.02174421,-90.00343822,Livingston Middle School,7301 Dwyer Road,New Orleans,LA
992,30.48290881,-90.9122546,Livingston Parish Literacy & Technology Center,9261 Florida Blvd.,Walker,LA
993,30.56040468,-91.55465972,Livonia High School,3118 LA Highway 78,Livonia,LA
994,29.64271268,-90.52655914,Lockport Lower Elementary School,1421 Crescent Avenue,Lockport,LA
995,29.56861283,-90.39165913,Lockport Middle School,720 Main Street,Lockport,LA
996,29.63811277,-90.54285912,Lockport Upper Elementary School,201 School Street,Lockport,LA
997,32.00038354,-93.99044662,Logansport Elementary School,17228 Hwy. 5,Logansport,LA
998,32.00038354,-93.99044662,Logansport High School,17228 Hwy. 5,Logansport,LA
999,30.76530259,-89.85805314,Long Avenue School,1100 Long Avenue,Bogalusa,LA
1000,30.63740579,-90.39945303,Loranger Elementary School,54101 Martin Street,Loranger,LA
1001,30.64080577,-90.39995298,Loranger High School,19404 Hiatti Street,Loranger,LA
1002,30.63770579,-90.40055302,Loranger Middle School,54123 Allman Street,Loranger,LA
1003,30.05561039,-91.73516059,Loreauville Elementary School,210 Railroad Avenue,Loreauville,LA
1004,30.05931033,-91.73676066,Loreauville High School,410 North Main Street,Loreauville,LA
1005,29.97001839,-90.04337223,Lorraine Hansberry Elementary School,1339 Clouet Street,New Orleans,LA
1006,29.97223157,-90.00388337,Louis Armstrong Elementary School,2401 St. Maurice Avenue,New Orleans,LA
1007,30.26001058,-91.07415563,Louisiana Correctional Institute for Women,7205 Hwy. 74,St. Gabriel,LA
1008,30.44770904,-91.16905447,Louisiana New School Academy,1900 North Blvd.  Suite C,Baton Rouge,LA
1009,31.82399302,-93.05804897,Louisiana School for Math  Science & the Arts,715 University Parkway,Natchitoches,LA
1010,30.99079169,-92.14006187,Louisiana School for the Agricultural Sciences,5303 Highway 115,Bunkie,LA
1011,30.39060949,-91.19335475,Louisiana School for the Deaf,2888 Brightside Lane,Baton Rouge,LA
1012,30.44360907,-91.17675449,Louisiana School for the Visually Impaired,1120 Government Street,Baton Rouge,LA
1013,31.2955897,-92.50455779,Louisiana Special Education Center,5400 Coliseum Blvd.,Alexandria,LA
1014,30.9544044,-91.59455546,Louisiana State Penitentiary,General Delivery,Angola,LA
1015,31.29858992,-92.52685745,Louisiana Youth Academy,400 John Allison Drive,Alexandria,LA
1016,30.09451216,-91.02625718,Lowery Elementary School,2389 Hwy 1 South,Donaldsonville,LA
1017,30.09451216,-91.02625718,Lowery Intermediate School,2389 Hwy 1 South,Donaldsonville,LA
1018,32.49808324,-93.74945177,Loyola College Preparatory Jr. High School (C),921 Jordan Street,Shreveport,LA
1019,32.49808324,-93.74945177,Loyola College Preparatory School (C),921 Jordan Street,Shreveport,LA
1020,30.41540931,-91.17185465,LSU Laboratory School,45 Dalrymple Drive,Baton Rouge,LA
1021,29.94391155,-90.23916048,Lucille Cherbonnier Elementary School,700 Dandelion Drive,Waggaman,LA
1022,30.57730624,-90.49335376,Lucille Nesom Middle School,14417 Hwy. 442 West,Tickfaw,LA
1023,30.38590948,-91.24525472,Lukeville Upper Elementary School,6123 Highway 1  South,Brusly,LA
1024,29.92161146,-90.36715986,Luling Elementary School,904 Sugarhouse Road,Luling,LA
1025,29.93571216,-90.11336088,Lusher Charter School,5624 Freret Street,New Orleans,LA
1026,30.04861126,-90.70645816,Lutcher Elementary School,2461 King Avenue,Lutcher,LA
1027,30.04431126,-90.69515823,Lutcher High School,1910 West Main Street,Lutcher,LA
1028,30.00871155,-90.17156076,Lutheran High School (L),3864 17th Street,Metairie,LA
1029,29.86491319,-89.89436217,Lynn Oaks School,1 Lynn Oaks Drive,Braithwaite,LA
1030,30.15619982,-93.21836015,M. J. Kaufman Elementary School,301 Tekel Road,Lake Charles,LA
1031,29.69921606,-91.20835864,M.D. Shannon Elementary School,409 Brashear Avenue,Morgan City,LA
1032,29.70791607,-91.20535869,M.E. Norman Elementary School,900 Spruce St,Morgan City,LA
1033,31.76419393,-93.07774854,M.R. Weaver Elementary School,520 St.Maurice Lane,Natchitoches,LA
1034,31.30048978,-92.51365762,Mabel Brasher Elementary School,601 Cloverleaf Boulevard,Alexandria,LA
1035,32.41839721,-91.19515287,Madison High School,800 Wyche Street,Tallulah,LA
1036,32.44819278,-92.09475284,Madison James Foster Elementary School,1310 Richwood Road #1,Monroe,LA
1037,32.41509718,-91.19905287,Madison Middle School,900 West Askew Street,Tallulah,LA
1038,30.43380724,-90.16545622,Madisonville Elementary School,317 Highway 1077,Madisonville,LA
1039,30.41200745,-90.15885644,Madisonville Junior High School,106 Cedar Street,Madisonville,LA
1040,30.52309991,-92.07266488,Magnet Academy for Cultural Arts,1100 E Leo Street,Opelousas,LA
1041,29.99551074,-91.80726033,Magnolia Elementary School,413 South Lewis Street,New Iberia,LA
1042,30.43900734,-90.44465532,Magnolia Montessori School,170 North 7th Street,Ponchatoula,LA
1043,30.38200776,-90.03415743,Magnolia Trace Elementary School,1405 Highway 1088,Mandeville,LA
1044,30.38200963,-91.12385488,Magnolia Woods Elementary School,760 Maxine Drive,Baton Rouge,LA
1045,30.00400739,-92.2880604,Maltrait Memorial School (C),One Crusader Square,Kaplan,LA
1046,30.63889495,-92.42196109,Mamou Elementary School,1205 Fourth Street,Mamou,LA
1047,30.63719499,-92.41826115,Mamou High School,1008 Seventh Street,Mamou,LA
1048,30.3668079,-90.08185725,Mandeville Elementary School,519 Massena Street,Mandeville,LA
1049,30.38160775,-90.09955703,Mandeville High School,1 Skipper Drive,Mandeville,LA
1050,30.36570791,-90.0750573,Mandeville Junior High School,639 Carondelet Street,Mandeville,LA
1051,30.37870779,-90.03225746,Mandeville Middle School,2525 Soult Street,Mandeville,LA
1052,32.31199506,-91.78555222,Mangham Elementary School,419 Hixon St.,Mangham,LA
1053,32.30939505,-91.78575221,Mangham High School,810 Main Street,Mangham,LA
1054,32.31029505,-91.78645221,Mangham Junior High School,113 McConnell Street,Mangham,LA
1055,32.0395863,-93.68484681,Mansfield Elementary School 3-5,1915 McArthur Dr,Mansfield,LA
1056,32.0395863,-93.68484681,Mansfield Elementary School PK-2,1915 McArthur Dr.,Mansfield,LA
1057,32.02988614,-93.71984666,Mansfield High School,401 Kings Highway,Mansfield,LA
1058,32.0395863,-93.68484681,Mansfield Middle School 6-8,1915 McArthur Dr,Mansfield,LA
1059,31.06249145,-92.05376139,Mansura Middle School,1869 St. Jean Street,Mansura,LA
1060,31.57258978,-93.46804688,Many Elementary School,265 Middlecreek Road,Many,LA
1061,31.59359004,-93.45164681,Many High School,100 Tiger Drive,Many,LA
1062,31.59729015,-93.44354681,Many Junior High School,1801 Natchitoches Hwy,Many,LA
1063,30.22769967,-93.32046129,Maplewood Middle School,4401 Maplewood Dr,Sulphur,LA
1064,30.3560099,-90.99145521,Maranatha Montessori,17450 Hoo Shoo Too Rd.,Baton Rouge,LA
1065,29.60891374,-90.73195899,Maria Immacolata School (C),324 Estate Drive,Houma,LA
1066,30.01531172,-90.12346085,Marie B. Riviere Elementary School,1564 Lake Avenue,Metairie,LA
1067,30.03074633,-89.97164157,Marion Abramson Senior High School,5552 Read Boulevard,New Orleans,LA
1068,32.90529324,-92.24205363,Marion High School,3062 Taylor Street,Marion,LA
1069,31.12689052,-92.0729606,Marksville Elementary School,430 West Waddil Street,Marksville,LA
1070,31.12959049,-92.07216057,Marksville High School,407 West Bon Tempt Street,Marksville,LA
1071,31.12959023,-92.17376047,Marksville Middle School,152 Schoolhouse Road,Marksville,LA
1072,30.44130728,-90.39725538,Martha Vinyard Elementary School,40105 Dunson Road,Ponchatoula,LA
1073,31.73699201,-93.37304654,Marthaville Elem/Jr. High School,10800 Hwy. 120,Marthaville,LA
1074,29.94861242,-90.04896114,Martin Behrman Elementary School,715 Opelousas Avenue,New Orleans,LA
1075,31.83939401,-91.67915068,Martin Junior High School,825 Hwy 8,Sicily Island,LA
1076,29.96068656,-90.0128223,Martin L. King Middle School,5909 St. Claude Avenue,New Orleans,LA
1077,32.49549308,-92.07555318,Martin Luther King  Jr. Middle School,3716 Nutland Road,Monroe,LA
1078,31.25148973,-92.44965848,Martin Park Elementary School,4203 Lisa Street,Alexandria,LA
1079,30.22730315,-92.28266104,Martin Petitjean Elementary School,4039 Crowley-Rayne Highway,Rayne,LA
1080,29.91991231,-90.0919609,Mary Bethune Elementary Literature/Technology,3649 Laurel Street,New Orleans,LA
1081,29.9600201,-90.10876697,Mary Church Terrell Elementary School,3411 Broadway Street,New Orleans,LA
1082,30.01614112,-90.03815815,Mary D. Coghill Elementary School,5500 Piety Drive,New Orleans,LA
1083,31.40938925,-92.46045717,Mary Goff Elementary School,6900 Shreveport Highway,Pineville,LA
1084,29.90351245,-91.66275874,Mary Hines Elementary School,327 Martin Luther King,Charenton,LA
1085,30.39100766,-90.10045696,Mary  Queen of Peace Catholic School (C),1515 West Causeway Approach,Mandeville,LA
1086,30.63300593,-90.50235306,Mater Dolorosa School (C),509 Pine Street,Independence,LA
1087,30.29470937,-90.62935637,Maurepas School,25125 Hwy 22,Maurepas,LA
1088,30.10950665,-92.1234613,Maurice Elementary School,203 South Albert Avenue,Maurice,LA
1089,30.44870924,-91.0495546,McAuliffe Pre-GED Center,12000 Goodwood Blvd,Baton Rouge,LA
1090,29.92320527,-90.09918288,McDonogh #07 Elementary School,1111 Milan Street,New Orleans,LA
1091,29.96061232,-90.06266113,McDonogh #15: A KIPP Transformation School,721 St. Phillip Street,New Orleans,LA
1092,29.92711246,-90.05336105,McDonogh #26 Elementary School,1200 Jefferson Street,Gretna,LA
1093,29.97730619,-90.07990312,McDonogh #28 Middle School,2733 Esplanade Avenue,New Orleans,LA
1094,29.97731219,-90.07986112,McDonogh #28 Middle School,2733 Esplanade Avenue,New Orleans,LA
1095,29.94341244,-90.04836112,McDonogh #32 Elementary School,800 DeArmas Street,New Orleans,LA
1096,29.96861228,-90.06526115,McDonogh #35 Senior High School,1331 Kerlerec Street,New Orleans,LA
1097,29.97793723,-90.07096016,McDonogh #42 Elementary School,1651 North Tonti Street,New Orleans,LA
1098,30.46190897,-91.14805442,McKinley Middle Magnet School,4200 Gus Young Avenue,Baton Rouge,LA
1099,30.42370924,-91.1747546,McKinley Senior High School,800 East Mckinley,Baton Rouge,LA
1100,32.54268361,-93.68185146,Meadowview Elementary School,4312 Shed Road,Bossier City,LA
1101,30.02080776,-92.18366069,Meaux Elementary School,12419 LA Highway 696,Abbeville,LA
1102,30.461209,-91.13535444,Melrose Elementary School,1348 Valcour Steet,Baton Rouge,LA
1103,30.68650423,-91.74326126,Melville Elementary School,536 Fontenot Street,Melville,LA
1104,30.00621141,-90.20406067,Memorial Baptist Christian School,5701 Veteran's Memorial Boulevard,Metairie,LA
1105,30.19140121,-92.58385924,Mermentau Elementary School,405 Church Street,Mermentau,LA
1106,30.50370869,-91.12345423,Merrydale Elementary School,6700 Rio Street,Baton Rouge,LA
1107,30.74068847,-93.53534982,Merryville High School,7061 Highway 110 West,Merryville,LA
1108,29.59021392,-90.74235897,Messiah Montessori,1215 St. Charles Street,Houma,LA
1109,29.98021195,-90.12626097,Metairie Grammar Academy for Advanced Studies,201 Metairie Road,Metairie,LA
1110,29.98201191,-90.13236095,Metairie Park Country Day School,300 Park Road,Metairie,LA
1111,29.89151288,-89.97616138,Metropolitan Developmental Center,251 F. Edward Hebert Blvd.,Belle Chasse,LA
1112,29.94569321,-90.09489097,Middle Level District Learning Center,2622 South Prieur Street,New Orleans,LA
1113,30.16490268,-92.49835985,Midland High School,735 South Crocker,Midland,LA
1114,30.64080585,-90.48355297,Midway Elementary School,48405 Hwy. 51,Natalbany,LA
1115,32.47158313,-93.80365197,Midway Professional Development Center,3840 Greenwood Road,Shreveport,LA
1116,30.033342,-90.01550203,Mildred Osborne School,6701 Curran Road,New Orleans,LA
1117,29.92021218,-90.1212608,Milestone SABIS Academy of New Orleans,5951 Patton Street,New Orleans,LA
1118,29.8715124,-90.10906069,Miller Wall Elementary School,2001 Bonnie Ann Drive,Marrero,LA
1119,30.45630926,-91.0082546,Millerville Academy,871 O'Neal Lane,Baton Rouge,LA
1120,30.10430711,-92.07626144,Milton Elementary School,222 W. Milton Avenue,Milton,LA
1121,29.90871154,-90.35065992,Mimosa Park Elementary School,222 Birch Street,Luling,LA
1122,32.61898297,-93.28934994,Minden High School,1103 S College St,Minden,LA
1123,32.48689292,-92.08885311,Minnie Ruffin Elementary School,1801 Parkview Drive,Monroe,LA
1124,30.29820274,-92.19336204,Mire Elementary School,5484 Mire Highway,Rayne,LA
1125,30.48660876,-91.15155428,Mohican Education Center,4050 Tunica Street,Baton Rouge,LA
1126,29.47811336,-90.5557588,Montegut Elementary School,1137 Hwy. 55,Montegut,LA
1127,29.48431334,-90.54835881,Montegut Middle School,138 Dolphin Drive,Montegut,LA
1128,31.37019329,-91.81365485,Monterey High School,5920 Highway 129,Monterey,LA
1129,30.39120953,-91.1562548,Montessori Children's House,5640 Highland Road,Baton Rouge,LA
1130,31.33308952,-92.4946576,Montessori Educational Center,4209 N Bolton Avenue,Alexandria,LA
1131,32.48658332,-93.72035156,Montessori School for Shreveport,2605 C.E. Galloway Blvd,Shreveport,LA
1132,30.37500972,-91.08915497,Montessori School of Baton Rouge,8227 Wimbledon Avenue,Baton Rouge,LA
1133,31.66889331,-92.89255024,Montgomery High School,900 Harrison Drive,Montgomery,LA
1134,32.60039756,-91.39525365,Monticello High School,1046 Highway 577,Lake Providence,LA
1135,32.45288318,-93.80185185,Mooretown Elementary Professional Develop. Sch,3913 Powell Street,Shreveport,LA
1136,32.68738466,-93.96005477,Mooringsport Elementary School,602 Latimer Street,Mooringsport,LA
1137,32.77529508,-91.92465411,Morehouse Alternative School,1001 West Madison Avenue,Bastrop,LA
1138,32.77529508,-91.92465411,Morehouse Junior High School,1001 West Madison Avenue,Bastrop,LA
1139,32.78749516,-91.91805408,Morehouse Magnet School,909 Larche Lane,Bastrop,LA
1140,29.71601608,-91.20445874,Morgan City High School,2400 Tiger Drive,Morgan City,LA
1141,29.70631606,-91.20165869,Morgan City Junior High School,911 Marquerite Street,Morgan City,LA
1142,29.97504116,-90.08762609,Morris F.X. Jeff Elementary School,800 North Rendon Street,New Orleans,LA
1143,30.82589349,-92.08376507,Morrow Elementary School,701 Hwy. 71 North,Morrow,LA
1144,30.12600348,-92.5008598,Morse Elementary School,200 Wisconsin Street,Morse,LA
1145,30.29879895,-93.2024593,Moss Bluff Elementary School,215 School Street,Lake Charles,LA
1146,30.30439904,-93.22105928,Moss Bluff Middle School,1104 Recreation Blvd,Lake Charles,LA
1147,30.37870976,-91.01545503,Most Blessed Sacrament School (C),8033 Barringer Road,Baton Rouge,LA
1148,30.01831174,-90.11066086,Mount Carmel Academy (Girls) (C),7027 Milne Boulevard,New Orleans,LA
1149,32.49998315,-93.77475194,Mrs. Eddie Jones W Shreveport Elementary Sch.,2226 Murphy Street,Shreveport,LA
1150,29.97910861,-92.14046046,Mt. Carmel School (C),405 Park Avenue,Abbeville,LA
1151,30.95960369,-90.30824749,Mt. Hermon School,36119 Highway 38,Mt. Hermon,LA
1152,32.62478204,-93.00625048,Mt. Olive Christian School (B),15349 Hwy. 9,Athens,LA
1153,29.56811405,-90.73835894,Mulberry Elementary School,450 Cougar Drive,Houma,LA
1154,29.93431249,-90.04136111,Murray Henderson Elementary School,1912 L.B. Landry Avenue,New Orleans,LA
1155,30.22730551,-92.03096258,Myrtle Place Elementary School,1100 Myrtle Place Boulevard,Lafayette,LA
1156,30.23250565,-92.00866277,N. P. Moss Annex,801 Mudd Ave.,Lafayette,LA
1157,30.25610552,-91.98136303,N. P. Moss Middle School,805 Teurlings Dr.,Lafayette,LA
1158,29.92844508,-89.92553421,N.P. Trist Middle School,1 Pirates Cove,Meraux,LA
1159,31.74999415,-93.09254837,N.S.U. Elementary Lab School,1 Caldwell NSU Campus-W EastonBldg,Natchitoches,LA
1160,31.75109414,-93.10444829,N.S.U. Middle Lab School,TEC Bldg. N.S.U. Pod A,Natchitoches,LA
1161,29.9424137,-91.02565821,Napoleonville Middle School,4847 Highway 1,Napoleonville,LA
1162,29.93951374,-91.03005823,Napoleonville Primary School,185 Highway 1008,Napoleonville,LA
1163,30.54370643,-90.4825542,Natalbany Elementary School,47370 North Morrison Blvd.,Natalbany,LA
1164,31.74529414,-93.10844825,Natchitoches Central High School,200 Hwy. 3110 S. Bypass,Natchitoches,LA
1165,31.74829415,-93.1163482,Natchitoches Education Center,3707 Highway 6 W.,Natchitoches,LA
1166,31.7789937,-93.09834845,Natchitoches Junior High School,1621 Welch Street,Natchitoches,LA
1167,31.74829415,-93.1163482,Natchitoches Magnet School,3707 University Parkway,Natchitoches,LA
1168,32.5090926,-92.12505322,Nature's Way Montessori School,1010 Riverside Drive,Monroe,LA
1169,31.56508951,-92.14805533,Nebo Elementary School,300 Hwy. 777,Jena,LA
1170,31.4912883,-93.56774694,Negreet High School,4129 Highway 476,Negreet,LA
1171,29.92321227,-90.09916088,Nelson Elementary School,1111 Milan Street,New Orleans,LA
1172,32.52209264,-92.12775326,Neville High School,600 Forsythe Avenue,Monroe,LA
1173,29.98261083,-91.81486026,New Iberia Senior High School,1301 East Admiral Doyle Drive,New Iberia,LA
1174,29.91671218,-90.12366078,New Orleans Adolescent Hospital,210 State Street,New Orleans,LA
1175,29.96341237,-90.04966118,New Orleans Center for Creative Arts,2800 Chartres St.,New Orleans,LA
1176,29.92329933,-90.08537693,New Orleans Center for Creative Arts Academy,3128 Constance Street,New Orleans,LA
1177,29.95928123,-90.08211006,New Orleans Center for Health Careers,2009 Palmyra Street,New Orleans,LA
1178,29.97009604,-90.11467498,New Orleans Charter Middle School,3801 Monroe Street,New Orleans,LA
1179,29.93291217,-90.11416087,New Orleans Charter Science and Mathematics HS,5625 Loyola Avenue,New Orleans,LA
1180,29.97001235,-90.0507612,New Orleans East Elementary School,2521 Marais Street,New Orleans,LA
1181,29.9231123,-90.09196091,New Orleans Free School,3601 Camp Street,New Orleans,LA
1182,29.94954719,-90.09750597,New Orleans High School Signature Centers,2600 S Rocheblave St.,New Orleans,LA
1183,30.01511151,-90.16606069,New Orleans Jewish Day School,3747 West Esplanade Avenue,Metairie,LA
1184,30.0092118,-90.12116093,New Orleans Montessori School,6432 Bellaire Drive,New Orleans,LA
1185,29.93980045,-90.04744011,New Orleans New Technology High School,709 Park Blvd.,New Orleans,LA
1186,29.97231119,-90.37745987,New Sarpy Elementary School,130 Plantation Road,Destrehan,LA
1187,29.97231119,-90.37745987,New Sarpy Kindergarten Center,130 Plantation Road,Destrehan,LA
1188,32.51319303,-92.08665325,New Vision Learning Academy,507 Swayze Street,Monroe,LA
1189,32.07279536,-91.24185178,Newellton Elementary School,400 Verona,Newellton,LA
1190,32.54358338,-93.82885248,Newton Smith Elementary School,3000 Martin Luther King Jr. Drive,Shreveport,LA
1191,29.9298117,-90.2226605,Norbert Rillieux Elementary School,7121 River Road,Waggaman,LA
1192,30.00991093,-90.42145955,Norco Elementary School 4-6,102 Fifth Street,Norco,LA
1193,30.00991093,-90.42145955,Norco Elementary School K-3,102 A Fifth Street,Norco,LA
1194,31.33328961,-92.50755746,North Bayou Rapides Elementary School,5500 England Drive,Alexandria,LA
1195,32.86238608,-93.98975643,North Caddo High School,201 Airport Drive,Vivian,LA
1196,30.72829593,-91.98196712,North Central High School,6579 Hwy. 10,Washington,LA
1197,30.54340816,-90.83425426,North Corbin Elementary School,32645 North Corbin,Walker,LA
1198,30.22060242,-92.38686048,North Crowley Elementary School,820 West Fifteenth Street,Crowley,LA
1199,32.25308352,-93.82325075,North DeSoto Elementary School,2623 Hwy 171,Stonewall,LA
1200,32.25428352,-93.82325076,North DeSoto High School,2571 Hwy. 171,Stonewall,LA
1201,32.25518352,-93.82325076,North DeSoto Middle School,2535 Hwy. 171,Stonewall,LA
1202,30.54899917,-92.08286497,North Elementary School,308 West Martin Luther King Drive,Opelousas,LA
1203,30.49380871,-91.15095424,North Highlands Elementary School,3875 Byron,Baton Rouge,LA
1204,32.57318373,-93.78545223,North Highlands Elementary School,885 Poleman Road,Shreveport,LA
1205,30.45780522,-91.47835966,North Iberville Elementary/High School,13770 Hwy. 77,Rosedale,LA
1206,30.00831066,-91.79496042,North Lewis Elementary School,604 North Lewis Street,New Iberia,LA
1207,30.59600818,-90.946854,North Live Oak Elementary School,36605 Outback Road,Denham Springs,LA
1208,31.12329041,-93.25705168,North Polk Elementary School,4978 University Parkway,Fort Polk,LA
1209,30.01831028,-91.8295606,North Street Elementary School,121 North Street,New Iberia,LA
1210,30.07910686,-92.16426101,North Vermilion High School,11609 LA Highway 699,Maurice,LA
1211,30.46860907,-91.06435447,Northdale Alternative Magnet Academy,10755 Cletus,Baton Rouge,LA
1212,32.50089244,-92.13635319,Northeast Baptist School,800 Wilson Street,West Monroe,LA
1213,30.53819959,-92.06686505,Northeast Elementary School,1125 Mamie Street,Opelousas,LA
1214,30.70610756,-91.01445377,Northeast Elementary School,13801 Pride/Port Hudson Rd.,Pride,LA
1215,30.70270732,-91.10305389,Northeast High School,13700 Pride/Port Hudson Rd.,Baton Rouge,LA
1216,32.40499709,-91.18895276,Northeast Louisiana Marine Institute,507 Bayou Drive,Tallulah,LA
1217,30.44630712,-90.09885656,Northlake Christian Elementary School,70104 Wolverine Drive,Covington,LA
1218,30.44630712,-90.09885656,Northlake Christian High School,70104 Wolverine Drive,Covington,LA
1219,30.34001016,-89.73546164,Northminster Montessori Preschool (P),63140 N Military Road,Pearl River,LA
1220,30.26811169,-89.74486292,Northshore High School,100 Panther Drive,Slidell,LA
1221,30.3479081,-90.02855769,Northshore Options,23515 Hwy 190 Dorm #2,Mandeville,LA
1222,30.22540246,-92.36996058,Northside Christian School (AG),809 East Northern Avenue,Crowley,LA
1223,30.49800884,-90.94945444,Northside Elementary School,1090 Robbie Street,Denham Springs,LA
1224,32.82369929,-91.17925396,Northside Elementary School,328 Regenold Street,Lake Providence,LA
1225,32.54128343,-93.79835223,Northside Elementary School,1950 Northside Road,Shreveport,LA
1226,30.25050542,-92.00286296,Northside High School,301 Dunand Street,Lafayette,LA
1227,30.78830232,-89.85605275,Northside School,517 Mississippi Avenue,Bogalusa,LA
1228,32.56048374,-93.65035129,Northwest Developmental Center,5401 Shed Road,Bossier City,LA
1229,30.53849899,-92.1320644,Northwest High School,3746 Hwy. 104,Opelousas,LA
1230,30.66340743,-91.16275401,Northwestern Elementary School,4200 Rollins Road,Zachary,LA
1231,30.6562075,-91.15485401,Northwestern Middle School,5200 East Central Avenue,Zachary,LA
1232,30.73920538,-90.51075175,Northwood High School,202 Robin St,Amite,LA
1233,32.60208388,-93.84875294,Northwood High School,5939 Old Mooringsport Road,Shreveport,LA
1234,31.40439194,-92.70495383,Northwood High School,8830 Highway 1 North,Boyce,LA
1235,30.22150256,-92.36786058,Notre Dame High School (C),910 N Eastern Avenue,Crowley,LA
1236,30.22150256,-92.36786058,Notre Dame Junior High School(C),910 N Eastern Avenue,Crowley,LA
1237,29.93931292,-89.95406189,NOVA Academy,1101 East Judge Perez Dr.,Chalmette,LA
1238,30.15640664,-92.03106201,O. Comeaux High School,100 West Bluebird Drive,Lafayette,LA
1239,29.94249454,-90.02689419,O. P. Walker Senior High School,2832 General Meyer Avenue,New Orleans,LA
1240,29.94251254,-90.02686119,O.P. Walker Senior High School,2832 General Meyer Avenue,New Orleans,LA
1241,30.92180448,-90.53474957,O.W. Dillon Memorial Elementary School,1541 C.B. Temple Rd,Kentwood,LA
1242,30.73320545,-90.51745184,Oak Forest Academy,600 Walnut Street,Amite,LA
1243,32.85859738,-91.4953536,Oak Grove Elementary School,206 Tiger Drive,Oak Grove,LA
1244,32.86089822,-91.39195376,Oak Grove High School,501 West Main,Oak Grove,LA
1245,30.32271008,-90.97675544,Oak Grove Primary School,17550 Old Jefferson Hwy,Prairieville,LA
1246,32.75939491,-91.90285408,Oak Hill Elementary School,630 Collinston Road,Bastrop,LA
1247,31.14669185,-92.73695534,Oak Hill Elementary School,7362 Highway 112,Elmer,LA
1248,31.14669185,-92.73695534,Oak Hill High School,7362 Highway 112,Elmer,LA
1249,32.46068309,-93.820352,Oak Park Elementary School,4941 McDaniel Street,Shreveport,LA
1250,30.20569955,-93.19345994,Oak Park Elementary School,2001 18th Street,Lake Charles,LA
1251,30.20309955,-93.18895988,Oak Park Middle School,2200 Oak Park Blvd,Lake Charles,LA
1252,32.44528323,-93.79325176,Oak Terrace/J.B. Harville Alternative School,6660 Quilen Road,Shreveport,LA
1253,30.83459278,-92.65785706,Oakdale Elementary School,1515 Highway 1153,Oakdale,LA
1254,30.81739291,-92.65805705,Oakdale High School,101 North 13th Street,Oakdale,LA
1255,30.81679292,-92.65795705,Oakdale Middle School,124 South 13th Street,Oakdale,LA
1256,29.57431376,-90.68925896,Oaklawn Junior High School,2215 Acadian Drive,Houma,LA
1257,30.48180688,-90.44835496,Oaks Montessori School,43283 South Range Road,Hammond,LA
1258,29.6406136,-90.75025902,Oakshire Elementary School,5459 Vicari Street,Houma,LA
1259,30.62069484,-92.76885642,Oberlin Elementary School,110 South 4th Street,Oberlin,LA
1260,30.62069484,-92.7713564,Oberlin High School,1 Tiger Lane,Oberlin,LA
1261,32.74798536,-93.97215547,Oil City Elementary School,407 Kerley Avenue,Oil City,LA
1262,31.91148985,-92.23485211,Olla-Standard Elementary School,Hwy 125,Olla,LA
1263,30.54359936,-92.07736499,Opelousas Catholic School (C),428 East Prudhomme Street,Opelousas,LA
1264,30.52749969,-92.08516479,Opelousas Junior High School,730 South Market Street,Opelousas,LA
1265,30.49710049,-92.07886463,Opelousas Senior High School,1014 Judson Walsh Drive,Opelousas,LA
1266,30.3479081,-90.02855769,Operation Jumpstart Alternative School,23515 Highway 190,Mandeville,LA
1267,29.97309335,-90.04996221,Oretha Castle Haley Elementary School,2515 North Robertson Street,New Orleans,LA
1268,29.94241215,-90.1117609,Orleans Parish PM School,5712 South Claiborne Avenue,New Orleans,LA
1269,30.28700386,-92.09756263,Ossun Elementary School,400 Rue Scholastique,Lafayette,LA
1270,32.66239414,-92.04825383,Ouachita Christian School (CC),7065 Highway 165 N,Monroe,LA
1271,32.5219934,-92.0552533,Ouachita Junior High School,5500 Blanks Street,Monroe,LA
1272,32.50939242,-92.14295321,Ouachita Parish Alternative Center,1600 N 7th St.,West Monroe,LA
1273,32.50459399,-91.99045325,Ouachita Parish High School,681 Highway 594,Monroe,LA
1274,30.23409971,-92.65065901,Our Lady Immaculate School (C),600 Roberts Avenue,Jennings,LA
1275,29.98781141,-90.22696063,Our Lady of Divine Providence School (C),917 North Atlanta Street,Metairie,LA
1276,30.20970578,-92.03186243,Our Lady of Fatima School (C),2315 Johnston Street,Lafayette,LA
1277,32.52479312,-92.08395329,Our Lady of Fatima School (C),3202 Franklin Street,Monroe,LA
1278,30.0573106,-90.51265864,Our Lady of Grace School (C),780 Hwy. 44,Reserve,LA
1279,30.24961165,-89.7876625,Our Lady of Lourdes School (C),345 Westchester Place,Slidell,LA
1280,30.44590913,-91.12485453,Our Lady of Mercy School (C),400 Marquette Avenue,Baton Rouge,LA
1281,29.8410129,-89.99866093,Our Lady of Perpetual Help School (C),8970 Highway 23,Belle Chasse,LA
1282,29.97611137,-90.24586054,Our Lady of Perpetual Help School (C),531 Williams Blvd.,Kenner,LA
1283,31.30298959,-92.462858,Our Lady of Prompt Succor School (C),420 Twenty-First Street,Alexandria,LA
1284,29.94041285,-89.96706172,Our Lady of Prompt Succor School (C),2305 Fenelon Street,Chalmette,LA
1285,29.90881212,-90.14516069,Our Lady of Prompt Succor School (C),531 Avenue A,Westwego,LA
1286,32.49998312,-93.78515201,Our Lady of the Blessed Sacrament Academy (C),2932 Murphy Street,Shreveport,LA
1287,30.35990797,-90.07475734,Our Lady of the Lake School (C),316 Lafitte Street,Mandeville,LA
1288,30.18689972,-93.2277603,Our Lady Queen of Heaven School (C),3908 Creole Street,Lake Charles,LA
1289,30.23099963,-93.36366178,Our Lady's School (C),1111 Cypress Street,Sulphur,LA
1290,30.4069007,-92.21536272,Our Mother of Peace Elementary School (C),218 North Rogers Street,Church Point,LA
1291,29.99791228,-90.0496613,P. A. Capdau School,3821 Franklin Avenue,New Orleans,LA
1292,29.8675343,-89.86452652,P.G.T. Beauregard Middle School,1201 Bayou Road,St. Bernard,LA
1293,30.68439856,-91.93086555,Palmetto Elementary School,235 Rideau Street,Palmetto,LA
1294,31.39278927,-92.40865755,Paradise Elementary School,5010 Monroe Highway,Ball,LA
1295,30.45750898,-91.16045443,Park Elementary School,2700 Fuqua Street,Baton Rouge,LA
1296,30.01651027,-91.83476059,Park Elementary School,201 Gilbert Drive,New Iberia,LA
1297,30.48250898,-91.06535439,Park Forest Elementary School,10717 Elain Street,Baton Rouge,LA
1298,30.48490894,-91.07415437,Park Forest Middle School,3760 Aletha Drive,Baton Rouge,LA
1299,30.58400808,-91.1349541,Park Ridge Elementary School,5903 Groom Road,Baker,LA
1300,30.51680005,-92.07496481,Park Vista Elementary School,1000 Abdalla Blvd.,Opelousas,LA
1301,30.21360756,-91.82496268,Parks Middle School,1010-A St. Louis Drive,St. Martinville,LA
1302,30.13210868,-91.82706181,Parks Primary School,1034 Main Street,St. Martinville,LA
1303,30.39930958,-91.04925488,Parkview Baptist School,5750 Parkview Church Road,Baton Rouge,LA
1304,30.39960959,-91.04435488,Parkview Elementary School,5660 Park Forest,Baton Rouge,LA
1305,30.0103222,-90.03750223,Parkview Fundamental Magnet School,4617 Mirabeau Avenue,New Orleans,LA
1306,32.47278347,-93.67065121,Parkway High School,4301 Panther Drive,Bossier City,LA
1307,29.96301189,-90.15036083,Patrick F. Taylor Science & Technology Academy,2012 Jefferson Highway,Jefferson,LA
1308,29.72021582,-91.30575868,Patterson High School,2525 Main Street,Patterson,LA
1309,29.69291579,-91.30365849,Patterson Junior High School,1101 First Street,Patterson,LA
1310,29.92621262,-90.01716116,Paul B. Habans Elementary School,3819 Herschel Street,New Orleans,LA
1311,30.22060592,-91.99946272,Paul Breaux Middle School,1400 South Orange Street,Lafayette,LA
1312,29.87431271,-90.02826095,Paul J. Solis Elementary School,2850 Mt. Laurel Drive,Gretna,LA
1313,29.97058799,-90.12377995,Paul L. Dunbar Elementary School,9330 Forshey Street,New Orleans,LA
1314,30.02101149,-90.72135832,Paulina Elementary School,2756 Highway 44,Paulina,LA
1315,31.29318958,-92.43695822,Peabody Magnet High School,2727 Jones Street,Alexandria,LA
1316,31.30308955,-92.43485815,Peabody Montessori Elementary School,2416 3rd Street,Alexandria,LA
1317,30.37060954,-89.75746074,Pearl River High School,39110 Rebel Lane,Pearl River,LA
1318,30.2212995,-93.20286008,Pearl Watson Elementary School,1300 5th Street,Lake Charles,LA
1319,29.90581183,-91.78445969,Peebles Elementary School,4915 Weeks Island Road,New Iberia,LA
1320,31.88128799,-93.58724591,Pelican All Saints High School,200 All Saints Road,Pelican,LA
1321,30.0105123,-90.0174613,Perrault's Kiddy Kollege,6201 Chef Menteur Hwy.,New Orleans,LA
1322,30.4327074,-90.44325538,Perrin Early Learning Center,350 West Ash Street,Ponchatoula,LA
1323,29.99681065,-91.81886036,Pesson Addition Elementary School,619 Broussard Street,New Iberia,LA
1324,29.96918222,-90.07735911,Phillis Wheatley Elementary School,2300 Dumaine Street,New Orleans,LA
1325,29.99881152,-90.19616077,Phoebe Hearst School,5208 Wabash Street,Metairie,LA
1326,29.62931352,-89.90895996,Phoenix High School,13073 Highway 15,Braithwaite,LA
1327,31.26728966,-92.43285845,Phoenix Magnet Elementary School,4500 Lincoln Road,Alexandria,LA
1328,31.03949033,-93.27315258,Pickering Elementary School,116 LeBleu Road,Leesville,LA
1329,31.04049035,-93.27145258,Pickering High School,180 LeBleu Road,Leesville,LA
1330,29.96891373,-91.19565828,Pierre Part Elementary School,3321 Highway 70,Pierre Part,LA
1331,32.84349545,-91.86265391,Pine Grove Elementary School,7261 Pine Grove Loop,Bastrop,LA
1332,32.55078347,-93.8150524,Pine Grove Elementary School,1700 Caldwell Street,Shreveport,LA
1333,30.78489283,-92.4225609,Pine Prairie High School,1557 Speedy Campbell Drive,Pine Prairie,LA
1334,30.49490854,-90.8563546,Pine Ridge School,30228 Travis Street,Walker,LA
1335,30.88930228,-90.00574993,Pine School,27164 Highway 62,Franklinton,LA
1336,30.48670673,-90.10525622,Pine View Middle School,1115 West Twenty-Eighth Avenue,Covington,LA
1337,30.85579118,-93.29305251,Pine Wood Elementary School,800 Mel Branch Memorial Drive,DeRidder,LA
1338,31.36408935,-92.40835779,Pinecrest Developmental Center,610 Colwell Street,Pineville,LA
1339,32.34199135,-92.22185205,Pinecrest Elementary/Middle School,3604 Highway 557,West Monroe,LA
1340,32.84298215,-92.80634986,Pineview High School,430 Hebron Road,Lisbon,LA
1341,31.32288949,-92.433758,Pineville Elementary School,835 Main Street,Pineville,LA
1342,31.33488945,-92.43135791,Pineville High School,1511 Line Street,Pineville,LA
1343,31.3440894,-92.40055799,Pineville Junior High School,501 Edgewood Drive,Pineville,LA
1344,32.70819755,-91.43605361,Pioneer Elementary School,1716 Leggitt Crossing Road,Pioneer,LA
1345,30.94559241,-92.93235418,Pitkin High School,7239 Highway 463,Pitkin,LA
1346,32.91398592,-93.70165336,Plain Dealing Academy,200 Garrett Street,Plain Dealing,LA
1347,32.90948589,-93.69965329,Plain Dealing High School,300 East Vance Street,Plain Dealing,LA
1348,32.90948589,-93.69965329,Plain Dealing Middle School,300 East Vance Street,Plain Dealing,LA
1349,30.9332924,-92.77065547,Plainview High School,10935 Highway 112,Glenmora,LA
1350,30.61829703,-92.13256485,Plaisance Elementary School,3264 Hwy. 167,Opelousas,LA
1351,30.16930641,-92.0333621,Plantation Elementary School,1801 Kaliste Saloom Road,Lafayette,LA
1352,32.54128358,-93.71505165,Plantation Park Elementary School,2410 Plantation Drive,Bossier City,LA
1353,30.26301061,-91.25145537,Plaquemine Senior High School,59595 Belleview Drive,Plaquemine,LA
1354,29.52811412,-89.76305889,Plaquemines Parish Alternative School,26878 Hwy 23,Port Sulphur,LA
1355,32.55598376,-93.5678508,Platt Elementary School,4680 East Highway 80,Haughton,LA
1356,30.96819355,-91.98276273,Plaucheville Elementary School,Hwy 1181 - School Loop 50,Plaucheville,LA
1357,30.77350255,-89.86895295,Pleasant Hill Elementary School,725 Ave C,Bogalusa,LA
1358,31.81508926,-93.51364589,Pleasant Hill High School,400 Second Street,Pleasant Hill,LA
1359,30.71450596,-91.53835641,Pointe Coupee Central High School,8434 Pointe Coupee Road,Morganza,LA
1360,29.45391295,-90.46935865,Pointe-aux-Chenes Elementary School,1236 Hwy. 665,Montegut,LA
1361,31.16898986,-92.27815998,Poland Junior High School,3348 Highway 457,Alexandria,LA
1362,30.4270092,-91.17815458,Polk Elementary School,408 East Polk,Baton Rouge,LA
1363,31.51608898,-92.46175632,Pollock Elementary School,4001 Highway 8,Pollock,LA
1364,30.44090729,-90.40455537,Ponchatoula High School,19452 Highway 22 East,Ponchatoula,LA
1365,30.43820734,-90.43725534,Ponchatoula Junior High School,315 East Oak Street,Ponchatoula,LA
1366,30.39090766,-90.10005696,Pontchartrain Elementary School,1500 West Causeway Approach,Mandeville,LA
1367,30.28051144,-89.74586266,Pope John Paul II High School (C),1901 Jaguar Drive,Slidell,LA
1368,30.46340884,-91.20635435,Port Allen Elementary School,609 Rosedale Road,Port Allen,LA
1369,30.46110873,-91.2535544,Port Allen High School,3553 Rosedale Road,Port Allen,LA
1370,30.46350884,-91.20635435,Port Allen Middle School,610 Rosedale Road,Port Allen,LA
1371,30.57630063,-91.9282647,Port Barre Elementary School,199 O G Track Rd.,Port Barre,LA
1372,30.5547005,-91.9580651,Port Barre High School,846 Saizan St.,Port Barre,LA
1373,30.5547005,-91.9580651,Port Barre Middle School,846 Saizan St.,Port Barre,LA
1374,29.47685598,-89.69455586,Port Sulphur High School,164 School Road,Port Sulphur,LA
1375,30.1904057,-92.07516205,Prairie Elementary School,2910 Ambassador Caffery Parkway,Lafayette,LA
1376,32.77709501,-91.87925401,Prairie View Academy,9942 Edwin Street,Bastrop,LA
1377,30.30361015,-90.95555562,Prairieville Middle School,16200 Hwy 930,Prairieville,LA
1378,30.48740876,-91.14875428,Prescott Middle School,4055 Prescott Road,Baton Rouge,LA
1379,30.18949975,-93.24936056,Prien Lake Elementary School,3741 Nelson Road,Lake Charles,LA
1380,29.95031205,-90.12626088,Priestley School of Architecture/Construction,1607 South Carollton Avenue,New Orleans,LA
1381,32.58818392,-93.51535046,Princeton Elementary School,1895 Winfield Road,Princeton,LA
1382,30.53750829,-91.18675414,Progress Elementary School,855 Progress Road,Baton Rouge,LA
1383,31.65409329,-93.20324756,Provencal Elementary & Junior High School,Hwy. 117 South,Provencal,LA
1384,32.48668317,-93.78035191,Queensborough Elementary School,2701 Catherine Street,Shreveport,LA
1385,32.53819295,-92.10645332,Quest School,2401 Oliver Road,Monroe,LA
1386,32.34628714,-92.72095141,Quitman High School,181 Wolverine Drive,Quitman,LA
1387,32.51888343,-93.69565151,R. V. Kerr Elementary School,1700 Airline Drive,Bossier City,LA
1388,29.8776116,-90.42835958,R.J. Vial Elementary School,510 Louisiana Street,Paradis,LA
1389,29.93871136,-90.37765983,R.K. Smith Middle School,281 Sugarland Parkway,Luling,LA
1390,29.94721231,-90.07266105,Rabouin Career Magnet High School,727 Carondelet Street,New Orleans,LA
1391,29.72971256,-90.60245925,Raceland Lower Elementary School,4101 HWY 308 South,Raceland,LA
1392,29.73371257,-90.61305925,Raceland Middle School,3737 Hwy 308,Raceland,LA
1393,29.73321257,-90.61205925,Raceland Upper Elementary School,3759 Hwy 308,Raceland,LA
1394,30.24209938,-93.20146012,Ralph F. Wilson Elementary School,1400 Opelousas Street,Lake Charles,LA
1395,31.1145903,-92.40405949,Rapides High School,9463 Highway 71 South,Lecompte,LA
1396,30.02061216,-90.01716118,Ray Abrams Elementary School,6519 Virgilian Street,New Orleans,LA
1397,30.25659916,-93.18675995,Ray D. Molo Middle Magnet School,2300 Medora,Lake Charles,LA
1398,30.23290316,-92.26766113,Rayne Catholic Elementary School (C),407 South Polk Street,Rayne,LA
1399,30.24530293,-92.26736117,Rayne High School,1016 North Polk Street,Rayne,LA
1400,32.4674958,-91.76095297,Rayville Elementary School,124 Learning Place Street,Rayville,LA
1401,32.45929588,-91.74285294,Rayville High School,193 Hwy. 3048,Rayville,LA
1402,32.45879589,-91.74085294,Rayville Junior High School,225 Hwy. 3048,Rayville,LA
1403,31.07869045,-92.39215977,Red River Academy,2810 Hwy 71 South,Lacompte,LA
1404,32.03358869,-93.33564734,Red River Elementary School,1001 Ashland Road,Coushatta,LA
1405,32.01478894,-93.34174724,Red River High School,915 East Carroll,Coushatta,LA
1406,32.01478894,-93.34144725,Red River Junior High School,931 East Carroll,Coushatta,LA
1407,32.5443836,-93.7060516,Red River Marine Institute  Inc.,2890 Douglas Drive,Bossier City,LA
1408,30.20620292,-92.36076059,Redemptorist Catholic School (C),"606 South Avenue ""N""",Crowley,LA
1409,30.49740868,-91.14955422,Redemptorist Diocesan Regional High School (C),4000 St. Gerard Avenue,Baton Rouge,LA
1410,30.49740868,-91.14955422,Redemptorist Diocesan Regional Junior HS (C),4000 St. Gerard Avenue,Baton Rouge,LA
1411,31.31458955,-92.45965793,Reed Avenue Elementary School,1402 Reed Avenue,Alexandria,LA
1412,30.5968953,-93.04935539,Reeves High School,13770 Highway 113,Reeves,LA
1413,30.00270744,-92.28396042,Rene A. Rost Middle School,112 West Sixth Street,Kaplan,LA
1414,30.07731062,-90.55565834,Reserve Christian High School,3556 W Airline Hwy.,Reserve,LA
1415,30.02341241,-89.97356162,Resurrection of Our Lord School (C),4861 Rosalia Drive,New Orleans,LA
1416,30.22859942,-93.19706005,Reynaud Middle School,745 S Shattuck,Lake Charles,LA
1417,30.42089957,-92.31306194,Richard Elementary School,1616 Charlene Highway,Church Point,LA
1418,30.26209952,-93.36236146,Richard W. Vincent Elementary School,1634 Beglis Parkway,Sulphur,LA
1419,32.28549255,-92.08995172,Richwood High School,5901 Highway 165 S,Monroe,LA
1420,32.28549255,-92.08995172,Richwood Junior High School,5901 Highway 165 S,Monroe,LA
1421,30.17480536,-92.1417616,Ridge Elementary School,2901 South Fieldspan Road,Duson,LA
1422,31.60119732,-91.53435183,Ridgecrest School,200 Robert Webber Drive,Ridgecrest,LA
1423,32.39988336,-93.7896515,Ridgewood Middle School,2001 Ridgewood Drive,Shreveport,LA
1424,29.97621173,-90.17326079,Ridgewood Preparatory School,201 Pasadena Avenue,Metairie,LA
1425,32.32498454,-93.26774857,Ringgold Elementary School,4044 Bienville Rd.  Suite A,Ringgold,LA
1426,32.32498454,-93.26774857,Ringgold High School,4044 Bienville Rd.  Suite B,Ringgold,LA
1427,32.486992,-92.17545308,Riser Elementary School,100 Price Drive,West Monroe,LA
1428,32.486992,-92.17545308,Riser Middle School,100 Price Drive,West Monroe,LA
1429,32.56839354,-92.06305346,River Oaks School,600 Hideaway Road,Monroe,LA
1430,32.49199254,-92.12485314,Riverbend Elementary School,700 Austin Avenue,West Monroe,LA
1431,32.1635865,-93.42994782,Riverdale Academy,Hwy. 515,Coushatta,LA
1432,30.42760945,-91.00745477,Riverdale Christian Academy,2791 Oneal Lane,Baton Rouge,LA
1433,29.95881184,-90.16526077,Riverdale High School,240 Riverdale Drive,Jefferson,LA
1434,29.96251182,-90.16676078,Riverdale Middle School,3900 Jefferson Hwy.,Jefferson,LA
1435,32.48179591,-91.75485303,Riverfield Academy,115 Wood Street,Rayville,LA
1436,30.45390925,-91.0219546,Riveroaks Elementary School,950 Fontainbleau Dr,Baton Rouge,LA
1437,30.06051076,-90.56945845,Riverside Academy,332 Railroad Avenue,Reserve,LA
1438,29.9383119,-90.1688607,Riverside Alternative High School,3225 River Road,Bridge City,LA
1439,29.9383119,-90.1688607,Riverside Alternative High School,3225 River Road,Bridge City,LA
1440,30.36270972,-89.75476093,Riverside Elementary School,38480 Sullivan Drive,Pearl River,LA
1441,32.46028346,-93.70045132,Riverside Elementary School,625 Dixie Garden Drive,Shreveport,LA
1442,30.98499971,-91.80485865,Riverside Elementary School,549 Norwood Street,Simmesport,LA
1443,30.40420943,-91.15105473,Robert E. Lee High School,1105 Lee Drive,Baton Rouge,LA
1444,32.52599284,-92.11115328,Robert E. Lee Junior High School,1600 North 19th Street,Monroe,LA
1445,29.98791218,-90.07406118,Robert Russa Moton Charter School,1501 Abundance Street,New Orleans,LA
1446,32.45149284,-92.08985287,Robinson Elementary School,5101 Reddix Lane,Monroe,LA
1447,30.07011187,-90.88725762,Romeville Elementary School,9156 Central School Street,Convent,LA
1448,30.76630527,-90.51735142,Roseland Elementary School,12516 Times Avenue,Roseland,LA
1449,31.30618958,-92.46335797,Rosenthal Montessori Elementary School,1951 Monroe Street,Alexandria,LA
1450,30.70370636,-91.43615532,Rosenwald Elementary School,1100 New Roads Street,New Roads,LA
1451,31.14289016,-93.27745135,Rosepine Elementary School,1208 Texas Street,Rosepine,LA
1452,30.91919082,-93.28515275,Rosepine High School,502 Louisiana Avenue,Rosepine,LA
1453,30.20630266,-92.39266043,Ross Elementary School,1809 West Hutchinson Avenue,Crowley,LA
1454,30.61340647,-91.37215599,Rougon Elementary School,13258 LA Highway 416,Rougon,LA
1455,31.25058945,-92.28475944,Ruby-Wise Elementary School,5279 Old Marksville Highway,Pineville,LA
1456,29.98691155,-90.19976073,Rudolph Matas School,1201 Elise Street,Metairie,LA
1457,29.98951174,-90.15986088,Rummel Transition School,1901 Severn Avenue,Metairie,LA
1458,30.42390947,-90.99525481,Runnels School,17255 S. Harrell's Ferry Rd.,Baton Rouge,LA
1459,32.51968343,-93.70275155,Rusheon Middle School,2401 Old Minden Road,Bossier City,LA
1460,32.53278604,-92.66615216,Ruston Developmental Center,2776 Hwy 150,Ruston,LA
1461,32.52928651,-92.62245232,Ruston Elementary School,200 N. Bernard Street,Ruston,LA
1462,32.53378619,-92.65075221,Ruston High School,900 Bearcat Drive,Ruston,LA
1463,32.5467858,-92.6772521,Ruston Junior High School,481 Tarbutton Road,Ruston,LA
1464,30.53950832,-91.16955415,Ryan Elementary School,10337 Elm Grove,Baton Rouge,LA
1465,30.17609975,-93.24356051,S. J. Welsh Middle School,1500 W McNeese,Lake Charles,LA
1466,30.24239973,-93.25186049,S. P. Arnett Middle School,400 Sulphur Ave,Westlake,LA
1467,30.2109055,-92.05976228,S.J. Montgomery Elementary School,600 Foreman Drive,Lafayette,LA
1468,31.56228966,-93.47534692,Sabine Parish Family Literacy Center,1255 Fisher Road,Many,LA
1469,31.56588961,-93.48154689,Sabine Program for At-Risk Students,910 West Mississippi Avenue,Many,LA
1470,30.45220901,-91.16525445,Sacred Heart Elementary School (C),2251 Main Street,Baton Rouge,LA
1471,30.68519447,-92.26646329,Sacred Heart Elementary School (C),532 East Main Street,Ville Platte,LA
1472,30.68469448,-92.27106323,Sacred Heart High School (C),114 Trojan Lane,Ville Platte,LA
1473,30.00851094,-90.41655959,Sacred Heart of Jesus School (C),453 Spruce Street,Norco,LA
1474,30.23159946,-93.20556013,Sacred Heart of Jesus/SKD School (C),1100 Mill Street,Lake Charles,LA
1475,31.03399263,-91.98626167,Sacred Heart School (C),9986 Bayou Des Glaises,Moreauville,LA
1476,29.91761245,-90.06116099,Salem Lutheran School,418 Fourth Street,Gretna,LA
1477,32.16088788,-92.97445049,Saline High School,1255 Cooper Street,Saline,LA
1478,32.53729313,-92.08865333,Sallie Humble Elementary School,3800 Westminister Avenue,Monroe,LA
1479,30.24411167,-89.7903625,Salmen High School,300 Spartan Drive,Slidell,LA
1480,30.300799,-93.2114593,Sam Houston High School,880 S H Jones Parkway,Lake Charles,LA
1481,29.9333122,-90.10616089,Samuel J. Green Charter School,2319 Valence Street,New Orleans,LA
1482,30.04051253,-89.93046211,Sarah Towles Reed Senior High School,5316 Michoud Boulevard,New Orleans,LA
1483,32.91508503,-93.42315068,Sarepta High School,6041 Hwy 2,Sarepta,LA
1484,30.58040791,-91.2118541,Scenic Alternative High School,15200 Scenic Highway,Baton Rouge,LA
1485,30.58040791,-91.2118541,Scenic Alternative High School,15200 Scenic Highway,Baton Rouge,LA
1486,29.57481373,-90.68185897,School for Exceptional Children/TARC,105 Moffet Road,Houma,LA
1487,29.72431357,-90.80055906,Schriever Elementary School,2052 West Main,Schriever,LA
1488,29.93980045,-90.04744011,Schwarz Alternative School,709 Park Boulevard,New Orleans,LA
1489,30.5292084,-91.16935416,Scotlandville Elementary School,9147 Elm Grove Garden Drive,Baton Rouge,LA
1490,30.5292084,-91.16935416,Scotlandville Magnet High School,9147 Elm Grove Garden Drive,Baton Rouge,LA
1491,31.2737897,-92.47345817,Scott M. Brame Middle School,4800 Dawn Street,Alexandria,LA
1492,30.26470446,-92.07556259,Scott Middle School,116 Marie Street,Scott,LA
1493,29.84926455,-89.76758639,Sebastien Roy School,4301 Bayou Rd,St Bernard,LA
1494,30.02171108,-90.24116033,Seven Oaks Academy,1901 36th Street,Kenner,LA
1495,30.45100917,-91.07925455,Seven Words Christian Academy (B),9825 Miraflores Drive,Baton Rouge,LA
1496,30.41790927,-90.916955,Seventh Ward Elementary School,24495 Hwy 16,Denham Springs,LA
1497,29.87600922,-92.17325949,Seventh Ward Elementary School,12012 Audubon Road,Abbeville,LA
1498,32.46689297,-92.07975298,Shady Grove Elementary School,2204 Ticheli Road,Monroe,LA
1499,30.53390847,-91.12575418,Sharon Hills Elementary School,6450 Guynell Drive,Baton Rouge,LA
1500,30.39530966,-91.00115496,Shenandoah Elementary School,16555 Appomattox Ave,Baton Rouge,LA
1501,32.52439325,-92.0707533,Sherrouse Academic Center,300 Sherrouse Avenue,Monroe,LA
1502,32.52439325,-92.0707533,Sherrouse School,300 Sherrouse Avenue,Monroe,LA
1503,30.02484253,-89.9551189,Sherwood Forest Elementary School,4801 Maid Marian Drive,New Orleans,LA
1504,30.44750923,-91.06255459,Sherwood Middle School,1020 Marlbrook,Baton Rouge,LA
1505,30.44590905,-91.17575448,Shiloh Baptist Early Learning Academy,185 Eddie Robinson Drive,Baton Rouge,LA
1506,29.89401255,-90.05336094,Shirley Johnson/Gretna Park Elementary School,1130 Gretna Boulevard,Gretna,LA
1507,32.94478429,-93.29445056,Shongaloo High School,229 Hwy Alt 2,Shongaloo,LA
1508,32.47838337,-93.71155147,Shreve Island Elementary School,836 Sewanne Place,Shreveport,LA
1509,32.49178315,-93.78255195,Shreveport Job Corps Opportunity Center,2815 Lillian Street,Shreveport,LA
1510,31.83979427,-91.64465085,Sicily Island Elementary School,1 Falcon Avenue,Sicily Island,LA
1511,31.84449421,-91.65405081,Sicily Island High School,303 Falcon Avenue,Sicily Island,LA
1512,30.86200603,-91.01875393,Silliman Institute,10830 Bank Street,Clinton,LA
1513,31.24919235,-93.05385111,Simpson High School,4262 Highway 8,Simpson,LA
1514,32.53508482,-92.78575167,Simsboro High School,1 Tiger Drive,Simsboro,LA
1515,30.65499291,-93.41055232,Singer High School,153 Highway 110 East,Singer,LA
1516,30.49060702,-89.8106581,Sixth Ward Elementary School,72360 Highway 41,Pearl River,LA
1517,30.00331173,-90.75355834,Sixth Ward Elementary School,3245 Valcour Aime Street,Vacherie,LA
1518,29.87181246,-90.76935874,Sixth Ward Middle School,795 Choctaw Road,Thibodaux,LA
1519,30.71830708,-91.14815392,Slaughter Elementary School,3170 Church Street,Slaughter,LA
1520,30.28551112,-89.77276212,Slidell High School,1 Tiger Drive,Slidell,LA
1521,30.28071115,-89.7790621,Slidell Junior High School,333 Pennsylvania Avenue,Slidell,LA
1522,30.33471024,-89.76166137,Slidell Pathways School,38275 Fifth Avenue,Slidell,LA
1523,31.28378958,-92.4175584,Smyrna Adventist Junior Academy,916 Richmond Drive,Alexandria,LA
1524,29.92521225,-90.10206088,Sophie B. Wright Inst.of Academic Excellence,1426 Napoleon Avenue,New Orleans,LA
1525,30.64399473,-93.23265404,South Beauregard Elementary School,12378 Highway 171,Longville,LA
1526,30.56999614,-93.26475468,South Beauregard High School,151 Longville Church Road,Longville,LA
1527,30.44080908,-91.1822545,South Boulevard Extended Day School,802 Mayflower,Baton Rouge,LA
1528,29.78609995,-93.10646068,South Cameron Elementary School,753 Oak Grove Highway,Grand Chenier,LA
1529,29.78609995,-93.10646068,South Cameron High School,753 Oak Grove Highway,Grand Chenier,LA
1530,30.20210292,-92.37026053,South Crowley Elementary School,1102 South Parkerson Avenue,Crowley,LA
1531,31.45038913,-92.49475669,South Grant Elementary School,1000 Highway 1241,Dry Prong,LA
1532,32.46068336,-93.74665158,South Highlands Elementary Magnet School,831 Erie Street,Shreveport,LA
1533,29.46721295,-90.31105893,South Lafourche High School,16911 East Main Street,Galliano,LA
1534,30.56980836,-90.94805412,South Live Oak Elementary School,8400 Cecil Drive,Watson,LA
1535,29.47741495,-89.69725884,South Plaquemines Elementary School,315 Civic Drive,Port Sulphur,LA
1536,29.47751495,-89.69725884,South Plaquemines High School,311 Civic Drive,Port Sulphur,LA
1537,31.02969101,-93.19005298,South Polk Elementary School,1665 Louisiana Avenue Entrance Road,Leesville,LA
1538,30.22750326,-92.26856112,South Rayne Elementary School,101 East Branche Street,Rayne,LA
1539,32.77429505,-91.91555409,South Side Elementary School,500 South Vine Street,Bastrop,LA
1540,30.53049966,-92.07986487,South Street Elementary School,409 East South Street,Opelousas,LA
1541,29.55891357,-90.63275895,South Terrebonne High School,3879 Hwy. 24,Bourg,LA
1542,29.7812134,-90.81555896,South Thibodaux Elementary School,200 Iris Street,Thibodaux,LA
1543,30.46660874,-90.85815479,South Walker Elementary School,13745 Milton Lane,Walker,LA
1544,29.5924139,-90.74205897,Southdown Elementary School,1124 St. Charles Street,Houma,LA
1545,30.41740932,-91.15165466,Southdowns School,2050 Hood Avenue,Baton Rouge,LA
1546,30.3479081,-90.02855769,Southeast Louisiana State Hospital,23515 Hwy. 190,Mandeville,LA
1547,30.42810943,-91.01875475,Southeast Middle School,15000 Harrells Ferry,Baton Rouge,LA
1548,30.51890658,-90.47195453,Southeastern LA University Lab School,1200 North General Pershing,Hammond,LA
1549,32.4022834,-93.78025148,Southern Hills Elementary School,9075 Kingston Road,Shreveport,LA
1550,30.52350838,-91.19465414,Southern University Lab School,129 Swan Street,Baton Rouge,LA
1551,32.45658335,-93.75385161,Southfield School,1100 Southfield Road,Shreveport,LA
1552,32.45189262,-92.11125286,Southside Alternative High School,4701 S Grand St.,Monroe,LA
1553,32.45189262,-92.11125286,Southside Alternative High School,4701 S Grand Street,Monroe,LA
1554,30.18140546,-92.11776176,Southside Christian Academy,1136 Ridge Road,Duson,LA
1555,32.22598819,-92.71415107,Southside Elementary School,2105 South Polk Street,Jonesboro,LA
1556,32.79489927,-91.18435399,Southside Elementary School,1307 Gould Street,Lake Providence,LA
1557,30.46850906,-90.95695461,Southside Elementary School,1129 South Range Avenue,Denham Springs,LA
1558,30.45060914,-90.94525474,Southside Junior High School,26535 Hwy 42,Denham Springs,LA
1559,30.52659958,-92.09926465,Southwest Elementary School,1203 Burr Street,Opelousas,LA
1560,30.52139709,-93.2310554,Southwest Louisiana Marine Institute,215 Cocodrie Lane,Ragley,LA
1561,32.41248321,-93.81465168,Southwood High School,9000 Walker Road,Shreveport,LA
1562,32.93608561,-92.60224925,Spearsville High School,115 Highway 3265,Spearsville,LA
1563,30.91090432,-90.44624917,Spring Creek Elementary School,72961 Highway 1061,Kentwood,LA
1564,30.42940772,-90.54995531,Springfield Elementary School,25190 Blood River Road,Springfield,LA
1565,30.42990772,-90.5510553,Springfield High School,32000 Hwy 42,Springfield,LA
1566,30.42050786,-90.55955538,Springfield Middle School,24145 Coates Road,Springfield,LA
1567,33.00358587,-93.46765107,Springhill Junior-Senior High School,507 W Church St.,Springhill,LA
1568,32.01248912,-93.32164733,Springville Educational Center,1615 Jim Moore Road,Coushatta,LA
1569,29.96301185,-90.1601608,St. Agnes School (C),3410 Jefferson Highway,Jefferson,LA
1570,30.41570934,-91.14835467,St. Aloysius School (C),2025 Stuart Avenue,Baton Rouge,LA
1571,30.50870887,-91.0314543,St. Alphonsus School (C),13940 Greenwell Sps. Rd.,Greenwell Springs,LA
1572,29.93031236,-90.07396099,St. Alphonsus School (C),2001 Constance Street,New Orleans,LA
1573,30.24131041,-90.87005631,St. Amant High School,12035 Hwy 431,St. Amant,LA
1574,30.22351053,-90.86305647,St. Amant Middle School,44317 Hwy 429,St. Amant,LA
1575,30.22351053,-90.86215648,St. Amant Primary School,44365 Hwy 429,St. Amant,LA
1576,29.92081272,-89.99796123,St. Andrew the Apostle School (C),3131 Eton Street,New Orleans,LA
1577,29.94671205,-90.12896086,St. Andrew's Episcopal School,8012 Oak Street,New Orleans,LA
1578,30.00351173,-90.14696091,St. Angela Merici School (C),835 Melody Drive,Metairie,LA
1579,30.00881144,-90.19406067,St. Ann School (C),4921 Meadowdale Street,Metairie,LA
1580,30.95389163,-92.18976207,St. Anthony of Padua School (C),116 South Knoll Street,Bunkie,LA
1581,29.97731205,-90.10676103,St. Anthony of Padua School (C),4601 Cleveland Avenue,New Orleans,LA
1582,29.93041247,-90.04966107,St. Anthony School (C),900 Franklin Street,Gretna,LA
1583,29.98321223,-90.06766119,St. Augustine Jr. High School (Boys) (C),2600 A.P. Tureaud Avenue,New Orleans,LA
1584,29.98321223,-90.06766119,St. Augustine Senior High School (C),2600 A.P. Tureaud Avenue,New Orleans,LA
1585,30.01211218,-90.03636121,St. Benedict the Moor (C),5010 Piety Drive,New Orleans,LA
1586,29.98901173,-90.16426086,St. Benilde School (C),1801 Division Street,Metairie,LA
1587,29.63191369,-90.75255901,St. Bernadette School (C),309 Funderburk Avenue,Houma,LA
1588,29.87508327,-89.87461746,St. Bernard High School,2601 Torres Dr.,St. Bernard,LA
1589,30.27470599,-91.89836309,St. Bernard School (C),251 East Bridge Street,Breaux Bridge,LA
1590,29.93904392,-89.95419188,St. Bernard Unified School,1100 East Judge Perez Drive,Chalmette,LA
1591,29.98801184,-90.14206094,St. Catherine of Siena School (C),400 Codifer Boulevard,Metairie,LA
1592,30.1488073,-91.96756207,St. Cecilia School (C),302 West Main,Broussard,LA
1593,29.9677112,-90.3903598,St. Charles Borromeo School (C),13396 River Rd.  Building # 3,Destrehan,LA
1594,30.07381047,-90.49325854,St. Charles Catholic High School (C),100 Dominican Drive,LaPlace,LA
1595,29.76431293,-90.76345908,St. Charles Elementary School,1690 Hwy 1,Thibodaux,LA
1596,29.91971225,-91.67255886,St. Charles Street Elementary School,1921 St. Charles Street,Jeanerette,LA
1597,29.97691174,-90.16966081,St. Christopher School (C),3900 Derbigny Street,Metairie,LA
1598,30.01531147,-90.17456066,St. Clement of Rome School (C),3978 West Esplanade Avenue,Metairie,LA
1599,29.88501261,-90.04546093,St. Cletus School (C),3610 Claire Avenue,Gretna,LA
1600,30.00521192,-90.10576104,St. Dominic School (C),6326 Memphis Street,New Orleans,LA
1601,30.49869728,-92.41816119,St. Edmund School (C),351 West Magnolia,Eunice,LA
1602,30.00251054,-91.82526042,St. Edward School (C),175 Porter Street,New Iberia,LA
1603,29.98351163,-90.18726076,St. Edward the Confessor School (C),4901 West Metairie Avenue,Metairie,LA
1604,30.04031084,-90.27625992,St. Elizabeth Ann Seton School (C),4119 St. Elizabeth Drive,Kenner,LA
1605,29.99101325,-91.05515809,St. Elizabeth School (C),6051 Convent Street,Paincourtville,LA
1606,31.28398964,-92.45605819,St. Frances Cabrini School (C),2215 East Texas Avenue,Alexandria,LA
1607,29.59541379,-90.72345898,St. Francis de Sales School (C),300 Verret Street,Houma,LA
1608,30.31949963,-92.50136001,St. Francis School (C),490 St. Joseph Avenue,Iota,LA
1609,30.43720912,-91.17655452,St. Francis Xavier School (C),1150 South Twelfth Street,Baton Rouge,LA
1610,29.98421192,-90.12946097,St. Francis Xavier School (C),215 Betz Place,Metairie,LA
1611,32.54529306,-92.09985335,St. Frederick High School (C),3300 Westminster Avenue,Monroe,LA
1612,30.23190563,-92.01176274,St. Genevieve School (C),201 Elizabeth Street,Lafayette,LA
1613,29.79161357,-90.83895889,St. Genevieve School (C),807 Barbier Avenue,Thibodaux,LA
1614,30.37660973,-91.06925498,St. George School (C),7880 St. George Drive,Baton Rouge,LA
1615,29.92111227,-90.10126087,St. George's Episcopal School,923 Napoleon Avenue,New Orleans,LA
1616,29.96551232,-90.05966115,St. Gerard Majella Alternative School,1941 Dauphine Street,New Orleans,LA
1617,30.49740867,-91.15225422,St. Gerard Majella School (C),3655 St.Gerard Avenue,Baton Rouge,LA
1618,29.60851369,-90.719659,St. Gregory School (C),419 Seventh Street,Houma,LA
1619,30.8296057,-90.70085145,St. Helena Central Elem School,1798 Highway 1042,Greensburg,LA
1620,30.8274056,-90.67175134,St. Helena Central High School,14340 Highway 37,Greensburg,LA
1621,30.8296057,-90.70085145,St. Helena Central Middle School,1590 Highway 1042,Greensburg,LA
1622,30.4199021,-92.04586422,St. Ignatius School (C),180 Church Street,Grand Coteau,LA
1623,30.55870826,-91.13605414,St. Isidore Elementary School (C),5667 Thomas Road,Baton Rouge,LA
1624,30.44840901,-91.18635445,St. James Episcopal Day School,445 Convention Street,Baton Rouge,LA
1625,29.98841226,-90.83595828,St. James High School,5181 Wildcat Street,St. James,LA
1626,30.09611182,-90.92835732,St. James Parish Youth Center Alternative Sch.,10565 Youth Center St.,St. James,LA
1627,30.42500947,-91.00525478,St. Jean Vianney School (C),16266 S Harrell's Ferry Road,Baton Rouge,LA
1628,29.94751203,-90.13436084,St. Joan of Arc School (C),919 Cambronne Street,New Orleans,LA
1629,30.06451052,-90.49905861,St. Joan of Arc School (C),412 Fir Street,LaPlace,LA
1630,32.49808323,-93.75035177,St. John Berchmans Cathedral School (C),947 Jordan Street,Shreveport,LA
1631,30.04781098,-90.61425844,St. John Child Development Center,117 Stebbins Street,Garyville,LA
1632,30.15629975,-93.2661608,St. John Elementary School,5566 Elliott Road,Lake Charles,LA
1633,30.2765105,-91.2414553,St. John Elementary School (C),58645 St. Clement Street,Plaquemine,LA
1634,29.79481415,-91.5009582,St. John Elementary School (C),924 Main Street,Franklin,LA
1635,30.2762105,-91.24005531,St. John High School (C),24250 Regina Street,Plaquemine,LA
1636,29.9735121,-90.09876104,St. John Lutheran School,3937 Canal Street,New Orleans,LA
1637,30.05581095,-90.62305834,St. John Redirection Center,152 Anthony F Monica Street,Garyville,LA
1638,30.96429343,-91.9869629,St. Joseph Elementary & High School (C),3406 Hwy. 107 South,Plaucheville,LA
1639,29.79461326,-90.81065892,St. Joseph Elementary School (C),501 Cardinal Drive,Thibodaux,LA
1640,29.93021212,-91.67745893,St. Joseph School (C),10917 Old Jeanerette Road,Jeanerette,LA
1641,30.43870734,-90.44625532,St. Joseph School (C),175 North Eighth Street,Ponchatoula,LA
1642,32.4685834,-93.71595145,St. Joseph School (C),1210 Anniston Avenue,Shreveport,LA
1643,30.43610916,-91.15785455,St. Joseph's Academy (Girls) (C),3015 Broussard Street,Baton Rouge,LA
1644,30.36700976,-91.12045497,St. Jude School (C),9150 Highland Road,Baton Rouge,LA
1645,30.56299887,-92.07676514,St. Landry Accelerated Transition School,152 Violet Drive,Opelousas,LA
1646,30.21859953,-93.20716011,St. Louis Catholic Freshman HS (C),1620 Bank Street,Lake Charles,LA
1647,30.21859953,-93.20716011,St. Louis Catholic High School (C),1620 Bank Street,Lake Charles,LA
1648,30.46960908,-91.05805447,St. Louis King of France School (C),2311 North Sherwood Forest,Baton Rouge,LA
1649,30.01621171,-90.12336084,St. Louis King of France School (C),1600 Lake Avenue,Metairie,LA
1650,29.96471261,-89.99946137,St. Louise de Marillac School (C),1914 Aycock Street,Arabi,LA
1651,30.44290921,-91.09315458,St. Luke's Episcopal School,8833 Goodwood Boulevard,Baton Rouge,LA
1652,30.28961106,-89.77026209,St. Margaret Mary School (C),1050A Robert Blvd.,Slidell,LA
1653,30.20759958,-93.20446006,St. Margaret School (C),2510 Enterprise Boulevard,Lake Charles,LA
1654,29.94281296,-89.94576202,St. Mark School (C),1625 Missouri Street,Chalmette,LA
1655,32.48248329,-93.74835169,St. Mark's Cathedral School (E),908 Rutherford,Shreveport,LA
1656,30.12500869,-91.83826174,St. Martin Parish Juvenile Training Center,1815 A Terrace Hwy.,St. Martinville,LA
1657,29.97631165,-90.18936074,St. Martin's Episcopal School (E),5309 Airline Drive,Metairie,LA
1658,30.10090902,-91.84026149,St. Martinville Junior High School,7190 Main Hwy.,St. Martinville,LA
1659,30.12930872,-91.82736178,St. Martinville Primary School,716 N Main Street,St. Martinville,LA
1660,30.12980871,-91.82716178,St. Martinville Senior High School,762 N Main Street,St. Martinville,LA
1661,29.98471153,-90.2059607,St. Mary Magdalen School (C),6421 West Metairie Avenue,Metairie,LA
1662,29.75531516,-91.40455874,St. Mary Parish Alternative School,131 Clausen Road S,Franklin,LA
1663,30.01161234,-90.00706132,St. Mary's Academy (Girls) (C),6905 Chef Menteur Highway,New Orleans,LA
1664,30.98799233,-92.05846235,St. Mary's Assumption School  Cottonport (C),850 Front Street,Cottonport,LA
1665,31.21158977,-92.36705919,St. Mary's Day School,6719 Highway 1 North,Alexandria,LA
1666,29.95641209,-90.11416094,St. Mary's Dominican High School (Girls) (C),7701 Walmsley Avenue,New Orleans,LA
1667,31.76849386,-93.07794856,St. Mary's Elementary & High School (C),1101 East Fifth Street,Natchitoches,LA
1668,29.73211263,-90.62875923,St. Mary's School (C),3492 Nies Street,Raceland,LA
1669,29.96141156,-90.22106058,St. Matthew the Apostle School (C),10021 Jefferson Highway,River Ridge,LA
1670,29.59701376,-90.71775898,St. Matthew's Episcopal School,266 Gabasse Street,Houma,LA
1671,30.22540246,-92.37006058,St. Michael School (C),805 East Northern Avenue,Crowley,LA
1672,29.93301237,-90.06866102,St. Michael Special School (C),1522 Chippewa Street,New Orleans,LA
1673,30.40900955,-90.9898549,St. Michael the Archangel Diocesan Regional HS,17521 Monitor Ave.,Baton Rouge,LA
1674,30.40900955,-90.9898549,St. Michael the Archangel Diocesan Regional JH,17521 Monitor Ave.,Baton Rouge,LA
1675,29.96671236,-90.05046119,St. Paul Lutheran School (L),2624 Burgundy Street,New Orleans,LA
1676,30.00371193,-90.10786105,St. Paul's Episcopal School (E),6249 Canal Boulevard,New Orleans,LA
1677,30.46630693,-90.10305638,St. Paul's Junior High School (C),917 S. Jahncke Drive,Covington,LA
1678,30.46630693,-90.10305638,St. Paul's Senior High School(Boys)(C),917 S. Jahncke Drive,Covington,LA
1679,30.02481145,-90.71505831,St. Peter Chanel Interparochial School,2590 Hwy. 44,Paulina,LA
1680,29.96841224,-90.07366112,St. Peter Claver School (C),1020 North Prieur Street,New Orleans,LA
1681,30.47400685,-90.10125634,St. Peter School (C),130 East Temperance Street,Covington,LA
1682,30.02600551,-92.50785961,St. Peter School (C),513 Sixth Street,Gueydan,LA
1683,30.05661075,-90.56045851,St. Peter School (C),188 West Seventh Street,Reserve,LA
1684,30.01211129,-90.21696055,St. Philip Neri School (C),6600 Kawanee Avenue,Metairie,LA
1685,30.18380632,-92.0185623,St. Pius Elementary School (C),205 E Bayou Pkwy.,Lafayette,LA
1686,30.02331177,-90.09206086,St. Pius X School (C),6600 Spanish Fort Blvd.,New Orleans,LA
1687,31.31458987,-92.52695732,St. Rita School (C),2386 Vandenburg Drive,Alexandria,LA
1688,29.93561177,-90.19966059,St. Rita School (C),194 Ravan Avenue,Harahan,LA
1689,29.95471209,-90.11526093,St. Rita School (C),65 Fontainebleau Drive,New Orleans,LA
1690,29.96001268,-89.99026148,St. Robert Bellarmine School (C),815 Badger Drive,Arabi,LA
1691,29.90321239,-90.08506087,St. Rosalie School (C),617 Second Avenue,Harvey,LA
1692,29.95701136,-90.30836019,St. Rose Elementary School,230 Pirate Drive,St. Rose,LA
1693,30.47370685,-90.09805636,St. Scholastica Academy,122 S Massachusetts,Covington,LA
1694,29.92211226,-90.10136087,St. Stephen School (C),1027 Napoleon Avenue,New Orleans,LA
1695,30.26831138,-89.7803623,St. Tammany Junior High School,701 Cleveland Avenue,Slidell,LA
1696,30.30059899,-93.2096593,St. Theodore's Holy Family Catholic School (C),785 Sam Houston Jones Parkway,Lake Charles,LA
1697,30.24011053,-90.91945615,St. Theresa of Avila School (C),212 East New River Street,Gonzales,LA
1698,30.52920652,-90.48615438,St. Thomas Aquinas Diocesan Regional HS (C),14520 Voss Drive,Hammond,LA
1699,30.14840667,-92.04266189,St. Thomas More Catholic High School (C),450 East Farrel Road,Lafayette,LA
1700,30.14840667,-92.04266189,St. Thomas More Junior High School (C),450 East Farrel Road,Lafayette,LA
1701,30.45060922,-91.05675458,St. Thomas More School (C),11400 Sherbrook Drive,Baton Rouge,LA
1702,29.89601246,-90.07386088,St. Ville Academy for High School Preparation,1121 Pailet Avenue,Harvey,LA
1703,31.95898438,-93.92154612,Stanley High School,14323 Hwy. 84,Logansport,LA
1704,30.39230957,-91.11115484,Staring Education Center,1919 Staring Lane,Baton Rouge,LA
1705,30.54270857,-91.0552542,Starkey Academy,10510 Joor Road,Baton Rouge,LA
1706,30.31739737,-93.66166022,Starks High School,137 Highway 109,Starks,LA
1707,32.48719506,-91.85845309,Start Elementary School,883 Charleston Street,Start,LA
1708,29.89951217,-90.14186067,Stella Worley Middle School,801 Spartan Drive,Westwego,LA
1709,32.41429717,-91.19955287,Stephen Hoyle Rehabilitation Center,1005 West Green Street,Tallulah,LA
1710,29.87121481,-91.20735857,Stephensville Elementary School,3243 Highway 70,Morgan City,LA
1711,29.90551262,-90.03016105,Stepping Stones Montessori School,552 Terry Parkway,Gretna,LA
1712,32.59849364,-92.06875356,Sterlington High School,233 Keystone Road,Monroe,LA
1713,32.608183,-93.30014997,Stewart Elementary School,215 N Middle Landing,Minden,LA
1714,32.56158375,-93.64435126,Stockwell Place Elementary School,5801 Shed Road,Bossier City,LA
1715,30.25680523,-92.01106296,Sts. Leo-Seton School (C),502 St. Leo Sreet,Lafayette,LA
1716,29.95331205,-90.1235609,Stuart Hall School for Boys (C),2032 S Carrollton Avenue,New Orleans,LA
1717,29.99223227,-90.05375626,Stuart R. Bradley Elementary School,2401 Humanity Street,New Orleans,LA
1718,29.99961036,-91.85706046,Sugarland Elementary School,2403 Jefferson Island Road,New Iberia,LA
1719,30.23239962,-93.37426191,Sulphur High School,100 Sycamore Street,Sulphur,LA
1720,32.40208327,-93.80735159,Summer Grove Elementary School,2955 Bert Kouns Industrial Loop,Shreveport,LA
1721,32.38628325,-93.81815154,Summerfield Elementary School,3131 Ardis Taylor Drive,Shreveport,LA
1722,32.92488227,-92.78614836,Summerfield High School,4200 Highway 9,Summerfield,LA
1723,32.47548346,-93.66725121,Sun City Elementary School,4230 Van Deeman Street,Bossier City,LA
1724,32.44708326,-93.78505173,Sunset Acres Elementary School,6514 West Canal Boulevard,Shreveport,LA
1725,30.40510214,-92.0680639,Sunset Elementary School,236 Church Hill St.,Sunset,LA
1726,30.79060236,-89.86965264,Superior Avenue Elementary School,625 Superior Avenue,Bogalusa,LA
1727,32.56879424,-91.98965352,Swartz Lower Elementary School,235 Swartz School Rd,Monroe,LA
1728,32.56229417,-91.9974535,Swartz Upper Elementary School,400 Lincoln Hill Drive,Monroe,LA
1729,32.4782929,-92.08895305,Swayze Elementary School,2400 Burg Jones Lane,Monroe,LA
1730,29.94722523,-90.08957499,Sylvanie F. Williams School,3127 Martin L. King Boulevard,New Orleans,LA
1731,30.20709951,-93.18515985,T. H. Watkins Elementary School,2501 Seventh Avenue,Lake Charles,LA
1732,30.20479962,-93.21396015,T. S. Cooley Elementary Magnet School,2711 Common Street,Lake Charles,LA
1733,29.98451157,-90.19876073,T.H. Harris Middle School,911 Elise Avenue,Metairie,LA
1734,32.55598376,-93.5679508,T.L. Rodes Elementary School,4670 East Highway 80,Haughton,LA
1735,32.39979704,-91.17745268,Tallulah Academy-Delta Christian School,700 Wood Street,Tallulah,LA
1736,32.40119705,-91.18445272,Tallulah Elementary School,1100 Johnson Street,Tallulah,LA
1737,30.51840658,-90.45965455,Tangipahoa Parish PM High School,411 Crystal Street,Hammond,LA
1738,30.53410859,-91.07435421,Tanglewood Elementary School,9352 Rustling Oaks,Baton Rouge,LA
1739,30.43480928,-91.08955463,Tara High School,9002 Whitehall,Baton Rouge,LA
1740,30.39150765,-90.10045695,Tchefuncte Middle School,1530 West Causeway Approach,Mandeville,LA
1741,30.34150521,-91.86936308,Teche Elementary School,2439 Main Hwy.,Breaux Bridge,LA
1742,31.91989525,-91.23515223,Tensas Academy,418 Highway 128,St. Joseph,LA
1743,31.91589525,-91.24095225,Tensas Elementary School,Rt. 2 Box 306,St. Joseph,LA
1744,31.92179525,-91.23755222,Tensas High School,720  Plank Road,St. Joseph,LA
1745,29.60041382,-90.73665898,Terrebonne High School,7318 Main Street,Houma,LA
1746,29.90501261,-90.03196104,Terrytown Elementary School,550 East Forest Lawn Drive,Terrytown,LA
1747,30.23730575,-91.98986287,Teurlings Catholic High School(C),139 Teurlings Drive,Lafayette,LA
1748,30.84050364,-90.15485008,The Bowling Green School,700 Varnado Street,Franklinton,LA
1749,29.59711367,-90.69975899,The dePaul School,131 Rosary Street,Houma,LA
1750,30.38270967,-91.08665493,The Dunham School,11111 Roy Emerson Drive,Baton Rouge,LA
1751,29.93211232,-90.08106097,The Louise S. McGehee School (GIRLS),2343 Prytania Street,New Orleans,LA
1752,30.01581119,-90.22896045,Theodore Roosevelt Middle School,3315 Maine Avenue,Kenner,LA
1753,29.79251332,-90.81505892,Thibodaux Elementary School,700 East Seventh Street,Thibodaux,LA
1754,29.77691369,-90.84045893,Thibodaux High School,1355 Tiger Drive,Thibodaux,LA
1755,29.96481151,-90.02049429,Thomas Alva Edison Elementary School,1339 Forstall Street,New Orleans,LA
1756,30.96040191,-90.02874833,Thomas Elementary School,30341 Highway 424,Franklinton,LA
1757,29.83841312,-91.65675867,Thomas Gibbs Elementary School,264 Hwy. 318,Franklin,LA
1758,29.91261247,-90.06166097,Thomas Jefferson Academy for Advanced Studies,815 Huey P. Long Avenue,Gretna,LA
1759,32.48859282,-92.09815312,Thomas Jefferson Elementary,1001 Pecan Street,Monroe,LA
1760,29.93819224,-90.09428295,Thomy Lafon School,2601 Seventh Street,New Orleans,LA
1761,29.97841105,-90.10603203,Thurgood Marshall School,4621 Canal Street,New Orleans,LA
1762,31.37798932,-92.41605764,Tioga Elementary School,4310 Pardue Road,Ball,LA
1763,31.38358931,-92.42845753,Tioga High School,1207 Tioga Road,Ball,LA
1764,31.38338931,-92.42735754,Tioga Junior High School,1150 Tioga Road,Pineville,LA
1765,30.01711131,-90.20306053,Torah Academy (J),5210 W Esplanade Avenue,Metairie,LA
1766,30.54530641,-90.4617542,Trafton Academy,47342 North Cherry St.,Hammond,LA
1767,30.11840886,-91.82936167,Trinity Catholic Elementary School (C),242 Gary Street,St. Martinville,LA
1768,30.65050753,-91.15845402,Trinity Christian Academy,4315D Church Street,Zachary,LA
1769,30.41710932,-91.15595465,Trinity Episcopal School,3550 Morning Glory Avenue,Baton Rouge,LA
1770,29.93141233,-90.07816098,Trinity Episcopal School,1315 Jackson Avenue,New Orleans,LA
1771,30.24860517,-92.03186275,Truman Elementary School,200 Clara Street,Lafayette,LA
1772,30.43710735,-90.43555535,Tucker Memorial Elementary School,310 South Third Street,Ponchatoula,LA
1773,30.79880637,-91.40645434,Tunica Elementary School,15311 Tunica Trace,Tunica,LA
1774,32.44228298,-93.85525207,Turner Elementary/Middle School,5904 West Seventieth Street,Shreveport,LA
1775,30.45180924,-91.03835459,Twin Oaks Elementary School,819 Trammel Drive,Baton Rouge,LA
1776,32.07619174,-92.07975117,Union Central Elementary School,649 Highway 849,Columbia,LA
1777,32.53048334,-93.41395026,Union Elementary School,273 Pilgrim Rest Rd,Doyline,LA
1778,32.79469014,-92.38755257,Union Parish School Away From School,1206 Marion Highway,Farmerville,LA
1779,32.59268386,-93.80885251,University Christian Prep (B),4800 Old Mooringsport Road,Shreveport,LA
1780,32.41368365,-93.7024511,University Elementary School,9900 Smitherman Drive,Shreveport,LA
1781,29.94141208,-90.12726085,University Montessori School,7508 Burthe Street,New Orleans,LA
1782,30.50940664,-90.46515466,University Montessori School of Hammond,702 North Magnolia,Hammond,LA
1783,30.42160924,-91.1836546,University Terrace Elementary School,575 West Roosevelt,Baton Rouge,LA
1784,29.48871351,-90.57405884,Upper Little Caillou Elementary School,4824 Hwy. 56,Chauvin,LA
1785,30.83700422,-91.67015822,Upper Pointe Coupee Elementary School,4739 LA Highway 419 West,Batchelor,LA
1786,29.94121214,-90.11406089,Ursuline Academy (Girls) (C),2635 State Street,New Orleans,LA
1787,29.94121214,-90.11406089,Ursuline Elementary Academy (Girls) (C),2635 State Street,New Orleans,LA
1788,29.78911339,-91.71575879,V. B. Glencoe Charter School,4491 La Hwy 83,Franklin,LA
1789,29.94541175,-90.68275873,Vacherie Elementary School,13440 Highway 644,Vacherie,LA
1790,29.92991178,-90.66835881,Vacherie Primary School,19177 Highway 643,Vacherie,LA
1791,29.97838226,-90.06338718,Valena C. Jones Elementary School,1901 North Galvez Street,New Orleans,LA
1792,30.42750925,-91.14325461,Valley Park School,4510 Bawell,Baton Rouge,LA
1793,30.52880448,-91.53316023,Valverda Elementary School,1653 Valverda Road,Maringouin,LA
1794,29.60371387,-90.75075898,Vandebilt Catholic High School (C),209 South Hollywood Road,Houma,LA
1795,30.89960071,-89.81235112,Varnado Elementary School,64139 Jones Creek Road,Angie,LA
1796,30.89290095,-89.83255109,Varnado High School,25543 Washington Street,Varnado,LA
1797,31.65819106,-92.67865299,Verda Elementary School,2580 Highway 122,Montgomery,LA
1798,29.97950861,-92.14026046,Vermilion Catholic High School (C),425 Park Avenue,Abbeville,LA
1799,31.15079017,-93.27605126,Vernon Middle School,1410 Nona Street,Leesville,LA
1800,31.14309026,-93.26745139,Vernon Parish Optional School,401 Nolan Trace,Leesville,LA
1801,29.8989122,-90.1342607,Vic A. Pitre Elementary School,1525 Spruce Street,Westwego,LA
1802,30.49070898,-91.03475438,Victory Academy,3953 North Flannery Road,Baton Rouge,LA
1803,31.57419847,-91.45345232,Vidalia High School,2201 Murray Drive,Vidalia,LA
1804,31.5610987,-91.43295255,Vidalia Junior High School,210 Gillespie Street,Vidalia,LA
1805,31.57079853,-91.42875257,Vidalia Lower Elementary School,300 Stampley Street,Vidalia,LA
1806,31.56439864,-91.42315264,Vidalia Upper Elementary School,1 Concordia Avenue,Vidalia,LA
1807,30.70059404,-92.34046225,Vidrine Elementary School,5094 Vidrine Road,Ville Platte,LA
1808,30.46440908,-91.07635448,Villa del Rey Elementary School,9765 Cuyhanga Pkwy,Baton Rouge,LA
1809,29.58521354,-90.65665899,Village East Elementary School,315 Lafayette Woods,Houma,LA
1810,30.68249451,-92.27846312,Ville Platte Elementary School,708 High School Drive,Ville Platte,LA
1811,30.68669442,-92.27686315,Ville Platte High School,210 West Cotton Street,Ville Platte,LA
1812,30.1476997,-93.35906173,Vincent Settlement Elementary School,1072 Vincent Settlement Road,Sulphur,LA
1813,30.19259914,-93.58176261,Vinton Elementary School,1610 Hampton Street,Vinton,LA
1814,30.18149919,-93.58016259,Vinton High School,1603 Grace Street,Vinton,LA
1815,30.19579913,-93.58126263,Vinton Middle School,900 Horridge Street,Vinton,LA
1816,29.85481246,-90.10936064,Visitation of Our Lady School (C),3520 Ames Boulevard,Marrero,LA
1817,32.87528615,-93.98515645,Vivian Elementary/Middle School,100 West Kentucky Avenue,Vivian,LA
1818,30.85440347,-90.14464985,Vocational Career Center,616 T.W. Barker Drive,Franklinton,LA
1819,29.56491376,-90.67645895,Vocational Technical High/TVRC,3051 Patriot Drive,Houma,LA
1820,30.23420571,-91.99876284,Volunteers of America Juvenile Day Program,421 Carmel Drive,Lafayette,LA
1821,29.99560712,-90.08181917,Vorice Jackson Waters Elementary School,3800 Cadillac Street,New Orleans,LA
1822,30.21930593,-92.0007627,W. D. Smith Career Center,200 18th Street,Lafayette,LA
1823,29.8917212,-89.89822731,W. Smith Jr. Elementary School,6701 St. Bernard Hwy.,Violet,LA
1824,30.21829964,-93.37036186,W. T. Henning Elementary School,774 Henning Drive,Sulphur,LA
1825,30.23109963,-93.36006174,W. W. Lewis Middle School,1752 Cypress,Sulphur,LA
1826,30.48119657,-92.60695911,W. W. Stewart Elementary School,1032 Belton Street,Basile,LA
1827,30.25801158,-89.7799625,W.L. Abney Elementary School,825 Kostmayer Avenue,Slidell,LA
1828,31.29128958,-92.43265826,W.O. Hall Elementary School,3111 Jones Street,Alexandria,LA
1829,29.78341427,-91.49925832,W.P. Foster Elementary School,101 Second Street,Franklin,LA
1830,29.78211354,-90.82935893,W.S. Lafargue Elementary School,700 Plantation Road,Thibodaux,LA
1831,29.92431174,-90.2179605,Waggaman Special School,6801 River Road,Waggaman,LA
1832,30.4907086,-90.86725461,Walker Elementary School,13327 Wildcat Drive,Walker,LA
1833,30.48930864,-90.87485461,Walker High School,12646 Burgess Avenue,Walker,LA
1834,30.4891086,-90.86295463,Walker Junior High School,13443 Burgess Avenue,Walker,LA
1835,32.50768335,-93.69945152,Waller Elementary School,1130 Patricia Drive,Bossier City,LA
1836,32.38828284,-93.90015188,Walnut Hill Elementary/Middle School,9360 Woolworth Road,Shreveport,LA
1837,30.02471109,-90.23246032,Walter G. Schneckenburger Elem School,26 Earnest Street,Kenner,LA
1838,29.93055327,-90.09406893,Walter L. Cohen High School,3520 Dryades Street,New Orleans,LA
1839,30.20950012,-92.65495882,Ward Elementary School,1303 South Cutting Avenue,Jennings,LA
1840,32.07788782,-93.3752474,Ware Youth Center,Route 1 Box 6000,Coushatta,LA
1841,29.96791216,-90.09056105,Warren Easton Senior High School,3019 Canal Street,New Orleans,LA
1842,30.60929786,-92.0585657,Washington Career & Technical Education Center,605 Buhot Street,Washington,LA
1843,30.92610057,-89.83435051,Washington Correctional Institute,27268 Hwy. 21,Angie,LA
1844,29.97621138,-90.24316055,Washington Elementary School,606 Clay Street,Kenner,LA
1845,29.97619438,-90.24311955,Washington Elementary School,606 Clay Street,Kenner,LA
1846,30.60939781,-92.06476563,Washington Elementary School,1530 Hwy. 10,Washington,LA
1847,30.25179912,-93.17635996,Washington/Marion Magnet High School,2802 Pineview Street,Lake Charles,LA
1848,32.60418291,-93.28434994,Webster Junior High School,700 East Union,Minden,LA
1849,32.62508298,-93.28964994,Webster Parish Achievement Center,109 Clerk St,Minden,LA
1850,32.62508298,-93.28964994,Webster Parish Expulsion School,109 Clerk Street,Minden,LA
1851,30.43610938,-91.01295471,Wedgewood Elementary School,2330 Aspenwood Ave,Baton Rouge,LA
1852,30.23489856,-92.81375845,Welsh Elementary School,222 East Bourgeois Street,Welsh,LA
1853,30.23479856,-92.81145845,Welsh High School,306 East Bourgeois Street,Welsh,LA
1854,30.23139906,-92.72055857,Welsh-Roanoke Junior High School,8150 West Highway 90,Roanoke,LA
1855,32.46368323,-93.78045179,Werner Park Elementary School,2715 Corbitt Street,Shreveport,LA
1856,30.97220006,-89.83834969,Wesley Ray Elementary School,30523 Wesley Ray Road,Angie,LA
1857,30.8303062,-91.3861543,West Feliciana High School,8604 U.S. Hwy. 61,St. Francisville,LA
1858,30.82840621,-91.3856543,West Feliciana Middle School,9559 Bains Road,St. Francisville,LA
1859,29.90421244,-90.07366091,West Jefferson High School,2200 Eighth Street,Harvey,LA
1860,31.12839023,-93.27135155,West Leesville Elementary School,1200 Abe Allen Memorial Drive,Leesville,LA
1861,32.51219248,-92.13845322,West Monroe High School,201 Riggs Street,West Monroe,LA
1862,32.42889008,-92.33715257,West Ouachita High School,4061 Caples Road,West Monroe,LA
1863,29.5981138,-90.72765898,West Park Elementary School,7573 Park Avenue,Houma,LA
1864,32.51519162,-92.22115319,West Ridge Middle School,6977 Cypress Street,West Monroe,LA
1865,30.72650546,-90.51355191,West Side Middle School,401 West Oak Street,Amite,LA
1866,30.04661088,-90.58205854,West St. John Elementary School(K-7),2555 La Hwy. 18,Edgard,LA
1867,30.05201066,-90.52295866,West St. John High School,480 LA Hwy 3127,Edgard,LA
1868,29.86291323,-91.57205803,West St. Mary High School,18333 Hwy 182 West,Baldwin,LA
1869,29.78731334,-90.81385894,West Thibodaux Middle School,1111 East Twelfth Street,Thibodaux,LA
1870,29.85521248,-90.10526065,Westbank Community School,2590 Barataria Boulevard,Marrero,LA
1871,29.85521248,-90.10526065,Westbank Pre-K Center,2590 Barataria Boulevard,Marrero,LA
1872,30.43000924,-91.13545461,Westdale Heights Academic Magnet School,2000 College Drive,Baton Rouge,LA
1873,30.44160916,-91.13245455,Westdale Middle School,5650 Claycut Road,Baton Rouge,LA
1874,30.25369968,-93.26656057,Western Heights Elementary School,1100 Elizabeth Street,Westlake,LA
1875,29.99971037,-91.85546046,Westgate High School,2305 Jefferson Island Road,New Iberia,LA
1876,30.26059963,-93.26226038,Westlake High School,1000 Garden Drive,Westlake,LA
1877,30.46240079,-92.10806407,Westminster Christian Academy,186 Westminster Dr.,Opelousas,LA
1878,30.40990946,-91.09245477,Westminster Elementary School,8935 Westminster Dr,Baton Rouge,LA
1879,32.24038852,-92.60715125,Weston High School,213 Highway 505,Jonesboro,LA
1880,30.23590474,-92.09636223,Westside Elementary School,912 Delhomme Ave,Scott,LA
1881,30.48950864,-90.87515461,Westside Junior High School,12615 Burgess Avenue,Walker,LA
1882,29.90731214,-90.14286069,Westwego Elementary School,537 Avenue D,Westwego,LA
1883,32.43738323,-93.79715174,Westwood Elementary School,7325 Jewella Avenue,Shreveport,LA
1884,30.25649967,-93.25796042,Westwood Elementary School,1900 Sampson Street,Westlake,LA
1885,30.31821058,-89.7610617,Whispering Forest Elementary School,300 Spiehler Road,Slidell,LA
1886,30.16611157,-91.14705644,White Castle High School,32695 Graham Street,White Castle,LA
1887,30.593708,-91.13935409,White Hills Elementary School,5300 Bentley Drive,Baker,LA
1888,32.54068619,-92.64555222,Wildflower Montessori School,700 W Woodward Avenue,Ruston,LA
1889,30.37130972,-91.11705495,Wildwood Elementary School,444 Halfway Tree Rd,Baton Rouge,LA
1890,29.98255838,-90.03738529,William Frantz Elementary School,3240 Law Street,New Orleans,LA
1891,29.91871251,-90.04786104,William Hart Elementary School,2001 Hancock Street,Gretna,LA
1892,29.93611249,-90.04156112,William J. Fischer Elementary School,1801 L.B. Landry Avenue,New Orleans,LA
1893,29.94538426,-90.084724,William J. Guste Elementary School,2625 Thalia Street,New Orleans,LA
1894,30.47260687,-90.10295634,William Pitcher Junior High School,415 South Jefferson Avenue,Covington,LA
1895,30.47880884,-91.14485433,Winbourne Elementary School,4501 Winbourne Ave,Baton Rouge,LA
1896,31.85019106,-92.78115151,Winn Correctional Center,Highway 560 Gum Springs Road,Winnfield,LA
1897,31.92398996,-92.64175204,Winnfield Intermediate School,400 South St. John Street,Winnfield,LA
1898,31.92728987,-92.62585209,Winnfield Kindergarten,1607 Maple Street,Winnfield,LA
1899,31.94768998,-92.65725183,Winnfield Middle School,685 Thomas Mill Road,Winnfield,LA
1900,31.92398996,-92.64155204,Winnfield Primary School,401 South St. John Street,Winnfield,LA
1901,31.94768997,-92.65495184,Winnfield Senior High School,631 Thomas Mill Road,Winnfield,LA
1902,32.16459483,-91.72195157,Winnsboro Elementary School,1310 Warren Street,Winnsboro,LA
1903,30.35650801,-90.05815746,Woodlake Elementary School,1620 Livingston Street,Mandeville,LA
1904,30.49670673,-90.44835484,Woodland Park Early Learning Center,1000 Range Road,Hammond,LA
1905,29.86571263,-90.05386084,Woodland West Elementary School,2143 Mars Street,Harvey,LA
1906,32.41199104,-92.25775253,Woodlawn Elementary School,5946 Jonesboro Road,West Monroe,LA
1907,32.43718333,-93.77365162,Woodlawn High School,7340 Wyngate Drive,Shreveport,LA
1908,30.3731098,-91.01365507,Woodlawn High School,15755 Jefferson Highway,Baton Rouge,LA
1909,30.39130968,-91.01545496,Woodlawn Middle School,14939 Tiger Bend Road,Baton Rouge,LA
1910,32.41249147,-92.21705255,Woodlawn Middle School,175 Woodlawn School Road,West Monroe,LA
1911,29.85421261,-90.07026075,Woodmere Elementary School,3190 Destrehan Avenue,Harvey,LA
1912,30.18880583,-92.0635621,Woodvale Elementary School,100 Leon Drive,Lafayette,LA
1913,32.49079297,-92.08505314,Wossman High School,1600 Arizona Street,Monroe,LA
1914,32.41839721,-91.19505287,Wright Elementary School,809 Wyche Street,Tallulah,LA
1915,29.69161601,-91.17825864,Wyandotte Elementary School,2 Glenwood Avenue,Morgan City,LA
1916,29.92031223,-90.11016084,Xavier University Prep School (Girls) (C),5116 Magazine Street,New Orleans,LA
1917,30.09830786,-91.99436164,Youngsville Middle School,600 Church Street,Youngsville,LA
1918,32.45288344,-93.72205141,Youree Drive Middle School,6008 Youree Drive,Shreveport,LA
1919,31.37068933,-92.40155777,Youth Challenge Program-Camp Beauregard,505 F Street  Camp Beauregard,Pineville,LA
1920,32.57288348,-93.41685022,Youth Challenge Program-Camp Minden,200 Louisiana Blvd,Minden,LA
1921,30.20361115,-91.11435609,Youth Challenge Program-Gillis Long,5445 Point Clair Road Bldg 19,Carville,LA
1922,30.64060758,-91.16695403,Zachary Elementary School,3775 Hemlock Street,Zachary,LA
1923,30.65070753,-91.16035402,Zachary High School,4100 Bronco Lane,Zachary,LA
1924,31.63338759,-93.64514581,Zwolle Elementary School,743 Championship Drive,Zwolle,LA
1925,31.63348758,-93.6461458,Zwolle High School,649 Championship Drive,Zwolle,LA
